{"type":"FeatureCollection","features":[{"type":"Feature","geometry":{"type":"LineString","coordinates":[[-83.735601,42.278394],[-83.735547,42.278354]]},"properties":{"Type":null}},{"type":"Feature","geometry":{"type":"LineString","coordinates":[[-83.735508,42.278325],[-83.73549,42.278312]]},"properties":{"Type":null}},{"type":"Feature","geometry":{"type":"LineString","coordinates":[[-83.735483,42.278306],[-83.73547,42.278296]]},"properties":{"Type":null}},{"type":"Feature","geometry":{"type":"LineString","coordinates":[[-83.735417,42.278252],[-83.735328,42.278182]]},"properties":{"Type":null}},{"type":"Feature","geometry":{"type":"LineString","coordinates":[[-83.735258,42.278128],[-83.735246,42.278119]]},"properties":{"Type":null}},{"type":"Feature","geometry":{"type":"LineString","coordinates":[[-83.735238,42.278113],[-83.735226,42.278103]]},"properties":{"Type":null}},{"type":"Feature","geometry":{"type":"LineString","coordinates":[[-83.734994,42.277921],[-83.734977,42.277908]]},"properties":{"Type":null}},{"type":"Feature","geometry":{"type":"LineString","coordinates":[[-83.734969,42.277901],[-83.734952,42.277888]]},"properties":{"Type":null}},{"type":"Feature","geometry":{"type":"LineString","coordinates":[[-83.73472,42.277707],[-83.734694,42.277687]]},"properties":{"Type":null}},{"type":"Feature","geometry":{"type":"LineString","coordinates":[[-83.734686,42.277681],[-83.73466,42.277661]]},"properties":{"Type":null}},{"type":"Feature","geometry":{"type":"LineString","coordinates":[[-83.735704,42.278462],[-83.735683,42.278449]]},"properties":{"Type":null}},{"type":"Feature","geometry":{"type":"LineString","coordinates":[[-83.735814,42.278517],[-83.73579,42.278507]]},"properties":{"Type":null}},{"type":"Feature","geometry":{"type":"LineString","coordinates":[[-83.735758,42.27849],[-83.735783,42.278503]]},"properties":{"Type":null}},{"type":"Feature","geometry":{"type":"LineString","coordinates":[[-83.73795,42.279302],[-83.737915,42.279303]]},"properties":{"Type":null}},{"type":"Feature","geometry":{"type":"LineString","coordinates":[[-83.71482,42.28989],[-83.71482,42.289884]]},"properties":{"Type":null}},{"type":"Feature","geometry":{"type":"LineString","coordinates":[[-83.714875,42.28989],[-83.714875,42.289884]]},"properties":{"Type":null}},{"type":"Feature","geometry":{"type":"LineString","coordinates":[[-83.714765,42.28989],[-83.714765,42.289884]]},"properties":{"Type":null}},{"type":"Feature","geometry":{"type":"LineString","coordinates":[[-83.714766,42.28981],[-83.714766,42.2898]]},"properties":{"Type":null}},{"type":"Feature","geometry":{"type":"MultiLineString","coordinates":[[[-83.71482,42.28981],[-83.71482,42.2898]],[[-83.714874,42.289811],[-83.714874,42.2898]]]},"properties":{"Type":null}},{"type":"Feature","geometry":{"type":"LineString","coordinates":[[-83.714761,42.289807],[-83.714761,42.289792],[-83.714648,42.289792]]},"properties":{"Type":null}},{"type":"Feature","geometry":{"type":"LineString","coordinates":[[-83.714643,42.289826],[-83.714643,42.28981],[-83.714722,42.28981],[-83.714722,42.289825]]},"properties":{"Type":null}},{"type":"Feature","geometry":{"type":"LineString","coordinates":[[-83.714839,42.289556],[-83.714839,42.289578]]},"properties":{"Type":null}},{"type":"Feature","geometry":{"type":"LineString","coordinates":[[-83.714813,42.289556],[-83.714813,42.289577]]},"properties":{"Type":null}},{"type":"Feature","geometry":{"type":"MultiLineString","coordinates":[[[-83.739704,42.249263],[-83.739704,42.249263]],[[-83.739704,42.249263],[-83.739696,42.249269]],[[-83.739704,42.249263],[-83.740071,42.249255],[-83.740411,42.249251],[-83.740766,42.249246],[-83.740939,42.249243],[-83.740942,42.249325]],[[-83.739704,42.249263],[-83.739704,42.249263]],[[-83.741154,42.249338],[-83.741076,42.249339]],[[-83.741065,42.249345],[-83.741038,42.249345]],[[-83.74116,42.249348],[-83.741166,42.249574],[-83.741174,42.249864],[-83.741184,42.25021],[-83.741435,42.250207]],[[-83.740945,42.249397],[-83.740943,42.249397]],[[-83.740943,42.249397],[-83.740947,42.249541]],[[-83.740943,42.249397],[-83.740733,42.249399],[-83.74067,42.249363],[-83.740604,42.249334],[-83.740535,42.249311],[-83.740465,42.249294],[-83.740393,42.249285],[-83.740321,42.249282],[-83.740248,42.249287],[-83.740177,42.249298],[-83.740107,42.249316],[-83.740039,42.249341],[-83.739973,42.249372],[-83.739911,42.249409],[-83.739715,42.249411],[-83.739721,42.249695],[-83.739755,42.250809]],[[-83.740959,42.249587],[-83.741075,42.249586]],[[-83.739662,42.250159],[-83.739635,42.249316],[-83.739642,42.249311]],[[-83.739662,42.250159],[-83.739666,42.250159],[-83.739666,42.250167],[-83.739662,42.250167]],[[-83.739662,42.250167],[-83.739662,42.250159]],[[-83.739662,42.250167],[-83.73966,42.250167],[-83.73966,42.250159],[-83.739662,42.250159]],[[-83.742123,42.250189],[-83.742276,42.250188],[-83.742356,42.250124],[-83.74236,42.249758],[-83.742336,42.249699],[-83.742307,42.249643],[-83.742271,42.24959],[-83.742231,42.249541],[-83.742186,42.249496],[-83.742137,42.249456],[-83.742084,42.249422],[-83.742027,42.249393],[-83.741968,42.249369],[-83.741907,42.249352],[-83.741844,42.249342],[-83.741781,42.249337],[-83.741718,42.249339],[-83.741516,42.249338],[-83.741167,42.249344],[-83.741516,42.249339]],[[-83.739669,42.250379],[-83.739662,42.250167]],[[-83.739669,42.250379],[-83.739672,42.250379],[-83.739672,42.250387],[-83.739669,42.250387]],[[-83.739669,42.250387],[-83.739669,42.250379]],[[-83.739669,42.250387],[-83.739666,42.250387],[-83.739666,42.250379],[-83.739669,42.250379]],[[-83.739672,42.250489],[-83.739669,42.250387]],[[-83.739672,42.250489],[-83.739675,42.250489],[-83.739675,42.250497],[-83.739672,42.250497]],[[-83.739672,42.250497],[-83.739672,42.250497]],[[-83.739672,42.250497],[-83.739672,42.250489]],[[-83.739672,42.250497],[-83.739669,42.250497],[-83.739669,42.250489],[-83.739672,42.250489]],[[-83.739674,42.250556],[-83.739672,42.250497]],[[-83.739674,42.250556],[-83.739672,42.250497]],[[-83.739675,42.250599],[-83.739674,42.250556]],[[-83.739675,42.250599],[-83.739674,42.250556]],[[-83.741097,42.250704],[-83.741105,42.250704],[-83.741097,42.250437],[-83.741082,42.249903],[-83.741077,42.249586],[-83.741071,42.249404],[-83.74104,42.249404],[-83.741038,42.249345],[-83.740942,42.249346],[-83.740943,42.249397]],[[-83.741103,42.250902],[-83.741105,42.250946]],[[-83.740794,42.250904],[-83.740792,42.250848],[-83.74068,42.250851],[-83.740616,42.250877],[-83.74055,42.250898],[-83.740483,42.250913],[-83.740414,42.250921],[-83.740345,42.250923],[-83.740276,42.250919],[-83.740208,42.250909],[-83.740141,42.250892],[-83.740075,42.250869],[-83.740013,42.250841],[-83.739952,42.250807],[-83.739757,42.250809]],[[-83.740772,42.250955],[-83.741105,42.250946]],[[-83.7403,42.25096],[-83.7403,42.25096]],[[-83.7403,42.25096],[-83.740662,42.250954]],[[-83.7403,42.25096],[-83.740299,42.25098],[-83.740162,42.250982],[-83.740161,42.250964]],[[-83.740299,42.25096],[-83.7403,42.25096]],[[-83.739771,42.251027],[-83.739825,42.250996],[-83.740699,42.250985]],[[-83.740945,42.251339],[-83.740936,42.250951]],[[-83.741232,42.251735],[-83.741284,42.251734]],[[-83.74113,42.251736],[-83.741082,42.251737]],[[-83.74107,42.25174],[-83.741078,42.25196]],[[-83.739758,42.251964],[-83.739685,42.250941]],[[-83.740796,42.252015],[-83.741049,42.25201]],[[-83.740617,42.252075],[-83.740234,42.252081],[-83.739795,42.252091]],[[-83.739796,42.252091],[-83.739791,42.251706],[-83.739738,42.251598],[-83.739735,42.251517],[-83.739782,42.251407],[-83.739771,42.251027]],[[-83.740617,42.25213],[-83.740615,42.252079],[-83.740429,42.252083],[-83.740289,42.252086],[-83.740219,42.252087],[-83.740149,42.252088],[-83.740079,42.25209],[-83.74001,42.252092],[-83.73994,42.252093],[-83.739812,42.252096]]]},"properties":{"Type":null}},{"type":"Feature","geometry":{"type":"MultiLineString","coordinates":[[[-83.74422,42.25366],[-83.744222,42.254043]],[[-83.74422,42.25366],[-83.74441,42.25366],[-83.74445,42.25398],[-83.744455,42.254068],[-83.744377,42.254111],[-83.744316,42.254059],[-83.744222,42.254043]],[[-83.744153,42.253661],[-83.74422,42.25366]],[[-83.744222,42.254043],[-83.743875,42.254024],[-83.743874,42.253941]]]},"properties":{"Type":null}},{"type":"Feature","geometry":{"type":"LineString","coordinates":[[-83.737346,42.272196],[-83.737251,42.272197]]},"properties":{"Type":null}},{"type":"Feature","geometry":{"type":"LineString","coordinates":[[-83.73731,42.272469],[-83.737254,42.27247]]},"properties":{"Type":null}},{"type":"Feature","geometry":{"type":"LineString","coordinates":[[-83.701808,42.29846],[-83.701807,42.298469],[-83.701797,42.298469],[-83.701526,42.298471],[-83.701454,42.298472],[-83.701445,42.298472],[-83.701314,42.298473],[-83.701314,42.298328],[-83.701706,42.298329],[-83.701706,42.298329]]},"properties":{"Type":null}},{"type":"Feature","geometry":{"type":"LineString","coordinates":[[-83.701491,42.298329],[-83.701494,42.298472]]},"properties":{"Type":null}},{"type":"Feature","geometry":{"type":"LineString","coordinates":[[-83.744002,42.263047],[-83.74404,42.262965],[-83.74393,42.262937]]},"properties":{"Type":null}},{"type":"Feature","geometry":{"type":"LineString","coordinates":[[-83.743671,42.262392],[-83.743677,42.262447],[-83.743669,42.262447],[-83.743663,42.262393],[-83.743671,42.262392]]},"properties":{"Type":null}},{"type":"Feature","geometry":{"type":"LineString","coordinates":[[-83.725098,42.28596],[-83.725103,42.285961],[-83.725061,42.286108],[-83.724978,42.286097],[-83.725018,42.285949]]},"properties":{"Type":null}},{"type":"Feature","geometry":{"type":"LineString","coordinates":[[-83.739203,42.280211],[-83.738959,42.280218]]},"properties":{"Type":null}},{"type":"Feature","geometry":{"type":"LineString","coordinates":[[-83.737306,42.279816],[-83.737301,42.279714]]},"properties":{"Type":null}},{"type":"Feature","geometry":{"type":"LineString","coordinates":[[-83.737261,42.279451],[-83.737262,42.279482]]},"properties":{"Type":null}},{"type":"Feature","geometry":{"type":"LineString","coordinates":[[-83.742271,42.250535],[-83.742377,42.250534],[-83.742387,42.250863],[-83.742281,42.250866]]},"properties":{"Type":null}},{"type":"Feature","geometry":{"type":"LineString","coordinates":[[-83.705579,42.298985],[-83.70558,42.298931],[-83.705559,42.298931],[-83.705565,42.298573],[-83.705472,42.29849],[-83.705366,42.298489],[-83.705366,42.298479],[-83.705025,42.298477],[-83.705023,42.298639],[-83.705059,42.298639],[-83.705057,42.298747],[-83.704972,42.298747],[-83.70497,42.298874],[-83.705104,42.298985]]},"properties":{"Type":null}},{"type":"Feature","geometry":{"type":"LineString","coordinates":[[-83.709073,42.297091],[-83.708932,42.296913],[-83.708581,42.297076],[-83.708748,42.297278],[-83.708795,42.297256],[-83.708817,42.297283],[-83.708867,42.297261]]},"properties":{"Type":null}},{"type":"Feature","geometry":{"type":"MultiLineString","coordinates":[[[-83.495099,42.23944],[-83.495057,42.238335],[-83.495044,42.237438],[-83.499342,42.237318],[-83.501039,42.23727],[-83.502928,42.237216],[-83.503996,42.237187],[-83.503993,42.238091],[-83.503994,42.238818],[-83.503997,42.239154],[-83.502145,42.239153],[-83.501221,42.239155],[-83.500146,42.239152],[-83.499737,42.239151],[-83.499788,42.240723],[-83.499788,42.240797],[-83.500508,42.240807],[-83.502965,42.240817],[-83.504016,42.240824],[-83.504036,42.242179],[-83.504044,42.242683],[-83.504051,42.243732]],[[-83.495125,42.240803],[-83.495103,42.239431]],[[-83.504061,42.243736],[-83.504073,42.244492]],[[-83.504073,42.244495],[-83.499316,42.244593],[-83.496503,42.244714],[-83.495346,42.244741],[-83.495149,42.241969],[-83.49513,42.240817]]]},"properties":{"Type":null}},{"type":"Feature","geometry":{"type":"LineString","coordinates":[[-83.675414,42.310354],[-83.675399,42.310354],[-83.675397,42.310284],[-83.67552,42.310282],[-83.675521,42.310315],[-83.675555,42.310315]]},"properties":{"Type":null}},{"type":"Feature","geometry":{"type":"LineString","coordinates":[[-83.730472,42.280009],[-83.730472,42.28005],[-83.730335,42.280051],[-83.730322,42.279598],[-83.730931,42.27958]]},"properties":{"Type":null}},{"type":"Feature","geometry":{"type":"LineString","coordinates":[[-83.730636,42.285656],[-83.730091,42.285664],[-83.730089,42.285434],[-83.730629,42.285425],[-83.73065,42.285436],[-83.730672,42.285454],[-83.730677,42.285583],[-83.730636,42.285656]]},"properties":{"Type":null}},{"type":"Feature","geometry":{"type":"LineString","coordinates":[[-83.726764,42.285094],[-83.72669,42.285091],[-83.726685,42.284991],[-83.72669,42.284957],[-83.726723,42.284945],[-83.726862,42.284945],[-83.726904,42.284944],[-83.726946,42.284938],[-83.727038,42.284917],[-83.727107,42.284898],[-83.727408,42.284794],[-83.72749,42.284877],[-83.727577,42.284955],[-83.727667,42.285028],[-83.727762,42.285097],[-83.727861,42.285159],[-83.727962,42.285217],[-83.728067,42.285268],[-83.728175,42.285314],[-83.728019,42.28555],[-83.727794,42.285449]]},"properties":{"Type":null}},{"type":"Feature","geometry":{"type":"LineString","coordinates":[[-83.725493,42.28252],[-83.725668,42.282215],[-83.725615,42.281884],[-83.725876,42.281782],[-83.726105,42.281642],[-83.7264,42.281363],[-83.726572,42.281132],[-83.726787,42.280699]]},"properties":{"Type":null}},{"type":"Feature","geometry":{"type":"LineString","coordinates":[[-83.725902,42.282696],[-83.725846,42.282676],[-83.725789,42.282659],[-83.725731,42.282645],[-83.725699,42.28264]]},"properties":{"Type":null}},{"type":"Feature","geometry":{"type":"LineString","coordinates":[[-83.727036,42.284038],[-83.727008,42.28398],[-83.72699,42.283985],[-83.72681,42.283702],[-83.726793,42.283675],[-83.726675,42.283482],[-83.726524,42.283238],[-83.726407,42.283186],[-83.726374,42.283167],[-83.726344,42.283143],[-83.726318,42.283115],[-83.726296,42.283084],[-83.726287,42.28307],[-83.726213,42.282947],[-83.7262,42.282919],[-83.726191,42.28289],[-83.726186,42.28286],[-83.726183,42.282803],[-83.726141,42.282714],[-83.72611,42.282712],[-83.726053,42.28272],[-83.726012,42.282719],[-83.72597,42.282714],[-83.72597,42.282714]]},"properties":{"Type":null}},{"type":"Feature","geometry":{"type":"LineString","coordinates":[[-83.742058,42.252338],[-83.741941,42.252341]]},"properties":{"Type":null}},{"type":"Feature","geometry":{"type":"LineString","coordinates":[[-83.741936,42.252359],[-83.741764,42.252363]]},"properties":{"Type":null}},{"type":"Feature","geometry":{"type":"LineString","coordinates":[[-83.740309,42.252083],[-83.740312,42.252146]]},"properties":{"Type":null}},{"type":"Feature","geometry":{"type":"LineString","coordinates":[[-83.740357,42.252218],[-83.740374,42.252235],[-83.740378,42.252239],[-83.740381,42.252243],[-83.740384,42.252248],[-83.740386,42.252253],[-83.740386,42.252261]]},"properties":{"Type":null}},{"type":"Feature","geometry":{"type":"LineString","coordinates":[[-83.743876,42.263014],[-83.743897,42.262969],[-83.743885,42.262966]]},"properties":{"Type":null}},{"type":"Feature","geometry":{"type":"LineString","coordinates":[[-83.705063,42.302042],[-83.705063,42.302],[-83.705238,42.301999],[-83.705239,42.302043],[-83.705063,42.302042]]},"properties":{"Type":null}},{"type":"Feature","geometry":{"type":"MultiLineString","coordinates":[[[-83.706677,42.291901],[-83.706671,42.291912],[-83.706387,42.291899],[-83.706382,42.291899],[-83.706371,42.292071],[-83.706246,42.29207],[-83.706169,42.291662],[-83.706385,42.291671],[-83.70651,42.291711]],[[-83.706385,42.291671],[-83.706382,42.291677],[-83.706306,42.29184],[-83.706307,42.291841],[-83.706308,42.291841],[-83.706308,42.291841],[-83.706403,42.291878],[-83.706398,42.291883],[-83.706382,42.291899]]]},"properties":{"Type":null}},{"type":"Feature","geometry":{"type":"LineString","coordinates":[[-83.702164,42.298738],[-83.702165,42.29867],[-83.702438,42.298667],[-83.702437,42.298907],[-83.702422,42.298922],[-83.702278,42.298923],[-83.702278,42.298907],[-83.702165,42.298908]]},"properties":{"Type":null}},{"type":"Feature","geometry":{"type":"LineString","coordinates":[[-83.696102,42.298923],[-83.695873,42.298922],[-83.695873,42.298679]]},"properties":{"Type":null}},{"type":"Feature","geometry":{"type":"LineString","coordinates":[[-83.744558,42.252373],[-83.74467,42.252368]]},"properties":{"Type":null}},{"type":"Feature","geometry":{"type":"LineString","coordinates":[[-83.744686,42.252367],[-83.744796,42.252363],[-83.744791,42.252257],[-83.746137,42.252221],[-83.747799,42.252173],[-83.748551,42.252148],[-83.749504,42.252121],[-83.749671,42.253031],[-83.749679,42.25307],[-83.749695,42.25317],[-83.749246,42.253184],[-83.748333,42.253211],[-83.747746,42.253223],[-83.747724,42.253214],[-83.747508,42.25322],[-83.747509,42.253231],[-83.747319,42.25324],[-83.746233,42.253273],[-83.745578,42.253294],[-83.745326,42.2533],[-83.745223,42.253252],[-83.744927,42.253258],[-83.744904,42.252715],[-83.744892,42.25252],[-83.744798,42.252413],[-83.744556,42.252422]]},"properties":{"Type":null}},{"type":"Feature","geometry":{"type":"MultiLineString","coordinates":[[[-83.746135,42.25237],[-83.746263,42.252517]],[[-83.745881,42.252451],[-83.745879,42.252547],[-83.745898,42.25263]],[[-83.746263,42.252517],[-83.746254,42.252368]],[[-83.746263,42.252517],[-83.746264,42.252517]],[[-83.74631,42.253269],[-83.746263,42.252517]]]},"properties":{"Type":null}},{"type":"Feature","geometry":{"type":"LineString","coordinates":[[-83.747253,42.253241],[-83.747245,42.253096]]},"properties":{"Type":null}},{"type":"Feature","geometry":{"type":"LineString","coordinates":[[-83.747211,42.252363],[-83.7472,42.252364],[-83.747195,42.252263],[-83.747165,42.252235],[-83.746314,42.25226]]},"properties":{"Type":null}},{"type":"Feature","geometry":{"type":"MultiLineString","coordinates":[[[-83.745359,42.254336],[-83.749873,42.254213],[-83.750018,42.255241],[-83.7474,42.255318]],[[-83.748868,42.260679],[-83.750002,42.260653],[-83.749951,42.256802]],[[-83.742031,42.262978],[-83.740493,42.260439],[-83.74045,42.258191],[-83.740442,42.257918],[-83.740774,42.257907],[-83.740759,42.25734],[-83.741091,42.257268]],[[-83.745305,42.263798],[-83.745338,42.263806],[-83.745348,42.262337],[-83.745295,42.262199],[-83.745319,42.261871],[-83.74531,42.261567],[-83.745336,42.261346]]]},"properties":{"Type":null}},{"type":"Feature","geometry":{"type":"LineString","coordinates":[[-83.740694,42.269066],[-83.740696,42.269115]]},"properties":{"Type":null}},{"type":"Feature","geometry":{"type":"LineString","coordinates":[[-83.74067,42.268095],[-83.74067,42.268104]]},"properties":{"Type":null}},{"type":"Feature","geometry":{"type":"LineString","coordinates":[[-83.74065,42.263889],[-83.740645,42.263786]]},"properties":{"Type":null}},{"type":"Feature","geometry":{"type":"LineString","coordinates":[[-83.740645,42.263787],[-83.740572,42.263788]]},"properties":{"Type":null}},{"type":"Feature","geometry":{"type":"LineString","coordinates":[[-83.74056,42.263221],[-83.740559,42.263188],[-83.74056,42.263178],[-83.740569,42.263167],[-83.740583,42.263161],[-83.740607,42.263159]]},"properties":{"Type":null}},{"type":"Feature","geometry":{"type":"LineString","coordinates":[[-83.740677,42.2629],[-83.74068,42.262997]]},"properties":{"Type":null}},{"type":"Feature","geometry":{"type":"MultiLineString","coordinates":[[[-83.74176,42.268217],[-83.741714,42.268217]],[[-83.741701,42.268218],[-83.74169,42.268217],[-83.741676,42.268217],[-83.741661,42.268215],[-83.741651,42.268212]],[[-83.741639,42.268209],[-83.741625,42.268202],[-83.741613,42.268195],[-83.741603,42.268187],[-83.741594,42.268175]],[[-83.741588,42.268167],[-83.741585,42.26816],[-83.741582,42.268148],[-83.74158,42.268138],[-83.74158,42.26813]],[[-83.74158,42.26812],[-83.741578,42.268086]]]},"properties":{"Type":null}},{"type":"Feature","geometry":{"type":"LineString","coordinates":[[-83.745528,42.269482],[-83.745482,42.269483],[-83.74515,42.268918],[-83.745145,42.268904],[-83.744885,42.268468],[-83.744555,42.267898],[-83.74439,42.267611],[-83.743996,42.266932],[-83.743531,42.266147],[-83.743235,42.265628],[-83.742666,42.264658],[-83.742632,42.264612],[-83.742593,42.264545],[-83.74247,42.264339],[-83.742521,42.264321],[-83.741838,42.26315]]},"properties":{"Type":null}},{"type":"Feature","geometry":{"type":"LineString","coordinates":[[-83.741683,42.262888],[-83.741467,42.26251],[-83.740941,42.261608],[-83.740676,42.261151],[-83.740509,42.261206]]},"properties":{"Type":null}},{"type":"Feature","geometry":{"type":"MultiLineString","coordinates":[[[-83.724719,42.275801],[-83.724022,42.275698]],[[-83.724742,42.275805],[-83.72473,42.275803]],[[-83.724813,42.275816],[-83.724756,42.275807]]]},"properties":{"Type":null}},{"type":"Feature","geometry":{"type":"LineString","coordinates":[[-83.724827,42.275817],[-83.724894,42.275826]]},"properties":{"Type":null}},{"type":"Feature","geometry":{"type":"LineString","coordinates":[[-83.72491,42.275767],[-83.724886,42.275854],[-83.724793,42.276237]]},"properties":{"Type":null}},{"type":"Feature","geometry":{"type":"LineString","coordinates":[[-83.73375,42.279684],[-83.733834,42.279631],[-83.733774,42.279578],[-83.73377,42.279581]]},"properties":{"Type":null}},{"type":"Feature","geometry":{"type":"LineString","coordinates":[[-83.730528,42.283138],[-83.730527,42.283112]]},"properties":{"Type":null}},{"type":"Feature","geometry":{"type":"LineString","coordinates":[[-83.704619,42.299688],[-83.704618,42.299577]]},"properties":{"Type":null}},{"type":"Feature","geometry":{"type":"LineString","coordinates":[[-83.704622,42.299316],[-83.70462,42.299427]]},"properties":{"Type":null}},{"type":"Feature","geometry":{"type":"MultiLineString","coordinates":[[[-83.698109,42.298203],[-83.69811,42.29814],[-83.698223,42.298142]],[[-83.698318,42.298143],[-83.698479,42.298145],[-83.698478,42.298234],[-83.698641,42.298236]]]},"properties":{"Type":null}},{"type":"Feature","geometry":{"type":"MultiLineString","coordinates":[[[-83.699619,42.299046],[-83.699938,42.299289],[-83.699698,42.299462],[-83.699698,42.299463]],[[-83.698967,42.299122],[-83.699089,42.299],[-83.699324,42.299176]],[[-83.699324,42.299176],[-83.699413,42.299109]],[[-83.699698,42.299463],[-83.699324,42.299176]],[[-83.699698,42.299463],[-83.699673,42.299481],[-83.699362,42.29948],[-83.69936,42.299442],[-83.699368,42.299442],[-83.699368,42.299401],[-83.699332,42.299403],[-83.699331,42.299396],[-83.699325,42.299366],[-83.699322,42.299349],[-83.699317,42.299333],[-83.699309,42.299319],[-83.699246,42.299236],[-83.699324,42.299176]]]},"properties":{"Type":null}},{"type":"Feature","geometry":{"type":"LineString","coordinates":[[-83.699388,42.29948],[-83.69937,42.300036],[-83.699368,42.300093],[-83.699362,42.300149],[-83.699352,42.300205],[-83.699294,42.300501],[-83.69927,42.300552],[-83.699241,42.3006],[-83.699215,42.300767],[-83.69925,42.300793],[-83.699272,42.300805],[-83.699296,42.300814],[-83.699321,42.300819],[-83.699385,42.300821],[-83.699385,42.300984],[-83.69966,42.300982],[-83.699655,42.301467],[-83.699019,42.301465],[-83.698781,42.301601],[-83.69878,42.301717],[-83.698506,42.301716],[-83.698276,42.301819],[-83.698177,42.301856],[-83.698145,42.301868],[-83.698116,42.301884],[-83.698089,42.301904],[-83.698066,42.301928],[-83.698044,42.301965],[-83.698027,42.302003],[-83.698015,42.302044],[-83.698011,42.302079],[-83.698011,42.302114],[-83.698004,42.302392],[-83.698,42.302431],[-83.697991,42.302468],[-83.697977,42.302504],[-83.697958,42.302538],[-83.697934,42.302568],[-83.697906,42.302595],[-83.697875,42.302618],[-83.697792,42.302677],[-83.697685,42.302697],[-83.697551,42.302697],[-83.697413,42.302692],[-83.697275,42.302682],[-83.697018,42.302662],[-83.696969,42.302664],[-83.69692,42.30266],[-83.696871,42.30265],[-83.696825,42.302633],[-83.696781,42.302611],[-83.69674,42.302583],[-83.696703,42.302551],[-83.696671,42.302513],[-83.696644,42.302472],[-83.696622,42.302428],[-83.696606,42.302382],[-83.696596,42.302333],[-83.696592,42.302284],[-83.696595,42.302235],[-83.696604,42.302186],[-83.696619,42.302139],[-83.696921,42.301702],[-83.697109,42.301399]]},"properties":{"Type":null}},{"type":"Feature","geometry":{"type":"LineString","coordinates":[[-83.697109,42.301399],[-83.697134,42.301405],[-83.697175,42.301327],[-83.69721,42.301247],[-83.697241,42.301165],[-83.697267,42.301081],[-83.697266,42.301074],[-83.697263,42.301067],[-83.69726,42.301061],[-83.697256,42.301056],[-83.697251,42.301051],[-83.697246,42.301047],[-83.697239,42.301043],[-83.697233,42.301041],[-83.697226,42.30104],[-83.697219,42.30104],[-83.696934,42.301039],[-83.696913,42.301042],[-83.696891,42.301041],[-83.69687,42.301037],[-83.69685,42.30103],[-83.696832,42.301019],[-83.696815,42.301005],[-83.696802,42.300989],[-83.696791,42.30097],[-83.696783,42.30095],[-83.696779,42.300929],[-83.696779,42.300908],[-83.696782,42.300887],[-83.696789,42.300866],[-83.696799,42.300847],[-83.696815,42.300823],[-83.696827,42.300797],[-83.696834,42.300769],[-83.696844,42.300736],[-83.696859,42.300705],[-83.696877,42.300677],[-83.6969,42.300651],[-83.696925,42.300628],[-83.697015,42.300564],[-83.697042,42.300541],[-83.697065,42.300513],[-83.697083,42.300482],[-83.697096,42.300449],[-83.697121,42.300379],[-83.697131,42.300355],[-83.697144,42.300332],[-83.69716,42.300312],[-83.697178,42.300294],[-83.697199,42.300279],[-83.697212,42.300274],[-83.697223,42.300267],[-83.697233,42.300259],[-83.697242,42.300249],[-83.697249,42.300238],[-83.697254,42.300226],[-83.697257,42.300213],[-83.697258,42.3002],[-83.697224,42.299951],[-83.697174,42.299621],[-83.697172,42.299571],[-83.697176,42.299522],[-83.697188,42.299473],[-83.697206,42.299427],[-83.69723,42.299384],[-83.69726,42.299344],[-83.697295,42.29931],[-83.697335,42.29928],[-83.697379,42.299256],[-83.697425,42.299239],[-83.697474,42.299228],[-83.697523,42.299224],[-83.697614,42.299228],[-83.698783,42.299106],[-83.698967,42.299122]]},"properties":{"Type":null}},{"type":"Feature","geometry":{"type":"LineString","coordinates":[[-83.664655,42.275683],[-83.664577,42.275726]]},"properties":{"Type":null}},{"type":"Feature","geometry":{"type":"LineString","coordinates":[[-83.745687,42.266603],[-83.74564,42.266522],[-83.745471,42.266523],[-83.745282,42.266527]]},"properties":{"Type":null}},{"type":"Feature","geometry":{"type":"LineString","coordinates":[[-83.745066,42.266039],[-83.74516,42.266165],[-83.745155,42.266165]]},"properties":{"Type":null}},{"type":"Feature","geometry":{"type":"LineString","coordinates":[[-83.745066,42.266039],[-83.744296,42.266083]]},"properties":{"Type":null}},{"type":"Feature","geometry":{"type":"LineString","coordinates":[[-83.745705,42.26945],[-83.745698,42.269438],[-83.74565,42.269344],[-83.745607,42.269248],[-83.745569,42.269149],[-83.745567,42.269142],[-83.745539,42.269052],[-83.745517,42.268962]]},"properties":{"Type":null}},{"type":"Feature","geometry":{"type":"LineString","coordinates":[[-83.745432,42.268271],[-83.745418,42.267874],[-83.745093,42.267878],[-83.74395,42.265896],[-83.743196,42.264602]]},"properties":{"Type":null}},{"type":"Feature","geometry":{"type":"MultiLineString","coordinates":[[[-83.750026,42.264612],[-83.750012,42.264602]],[[-83.750001,42.264594],[-83.749967,42.264571]],[[-83.749957,42.264563],[-83.749922,42.26454]],[[-83.749912,42.264532],[-83.749862,42.264498]],[[-83.749851,42.26449],[-83.749817,42.264466]],[[-83.749806,42.264459],[-83.749773,42.264436]],[[-83.749763,42.264429],[-83.749745,42.264416]]]},"properties":{"Type":null}},{"type":"Feature","geometry":{"type":"LineString","coordinates":[[-83.748749,42.264407],[-83.748665,42.264409]]},"properties":{"Type":null}},{"type":"Feature","geometry":{"type":"LineString","coordinates":[[-83.747278,42.264581],[-83.747577,42.264428]]},"properties":{"Type":null}},{"type":"Feature","geometry":{"type":"LineString","coordinates":[[-83.749933,42.264937],[-83.749947,42.264957]]},"properties":{"Type":null}},{"type":"Feature","geometry":{"type":"LineString","coordinates":[[-83.749974,42.266774],[-83.74999,42.266753]]},"properties":{"Type":null}},{"type":"Feature","geometry":{"type":"MultiLineString","coordinates":[[[-83.749826,42.267523],[-83.74981,42.267535]],[[-83.74987,42.26749],[-83.749836,42.267515]],[[-83.749912,42.267457],[-83.74988,42.267482]],[[-83.749971,42.267412],[-83.749922,42.26745]],[[-83.750013,42.26738],[-83.749981,42.267404]],[[-83.750056,42.267346],[-83.750023,42.267372]],[[-83.750078,42.26733],[-83.750066,42.267339]]]},"properties":{"Type":null}},{"type":"Feature","geometry":{"type":"LineString","coordinates":[[-83.74947,42.267364],[-83.749507,42.267336]]},"properties":{"Type":null}},{"type":"Feature","geometry":{"type":"MultiLineString","coordinates":[[[-83.748648,42.267558],[-83.7486,42.267559]],[[-83.748805,42.267554],[-83.748711,42.267556]],[[-83.74892,42.267552],[-83.748877,42.267553]]]},"properties":{"Type":null}},{"type":"Feature","geometry":{"type":"MultiLineString","coordinates":[[[-83.74786,42.267607],[-83.747835,42.267601]],[[-83.747822,42.267597],[-83.747779,42.267584]],[[-83.747766,42.26758],[-83.747721,42.267567]],[[-83.747708,42.267563],[-83.747643,42.267544]],[[-83.747629,42.26754],[-83.747586,42.267528]],[[-83.747573,42.267524],[-83.747529,42.267511]],[[-83.747516,42.267507],[-83.747495,42.267501]],[[-83.74748,42.267496],[-83.74746,42.267497]]]},"properties":{"Type":null}},{"type":"Feature","geometry":{"type":"MultiLineString","coordinates":[[[-83.747377,42.266429],[-83.747348,42.266429]],[[-83.747336,42.266407],[-83.747336,42.266363]],[[-83.747336,42.266325],[-83.747337,42.266281]],[[-83.747337,42.26616],[-83.747337,42.266116]],[[-83.747337,42.266078],[-83.747337,42.266034]],[[-83.747337,42.265995],[-83.747337,42.265953]],[[-83.747337,42.265953],[-83.747337,42.265952]],[[-83.747338,42.265913],[-83.747338,42.265869]],[[-83.747338,42.265831],[-83.747338,42.265787]],[[-83.747338,42.265748],[-83.747338,42.265705]],[[-83.747338,42.265666],[-83.747338,42.265622]],[[-83.747338,42.265584],[-83.747339,42.26554]],[[-83.747339,42.265502],[-83.747339,42.265458]],[[-83.747339,42.265419],[-83.747339,42.265375]],[[-83.747351,42.265353],[-83.747381,42.265352]]]},"properties":{"Type":null}},{"type":"Feature","geometry":{"type":"LineString","coordinates":[[-83.747336,42.265501],[-83.747147,42.265394]]},"properties":{"Type":null}},{"type":"Feature","geometry":{"type":"LineString","coordinates":[[-83.736727,42.28174],[-83.736729,42.281781],[-83.736602,42.281785],[-83.7366,42.281743]]},"properties":{"Type":null}},{"type":"Feature","geometry":{"type":"MultiLineString","coordinates":[[[-83.72335,42.294573],[-83.723381,42.294818],[-83.723357,42.294833],[-83.722641,42.294844]],[[-83.724391,42.296102],[-83.722391,42.296134],[-83.722358,42.294981],[-83.724358,42.29495],[-83.724391,42.296102]]]},"properties":{"Type":null}},{"type":"Feature","geometry":{"type":"LineString","coordinates":[[-83.740653,42.267142],[-83.740705,42.267141]]},"properties":{"Type":"Wrought Iron"}},{"type":"Feature","geometry":{"type":"LineString","coordinates":[[-83.696911,42.301716],[-83.69671,42.301724],[-83.696696,42.301507],[-83.696642,42.301443]]},"properties":{"Type":null}},{"type":"Feature","geometry":{"type":"LineString","coordinates":[[-83.696485,42.301216],[-83.696476,42.301204],[-83.696445,42.301056],[-83.69678,42.300951]]},"properties":{"Type":null}},{"type":"Feature","geometry":{"type":"LineString","coordinates":[[-83.703001,42.279313],[-83.703028,42.279433]]},"properties":{"Type":null}},{"type":"Feature","geometry":{"type":"LineString","coordinates":[[-83.73506,42.280357],[-83.735059,42.280327],[-83.734955,42.280327],[-83.734957,42.280357],[-83.734724,42.28036],[-83.734724,42.280348],[-83.734786,42.280347],[-83.734785,42.280333],[-83.734826,42.280332],[-83.734827,42.280359]]},"properties":{"Type":null}},{"type":"Feature","geometry":{"type":"MultiLineString","coordinates":[[[-83.738436,42.275389],[-83.73832,42.27539]],[[-83.73832,42.27539],[-83.738331,42.275778],[-83.738359,42.275809],[-83.739143,42.275808],[-83.739143,42.275705]],[[-83.738764,42.275472],[-83.738765,42.2755],[-83.738843,42.275499],[-83.738843,42.275514],[-83.738884,42.275514],[-83.738884,42.275499],[-83.738906,42.275499],[-83.738931,42.27548],[-83.739098,42.275481]],[[-83.739098,42.275481],[-83.739092,42.275073],[-83.739006,42.275073],[-83.739006,42.2751],[-83.738866,42.2751],[-83.738866,42.275073],[-83.738334,42.275073],[-83.738313,42.275089],[-83.73832,42.27539]],[[-83.739098,42.275481],[-83.739098,42.27562],[-83.739142,42.27562]]]},"properties":{"Type":null}},{"type":"Feature","geometry":{"type":"LineString","coordinates":[[-83.743877,42.264575],[-83.74386,42.264509],[-83.744131,42.264487],[-83.744146,42.264489]]},"properties":{"Type":null}},{"type":"Feature","geometry":{"type":"LineString","coordinates":[[-83.740875,42.264661],[-83.740871,42.264536],[-83.740855,42.264537],[-83.740839,42.264016],[-83.740808,42.264016]]},"properties":{"Type":null}},{"type":"Feature","geometry":{"type":"LineString","coordinates":[[-83.740839,42.264016],[-83.740836,42.263898],[-83.742141,42.263867],[-83.742159,42.263881],[-83.742223,42.264008],[-83.742291,42.264062],[-83.742431,42.264392],[-83.742423,42.264415],[-83.742444,42.264426],[-83.742485,42.264528],[-83.742515,42.264616],[-83.742535,42.26472],[-83.742608,42.264739],[-83.742649,42.264753],[-83.74268,42.264771],[-83.742696,42.264788],[-83.742706,42.264803],[-83.74314,42.265542],[-83.743142,42.265547],[-83.743156,42.265612]]},"properties":{"Type":null}},{"type":"Feature","geometry":{"type":"LineString","coordinates":[[-83.747304,42.27387],[-83.747163,42.273866],[-83.747164,42.273839],[-83.746654,42.273821],[-83.746658,42.273753],[-83.746562,42.27375],[-83.74661,42.272847],[-83.746705,42.272849],[-83.746713,42.272716],[-83.747396,42.272737],[-83.747396,42.272782],[-83.747841,42.273466],[-83.74782,42.273861],[-83.747305,42.273844],[-83.747304,42.27387]]},"properties":{"Type":null}},{"type":"Feature","geometry":{"type":"LineString","coordinates":[[-83.710253,42.293118],[-83.7102,42.293118],[-83.7102,42.293091],[-83.710253,42.293091]]},"properties":{"Type":null}},{"type":"Feature","geometry":{"type":"MultiLineString","coordinates":[[[-83.734278,42.282406],[-83.734205,42.282409]],[[-83.734406,42.282754],[-83.734221,42.282758]]]},"properties":{"Type":null}},{"type":"Feature","geometry":{"type":"MultiLineString","coordinates":[[[-83.67231,42.30839],[-83.67224,42.308413]],[[-83.672344,42.308378],[-83.672337,42.308381]],[[-83.672443,42.308346],[-83.67237,42.30837]]]},"properties":{"Type":null}},{"type":"Feature","geometry":{"type":"LineString","coordinates":[[-83.670705,42.288573],[-83.670728,42.288501]]},"properties":{"Type":null}},{"type":"Feature","geometry":{"type":"LineString","coordinates":[[-83.724789,42.285574],[-83.724826,42.285575],[-83.724851,42.285594],[-83.724854,42.285622]]},"properties":{"Type":null}},{"type":"Feature","geometry":{"type":"LineString","coordinates":[[-83.723268,42.28658],[-83.722899,42.286592],[-83.722872,42.286572],[-83.722851,42.28627]]},"properties":{"Type":null}},{"type":"Feature","geometry":{"type":"LineString","coordinates":[[-83.737376,42.284966],[-83.737235,42.284887],[-83.737052,42.284894],[-83.737023,42.284917],[-83.736676,42.284928],[-83.736637,42.284901],[-83.736636,42.284872],[-83.73664,42.284871],[-83.73664,42.284868],[-83.736639,42.284855]]},"properties":{"Type":null}},{"type":"Feature","geometry":{"type":"LineString","coordinates":[[-83.736936,42.28492],[-83.736934,42.284846]]},"properties":{"Type":null}},{"type":"Feature","geometry":{"type":"LineString","coordinates":[[-83.737066,42.284627],[-83.737065,42.284604],[-83.736631,42.284617],[-83.736631,42.284617],[-83.736547,42.284619],[-83.736553,42.28476],[-83.736575,42.28476],[-83.736579,42.284863],[-83.736593,42.284873],[-83.736636,42.284872]]},"properties":{"Type":null}},{"type":"Feature","geometry":{"type":"LineString","coordinates":[[-83.737218,42.284889],[-83.737217,42.284853],[-83.737215,42.284853],[-83.737214,42.284827]]},"properties":{"Type":null}},{"type":"Feature","geometry":{"type":"LineString","coordinates":[[-83.734937,42.281181],[-83.735071,42.28118],[-83.735119,42.281179],[-83.73512,42.281189],[-83.735308,42.281179],[-83.735301,42.280998],[-83.735292,42.280995],[-83.735292,42.280977],[-83.735289,42.280926],[-83.735296,42.280926],[-83.73529,42.28075],[-83.735289,42.280713],[-83.735288,42.280683]]},"properties":{"Type":null}},{"type":"Feature","geometry":{"type":"LineString","coordinates":[[-83.673692,42.308508],[-83.673674,42.30848],[-83.673634,42.308493],[-83.673651,42.308522]]},"properties":{"Type":null}},{"type":"Feature","geometry":{"type":"MultiLineString","coordinates":[[[-83.709018,42.300963],[-83.709017,42.301043]],[[-83.709018,42.300963],[-83.709129,42.301011],[-83.709264,42.301261],[-83.709293,42.301318],[-83.709326,42.301372],[-83.709365,42.301422],[-83.709527,42.301594],[-83.709544,42.301679],[-83.709544,42.301707],[-83.709539,42.301735],[-83.70953,42.301761],[-83.709517,42.301786],[-83.7095,42.301808],[-83.709479,42.301827],[-83.709456,42.301843],[-83.709277,42.301938],[-83.709231,42.301956],[-83.709184,42.301967],[-83.709135,42.301972],[-83.709016,42.301974]],[[-83.708593,42.301039],[-83.708597,42.300998],[-83.708599,42.300984],[-83.708603,42.300971],[-83.708609,42.300958],[-83.708617,42.300947],[-83.708639,42.300933],[-83.708663,42.300921],[-83.708688,42.300913],[-83.708755,42.3009],[-83.708772,42.300894],[-83.708787,42.300887],[-83.708801,42.300877],[-83.708814,42.300864],[-83.708829,42.300854],[-83.708846,42.300846],[-83.708863,42.30084],[-83.708895,42.300833],[-83.708927,42.300828],[-83.709018,42.300819],[-83.709018,42.300963]],[[-83.709017,42.301043],[-83.708798,42.30105]],[[-83.709017,42.301043],[-83.709017,42.301426]],[[-83.709017,42.301426],[-83.708856,42.301438],[-83.708824,42.301424],[-83.708834,42.301367],[-83.70878,42.301362]],[[-83.709017,42.301426],[-83.709016,42.301974]],[[-83.709016,42.301974],[-83.708874,42.301975],[-83.708857,42.301987],[-83.708839,42.301997],[-83.70882,42.302005],[-83.7088,42.302009],[-83.708746,42.302009],[-83.708692,42.302002],[-83.70864,42.301988],[-83.708617,42.301976],[-83.708596,42.301959],[-83.708579,42.30194],[-83.708565,42.301918],[-83.708555,42.301894],[-83.708546,42.301866],[-83.708541,42.301838],[-83.708541,42.301809],[-83.708545,42.301781],[-83.708554,42.301753],[-83.708568,42.301728],[-83.708585,42.301704],[-83.708599,42.301686],[-83.708575,42.301666],[-83.708518,42.301597],[-83.708465,42.301525]]]},"properties":{"Type":null}},{"type":"Feature","geometry":{"type":"LineString","coordinates":[[-83.709018,42.300819],[-83.709019,42.29991],[-83.70902,42.298693],[-83.709013,42.297803],[-83.708345,42.2978],[-83.708344,42.29641]]},"properties":{"Type":null}},{"type":"Feature","geometry":{"type":"MultiLineString","coordinates":[[[-83.683154,42.276004],[-83.683153,42.275959],[-83.683148,42.275893],[-83.683149,42.27587],[-83.683154,42.275846],[-83.68317,42.275782],[-83.683193,42.27572],[-83.683221,42.27566],[-83.683254,42.275603],[-83.683292,42.275548],[-83.683335,42.275498],[-83.684263,42.275821]],[[-83.683154,42.276004],[-83.68424,42.276026]],[[-83.68248,42.276174],[-83.683158,42.276161],[-83.683154,42.276004]],[[-83.68248,42.276195],[-83.682734,42.276189],[-83.682734,42.276194],[-83.682746,42.276193],[-83.682792,42.276192],[-83.684471,42.276154],[-83.684471,42.276173],[-83.684474,42.276255],[-83.68449,42.276264],[-83.684533,42.276291],[-83.684572,42.276323],[-83.684607,42.276359],[-83.684638,42.2764],[-83.684664,42.276443],[-83.684675,42.276468],[-83.684689,42.276513],[-83.684696,42.27656],[-83.684697,42.276608],[-83.684691,42.276655],[-83.684678,42.276701],[-83.684659,42.276744],[-83.684634,42.276785],[-83.684604,42.276821],[-83.684569,42.276853],[-83.684553,42.276867],[-83.684503,42.276901],[-83.684451,42.276931],[-83.684395,42.276956],[-83.684338,42.276975],[-83.68428,42.27699],[-83.68422,42.276998],[-83.68416,42.277002],[-83.684015,42.277005],[-83.683114,42.277027],[-83.683113,42.277027],[-83.683113,42.277055],[-83.6825,42.277064]]]},"properties":{"Type":"Chain-link"}},{"type":"Feature","geometry":{"type":"MultiLineString","coordinates":[[[-83.679489,42.274936],[-83.679559,42.27493],[-83.67963,42.27493],[-83.6797,42.274937]],[[-83.679708,42.274939],[-83.679764,42.27495],[-83.67982,42.274965],[-83.679873,42.274985]],[[-83.679316,42.274982],[-83.67937,42.274963],[-83.679425,42.274948],[-83.679481,42.274937]],[[-83.67988,42.274988],[-83.679928,42.275012],[-83.679974,42.27504],[-83.680016,42.275072]],[[-83.679172,42.275067],[-83.679215,42.275036],[-83.679261,42.275008],[-83.679309,42.274985]],[[-83.680021,42.275076],[-83.680057,42.27511],[-83.680088,42.275147],[-83.680114,42.275188]],[[-83.679071,42.275182],[-83.679099,42.275141],[-83.679131,42.275105],[-83.679166,42.275071]],[[-83.680117,42.275193],[-83.680136,42.275235],[-83.68015,42.275278],[-83.680157,42.275323]],[[-83.679026,42.275315],[-83.679034,42.27527],[-83.679048,42.275228],[-83.679068,42.275187]],[[-83.67897,42.275318],[-83.679022,42.275318]],[[-83.680154,42.275326],[-83.68008,42.275326]],[[-83.680161,42.275326],[-83.680308,42.275327]],[[-83.680075,42.275329],[-83.680075,42.275416],[-83.680118,42.275417]],[[-83.680312,42.275331],[-83.680311,42.275412]],[[-83.678965,42.275451],[-83.678967,42.27532]],[[-83.678963,42.275589],[-83.678965,42.275457]],[[-83.678962,42.275726],[-83.678963,42.275595]],[[-83.67896,42.275863],[-83.678962,42.275732]],[[-83.678959,42.276],[-83.67896,42.275869]],[[-83.680304,42.276076],[-83.680304,42.276148]],[[-83.678957,42.276138],[-83.678959,42.276006]],[[-83.680066,42.276145],[-83.680065,42.276102],[-83.680072,42.276102]],[[-83.679012,42.276141],[-83.678961,42.276141]],[[-83.680144,42.27615],[-83.680069,42.276149]],[[-83.6803,42.276151],[-83.680152,42.27615]],[[-83.680148,42.276152],[-83.680139,42.276196],[-83.680126,42.276238],[-83.680106,42.276278]],[[-83.679055,42.276271],[-83.679037,42.276231],[-83.679024,42.276188],[-83.679016,42.276144]],[[-83.680103,42.276283],[-83.680081,42.276318],[-83.680055,42.27635],[-83.680026,42.27638],[-83.679132,42.276372],[-83.679104,42.276343],[-83.67908,42.276311],[-83.679058,42.276277]]]},"properties":{"Type":"Decorative Metal"}},{"type":"Feature","geometry":{"type":"MultiLineString","coordinates":[[[-83.678582,42.277988],[-83.679079,42.277387],[-83.679056,42.277363],[-83.678999,42.277307],[-83.678938,42.277256],[-83.678874,42.277208],[-83.678807,42.277165],[-83.678738,42.277127],[-83.678691,42.277097],[-83.678642,42.27707],[-83.678592,42.277047],[-83.678518,42.27702],[-83.678442,42.277],[-83.678364,42.276985],[-83.678286,42.276977],[-83.678218,42.276975],[-83.678149,42.276978],[-83.678058,42.276992],[-83.677968,42.277013],[-83.67788,42.27704],[-83.677795,42.277074],[-83.677712,42.277115],[-83.677597,42.277209],[-83.677486,42.277307],[-83.677378,42.27741],[-83.677346,42.277443],[-83.677692,42.277807],[-83.677756,42.277876],[-83.677768,42.277888],[-83.677806,42.277928],[-83.677871,42.277974],[-83.677875,42.277971]],[[-83.678501,42.278053],[-83.678477,42.278063],[-83.678417,42.278082],[-83.678355,42.278096],[-83.678293,42.278105],[-83.678229,42.278107],[-83.678227,42.278107],[-83.678161,42.278104],[-83.678096,42.278094],[-83.678032,42.278078],[-83.678012,42.278072],[-83.678006,42.27807]]]},"properties":{"Type":"Chain-link"}},{"type":"Feature","geometry":{"type":"MultiLineString","coordinates":[[[-83.679639,42.27679],[-83.679524,42.277021]],[[-83.679639,42.27679],[-83.679678,42.276801],[-83.679808,42.276837],[-83.679761,42.27693],[-83.679736,42.276985],[-83.679695,42.277072],[-83.679662,42.277145],[-83.67955,42.277113],[-83.679548,42.277113],[-83.679518,42.277104],[-83.679487,42.277096],[-83.679486,42.277098],[-83.679444,42.277181],[-83.679376,42.277201],[-83.67926,42.277166],[-83.679261,42.277166]],[[-83.679162,42.277137],[-83.679162,42.277137],[-83.679082,42.277114],[-83.678649,42.276985],[-83.678666,42.276956],[-83.678697,42.276906],[-83.678725,42.276864],[-83.678749,42.276832],[-83.678813,42.276752],[-83.678857,42.276718],[-83.678903,42.276688],[-83.678966,42.276655],[-83.679032,42.276626],[-83.6791,42.276603],[-83.67917,42.276586],[-83.679241,42.276574],[-83.679312,42.276568],[-83.679312,42.276568],[-83.679359,42.276567],[-83.679371,42.276567],[-83.679374,42.276567],[-83.679445,42.27657],[-83.679516,42.276578],[-83.679586,42.276592],[-83.679655,42.276611],[-83.679717,42.276633],[-83.679698,42.276672],[-83.679689,42.276689],[-83.679639,42.27679]]]},"properties":{"Type":"Chain-link"}},{"type":"Feature","geometry":{"type":"MultiLineString","coordinates":[[[-83.682477,42.276195],[-83.682477,42.276175]],[[-83.682484,42.276483],[-83.682478,42.2762]],[[-83.68249,42.276771],[-83.682484,42.276488]],[[-83.682497,42.27706],[-83.68249,42.276776]]]},"properties":{"Type":"Decorative Metal"}}]}
