{"type":"FeatureCollection","features":[{"type":"Feature","geometry":{"type":"Polygon","coordinates":[[[-83.754197,42.30828],[-83.754493,42.308643],[-83.75452,42.308631],[-83.754565,42.308613],[-83.754198,42.308148],[-83.754197,42.30828]]]},"properties":{"Layer":"CM-ROAD"}},{"type":"Feature","geometry":{"type":"Polygon","coordinates":[[[-83.7542,42.307993],[-83.754199,42.30812],[-83.754324,42.308064],[-83.754314,42.308052],[-83.754259,42.307985],[-83.754248,42.307972],[-83.754233,42.307979],[-83.7542,42.307993]]]},"properties":{"Layer":"CM-ROAD"}},{"type":"Feature","geometry":{"type":"Polygon","coordinates":[[[-83.745319,42.290502],[-83.745314,42.290466],[-83.745291,42.290468],[-83.745291,42.290478],[-83.745293,42.290505],[-83.745308,42.290506],[-83.745311,42.290531],[-83.746039,42.290482],[-83.746035,42.290455],[-83.746015,42.290456],[-83.745712,42.290477],[-83.745536,42.290488],[-83.745411,42.290496],[-83.745364,42.290499],[-83.745319,42.290502]]]},"properties":{"Layer":"CM-ROAD"}},{"type":"Feature","geometry":{"type":"Polygon","coordinates":[[[-83.754198,42.308148],[-83.754182,42.308127],[-83.754199,42.30812],[-83.7542,42.307993],[-83.754025,42.308069],[-83.754197,42.30828],[-83.754198,42.308148]]]},"properties":{"Layer":"CM-ROAD"}},{"type":"Feature","geometry":{"type":"Polygon","coordinates":[[[-83.715192,42.310233],[-83.715173,42.310235],[-83.715167,42.31032],[-83.715194,42.310323],[-83.715192,42.310233]]]},"properties":{"Layer":"CM-ROAD"}},{"type":"Feature","geometry":{"type":"Polygon","coordinates":[[[-83.671439,42.270841],[-83.671392,42.270845],[-83.671394,42.270911],[-83.671304,42.270917],[-83.671305,42.270936],[-83.671397,42.270933],[-83.6714,42.270995],[-83.67137,42.270999],[-83.67137,42.27102],[-83.67145,42.271018],[-83.671439,42.270841]]]},"properties":{"Layer":"CM-ROAD"}},{"type":"Feature","geometry":{"type":"Polygon","coordinates":[[[-83.671414,42.270557],[-83.671292,42.270567],[-83.6713,42.270697],[-83.671419,42.270694],[-83.671414,42.270557]]]},"properties":{"Layer":"CM-ROAD"}},{"type":"Feature","geometry":{"type":"Polygon","coordinates":[[[-83.678762,42.268401],[-83.678713,42.268425],[-83.678215,42.268681],[-83.6781,42.268746],[-83.678109,42.268756],[-83.67814,42.26874],[-83.67815,42.268749],[-83.678168,42.268742],[-83.678262,42.268691],[-83.678776,42.268418],[-83.678762,42.268401]]]},"properties":{"Layer":"CM-ROAD"}},{"type":"Feature","geometry":{"type":"Polygon","coordinates":[[[-83.644777,42.265467],[-83.644772,42.265432],[-83.644156,42.265432],[-83.644155,42.265463],[-83.644187,42.265464],[-83.64475,42.265467],[-83.644777,42.265467]]]},"properties":{"Layer":"CM-ROAD"}}]}
