{"type":"FeatureCollection","features":[{"type":"Feature","geometry":{"type":"Polygon","coordinates":[[[-83.723288,42.286412],[-83.723284,42.2864],[-83.723283,42.286397],[-83.723274,42.286377],[-83.723272,42.286375],[-83.723254,42.28635],[-83.723232,42.286329],[-83.723207,42.286311],[-83.72318,42.286297],[-83.723151,42.286287],[-83.723107,42.286276],[-83.723061,42.286272],[-83.723061,42.286272],[-83.723041,42.286273],[-83.722999,42.286276],[-83.722959,42.286286],[-83.722921,42.286302],[-83.722887,42.286325],[-83.722857,42.286354],[-83.72286,42.286399],[-83.722872,42.286572],[-83.722899,42.286592],[-83.722988,42.286589],[-83.723249,42.286581],[-83.723264,42.286555],[-83.723276,42.286527],[-83.723284,42.286499],[-83.723289,42.28647],[-83.72329,42.286441],[-83.723288,42.286412]]]},"properties":{"Label":null,"ObjectName":null,"loc_ObjectNum":"7002039","Building_Type":null}},{"type":"Feature","geometry":{"type":"Polygon","coordinates":[[[-83.741514,42.253614],[-83.741518,42.253947],[-83.742165,42.253943],[-83.742163,42.253778],[-83.742151,42.253778],[-83.742148,42.2536],[-83.741514,42.253604],[-83.741514,42.253614]]]},"properties":{"Label":null,"ObjectName":null,"loc_ObjectNum":"7002016","Building_Type":null}},{"type":"Feature","geometry":{"type":"Polygon","coordinates":[[[-83.71175,42.298085],[-83.711734,42.298088],[-83.711719,42.298092],[-83.711705,42.298099],[-83.711694,42.298107],[-83.711684,42.298117],[-83.711676,42.298128],[-83.711672,42.29814],[-83.711665,42.29839],[-83.711849,42.298393],[-83.711857,42.298143],[-83.711853,42.298131],[-83.711846,42.29812],[-83.711837,42.29811],[-83.711826,42.298101],[-83.711812,42.298094],[-83.711798,42.298089],[-83.711782,42.298085],[-83.711766,42.298084],[-83.71175,42.298085]]]},"properties":{"Label":null,"ObjectName":null,"loc_ObjectNum":"7006185","Building_Type":null}},{"type":"Feature","geometry":{"type":"Polygon","coordinates":[[[-83.742535,42.26472],[-83.742503,42.264665],[-83.742448,42.264666],[-83.742463,42.265104],[-83.74274,42.265099],[-83.742731,42.264862],[-83.742674,42.264776],[-83.742617,42.26475],[-83.742561,42.264736],[-83.742535,42.26472]]]},"properties":{"Label":null,"ObjectName":null,"loc_ObjectNum":"7002027","Building_Type":null}},{"type":"Feature","geometry":{"type":"Polygon","coordinates":[[[-83.740847,42.264582],[-83.740869,42.264581],[-83.740871,42.264577],[-83.740872,42.264577],[-83.741054,42.264575],[-83.741392,42.264575],[-83.741504,42.264574],[-83.741649,42.264572],[-83.741647,42.264528],[-83.742448,42.264516],[-83.74245,42.264549],[-83.742485,42.264546],[-83.742488,42.26454],[-83.742487,42.264533],[-83.742444,42.264426],[-83.742423,42.264415],[-83.742431,42.264392],[-83.742292,42.264064],[-83.74229,42.264061],[-83.742241,42.264019],[-83.742247,42.264195],[-83.742249,42.264261],[-83.742255,42.264447],[-83.740929,42.264472],[-83.740913,42.264033],[-83.741022,42.264031],[-83.741077,42.26403],[-83.741133,42.264029],[-83.741188,42.264028],[-83.741244,42.264027],[-83.741299,42.264026],[-83.741354,42.264025],[-83.74141,42.264023],[-83.741465,42.264022],[-83.741521,42.264021],[-83.741576,42.26402],[-83.741631,42.264019],[-83.741687,42.264018],[-83.741742,42.264017],[-83.741798,42.264016],[-83.741853,42.264015],[-83.741908,42.264014],[-83.741964,42.264013],[-83.742019,42.264012],[-83.742075,42.264011],[-83.74213,42.26401],[-83.742229,42.264008],[-83.742225,42.264005],[-83.742159,42.263881],[-83.742141,42.263867],[-83.741813,42.263875],[-83.740835,42.263898],[-83.74084,42.264065],[-83.740847,42.264582]]]},"properties":{"Label":null,"ObjectName":null,"loc_ObjectNum":"7002456","Building_Type":null}},{"type":"Feature","geometry":{"type":"Polygon","coordinates":[[[-83.741501,42.253119],[-83.741505,42.253414],[-83.741505,42.253414],[-83.741506,42.253462],[-83.741548,42.253461],[-83.742152,42.253457],[-83.74215,42.253272],[-83.742148,42.253114],[-83.741501,42.253119]]]},"properties":{"Label":null,"ObjectName":null,"loc_ObjectNum":"7002019","Building_Type":null}},{"type":"Feature","geometry":{"type":"Polygon","coordinates":[[[-83.73192,42.279335],[-83.73192,42.279338],[-83.731941,42.279994],[-83.732597,42.279983],[-83.732589,42.279701],[-83.732587,42.279652],[-83.732577,42.279322],[-83.732169,42.27933],[-83.73192,42.279335]]]},"properties":{"Label":null,"ObjectName":null,"loc_ObjectNum":"7002036","Building_Type":null}},{"type":"Feature","geometry":{"type":"Polygon","coordinates":[[[-83.742429,42.266318],[-83.74245,42.266347],[-83.742602,42.266349],[-83.742898,42.266308],[-83.742899,42.266273],[-83.742762,42.266276],[-83.742762,42.266292],[-83.742759,42.266292],[-83.742755,42.266292],[-83.742755,42.266291],[-83.742755,42.26629],[-83.742625,42.26629],[-83.742538,42.26629],[-83.742537,42.26629],[-83.742536,42.26629],[-83.742525,42.266291],[-83.742499,42.266292],[-83.742499,42.266292],[-83.742492,42.266292],[-83.742492,42.266289],[-83.742408,42.266291],[-83.742429,42.266318]]]},"properties":{"Label":null,"ObjectName":null,"loc_ObjectNum":"7005580","Building_Type":null}},{"type":"Feature","geometry":{"type":"Polygon","coordinates":[[[-83.742497,42.266956],[-83.742414,42.266995],[-83.742056,42.267013],[-83.742067,42.267307],[-83.741895,42.267652],[-83.741876,42.267653],[-83.741876,42.267654],[-83.741871,42.267739],[-83.741873,42.267843],[-83.741873,42.267843],[-83.741841,42.267843],[-83.741841,42.26786],[-83.741842,42.267918],[-83.741842,42.267921],[-83.741974,42.268016],[-83.741978,42.268016],[-83.742065,42.268015],[-83.742079,42.268015],[-83.742079,42.268012],[-83.742079,42.267991],[-83.742225,42.267989],[-83.742333,42.267984],[-83.742334,42.267983],[-83.742334,42.267967],[-83.742879,42.267814],[-83.743197,42.267807],[-83.743252,42.267418],[-83.743133,42.267188],[-83.742898,42.267006],[-83.742604,42.266954],[-83.742497,42.266956]]]},"properties":{"Label":null,"ObjectName":null,"loc_ObjectNum":"7002030","Building_Type":null}},{"type":"Feature","geometry":{"type":"Polygon","coordinates":[[[-83.742796,42.267901],[-83.742803,42.268026],[-83.742803,42.268038],[-83.743387,42.268025],[-83.743382,42.267871],[-83.743245,42.267874],[-83.743251,42.267827],[-83.743241,42.267826],[-83.743239,42.26783],[-83.743229,42.26786],[-83.742794,42.267866],[-83.742796,42.267901]]]},"properties":{"Label":null,"ObjectName":null,"loc_ObjectNum":"7004394","Building_Type":null}},{"type":"Feature","geometry":{"type":"Polygon","coordinates":[[[-83.742561,42.264736],[-83.742617,42.26475],[-83.742674,42.264776],[-83.742731,42.264862],[-83.74274,42.265099],[-83.742463,42.265104],[-83.742448,42.264666],[-83.742503,42.264665],[-83.742535,42.26472],[-83.742515,42.264616],[-83.742487,42.264533],[-83.742488,42.26454],[-83.742485,42.264546],[-83.74245,42.264549],[-83.742448,42.264516],[-83.741647,42.264528],[-83.741649,42.264572],[-83.741652,42.264638],[-83.741673,42.265607],[-83.742079,42.265601],[-83.74212,42.2656],[-83.743022,42.265587],[-83.743106,42.265569],[-83.743131,42.265563],[-83.743134,42.265562],[-83.743136,42.26556],[-83.743138,42.265558],[-83.74314,42.265556],[-83.743141,42.265554],[-83.743142,42.265551],[-83.743142,42.265549],[-83.743142,42.265547],[-83.743141,42.265544],[-83.74314,42.265542],[-83.742949,42.265216],[-83.742807,42.264973],[-83.742709,42.264809],[-83.742702,42.264795],[-83.742692,42.264782],[-83.74268,42.264771],[-83.742665,42.264761],[-83.742649,42.264753],[-83.742631,42.264747],[-83.742608,42.264739],[-83.742535,42.26472],[-83.742561,42.264736]],[[-83.74292,42.265549],[-83.742477,42.265557],[-83.742463,42.265118],[-83.74288,42.26511],[-83.742908,42.265159],[-83.74292,42.265549]],[[-83.742434,42.265553],[-83.741843,42.265562],[-83.741818,42.264657],[-83.742409,42.264648],[-83.742434,42.265553]]]},"properties":{"Label":null,"ObjectName":null,"loc_ObjectNum":"7004358","Building_Type":null}},{"type":"Feature","geometry":{"type":"Polygon","coordinates":[[[-83.74636,42.253158],[-83.746324,42.253158],[-83.746329,42.253262],[-83.747252,42.253234],[-83.747247,42.25314],[-83.747245,42.253096],[-83.747244,42.253096],[-83.747244,42.25309],[-83.747241,42.253034],[-83.747225,42.253035],[-83.747224,42.253035],[-83.74722,42.252956],[-83.747237,42.252955],[-83.747236,42.25293],[-83.747236,42.252927],[-83.747227,42.252927],[-83.747215,42.252927],[-83.74721,42.252805],[-83.747221,42.252804],[-83.747218,42.252741],[-83.747217,42.252713],[-83.747213,42.252649],[-83.747203,42.252649],[-83.747197,42.252527],[-83.747218,42.252526],[-83.747216,42.252498],[-83.7472,42.252498],[-83.747196,42.252419],[-83.747203,42.252419],[-83.747202,42.252402],[-83.747198,42.252328],[-83.747198,42.252328],[-83.747195,42.252263],[-83.74717,42.252237],[-83.746313,42.252262],[-83.74636,42.253158]]]},"properties":{"Label":null,"ObjectName":null,"loc_ObjectNum":"7002014","Building_Type":null}},{"type":"Feature","geometry":{"type":"Polygon","coordinates":[[[-83.71611,42.292286],[-83.716108,42.292287],[-83.715878,42.292511],[-83.715876,42.292512],[-83.715874,42.292515],[-83.715873,42.292517],[-83.715873,42.29252],[-83.715874,42.292523],[-83.715876,42.292525],[-83.716066,42.292525],[-83.71607,42.292524],[-83.716074,42.292522],[-83.716078,42.29252],[-83.716082,42.292517],[-83.716084,42.292514],[-83.716086,42.292511],[-83.716239,42.292376],[-83.716241,42.292374],[-83.716242,42.292371],[-83.716242,42.292368],[-83.716241,42.292366],[-83.71612,42.292288],[-83.716116,42.292286],[-83.716112,42.292286],[-83.71611,42.292286]]]},"properties":{"Label":null,"ObjectName":null,"loc_ObjectNum":"7007342","Building_Type":null}},{"type":"Feature","geometry":{"type":"Polygon","coordinates":[[[-83.742671,42.266517],[-83.742686,42.266575],[-83.742705,42.266632],[-83.742727,42.266687],[-83.742743,42.26672],[-83.742763,42.266751],[-83.742787,42.266778],[-83.742815,42.266801],[-83.742867,42.266832],[-83.742921,42.266856],[-83.742978,42.266875],[-83.743036,42.266888],[-83.743095,42.266894],[-83.743155,42.266894],[-83.743254,42.266893],[-83.743354,42.266891],[-83.743354,42.266891],[-83.743383,42.26689],[-83.743387,42.26689],[-83.7434,42.266683],[-83.743398,42.266596],[-83.743357,42.266596],[-83.743346,42.266601],[-83.74332,42.26662],[-83.74329,42.266634],[-83.743258,42.266643],[-83.743226,42.266646],[-83.743193,42.266644],[-83.743161,42.266637],[-83.743131,42.266625],[-83.743103,42.266607],[-83.743079,42.266586],[-83.743058,42.26656],[-83.743042,42.266532],[-83.743031,42.266501],[-83.743025,42.266469],[-83.743025,42.266436],[-83.74303,42.266404],[-83.74304,42.266372],[-83.743042,42.26637],[-83.743041,42.266343],[-83.742962,42.266343],[-83.742644,42.266379],[-83.742655,42.266448],[-83.742671,42.266517]]]},"properties":{"Label":null,"ObjectName":null,"loc_ObjectNum":"7004378","Building_Type":null}},{"type":"Feature","geometry":{"type":"Polygon","coordinates":[[[-83.720486,42.285172],[-83.720475,42.285172],[-83.720465,42.285174],[-83.720456,42.285176],[-83.720447,42.28518],[-83.720439,42.285185],[-83.720432,42.285191],[-83.720426,42.285197],[-83.720423,42.285204],[-83.72042,42.285211],[-83.720419,42.285219],[-83.720475,42.286397],[-83.720476,42.286406],[-83.720479,42.286414],[-83.720484,42.286422],[-83.720491,42.286429],[-83.720498,42.286435],[-83.720508,42.28644],[-83.720518,42.286444],[-83.720528,42.286447],[-83.72054,42.286448],[-83.721765,42.286417],[-83.721994,42.28638],[-83.722321,42.286373],[-83.722333,42.286372],[-83.722345,42.286371],[-83.722356,42.286368],[-83.722366,42.286363],[-83.722375,42.286358],[-83.722383,42.286351],[-83.722389,42.286343],[-83.722394,42.286335],[-83.722396,42.286326],[-83.722397,42.286318],[-83.722396,42.286309],[-83.722336,42.285164],[-83.722331,42.285155],[-83.722324,42.285147],[-83.722316,42.28514],[-83.722306,42.285133],[-83.722295,42.285128],[-83.722283,42.285125],[-83.722271,42.285122],[-83.720486,42.285172]]]},"properties":{"Label":null,"ObjectName":null,"loc_ObjectNum":"7005581","Building_Type":null}},{"type":"Feature","geometry":{"type":"Polygon","coordinates":[[[-83.742463,42.265118],[-83.742477,42.265557],[-83.74292,42.265549],[-83.742908,42.265159],[-83.74288,42.26511],[-83.742463,42.265118]]]},"properties":{"Label":null,"ObjectName":null,"loc_ObjectNum":"7002025","Building_Type":null}},{"type":"Feature","geometry":{"type":"Polygon","coordinates":[[[-83.716025,42.295373],[-83.716022,42.29546],[-83.716208,42.295462],[-83.716214,42.295369],[-83.716025,42.295373]]]},"properties":{"Label":null,"ObjectName":null,"loc_ObjectNum":"7006223","Building_Type":null}},{"type":"Feature","geometry":{"type":"Polygon","coordinates":[[[-83.73805,42.274134],[-83.738047,42.273971],[-83.738047,42.273969],[-83.737627,42.273971],[-83.737626,42.273971],[-83.737628,42.274135],[-83.737628,42.274137],[-83.737872,42.274136],[-83.737898,42.274136],[-83.73805,42.274134]]]},"properties":{"Label":null,"ObjectName":null,"loc_ObjectNum":"7002034","Building_Type":null}},{"type":"Feature","geometry":{"type":"Polygon","coordinates":[[[-83.748296,42.266301],[-83.748302,42.266336],[-83.748308,42.266347],[-83.748315,42.266359],[-83.74832,42.266369],[-83.74835,42.266398],[-83.748388,42.26642],[-83.748402,42.266424],[-83.748419,42.266429],[-83.748432,42.266434],[-83.74848,42.266438],[-83.748549,42.266438],[-83.748568,42.266438],[-83.748706,42.266439],[-83.748725,42.266439],[-83.748863,42.266439],[-83.748882,42.266439],[-83.748951,42.266439],[-83.748999,42.266434],[-83.749005,42.266433],[-83.749013,42.26643],[-83.74903,42.266425],[-83.749044,42.266421],[-83.749082,42.266399],[-83.749111,42.266371],[-83.749117,42.266361],[-83.749124,42.266348],[-83.74913,42.266338],[-83.749136,42.266302],[-83.749137,42.266095],[-83.749122,42.266095],[-83.749122,42.26608],[-83.749122,42.266043],[-83.74913,42.266042],[-83.749134,42.266042],[-83.749134,42.266042],[-83.749137,42.266042],[-83.749137,42.26592],[-83.749122,42.26592],[-83.749122,42.265905],[-83.749123,42.265868],[-83.74913,42.265868],[-83.749136,42.265868],[-83.749136,42.265867],[-83.749138,42.265867],[-83.749138,42.265745],[-83.749123,42.265745],[-83.749123,42.26573],[-83.749123,42.265693],[-83.749131,42.265693],[-83.749138,42.265693],[-83.749138,42.265692],[-83.749138,42.265692],[-83.749138,42.265668],[-83.749138,42.265654],[-83.749138,42.265551],[-83.749139,42.265537],[-83.749139,42.265486],[-83.749132,42.26545],[-83.749127,42.26544],[-83.74912,42.265427],[-83.749114,42.265417],[-83.749085,42.265389],[-83.749047,42.265367],[-83.749033,42.265363],[-83.749016,42.265357],[-83.749002,42.265353],[-83.748954,42.265348],[-83.748886,42.265348],[-83.748866,42.265348],[-83.748729,42.265348],[-83.748709,42.265348],[-83.748571,42.265348],[-83.748553,42.265348],[-83.748483,42.265348],[-83.74844,42.265352],[-83.748435,42.265352],[-83.748422,42.265356],[-83.748405,42.265362],[-83.748391,42.265366],[-83.748353,42.265388],[-83.748323,42.265416],[-83.748317,42.265426],[-83.74831,42.265439],[-83.748305,42.265449],[-83.748298,42.265484],[-83.748298,42.265536],[-83.748298,42.26555],[-83.748298,42.265653],[-83.748298,42.265666],[-83.748297,42.265769],[-83.748297,42.265783],[-83.748297,42.265871],[-83.748297,42.265915],[-83.748296,42.266301]]]},"properties":{"Label":null,"ObjectName":null,"loc_ObjectNum":"7002028","Building_Type":null}},{"type":"Feature","geometry":{"type":"Polygon","coordinates":[[[-83.716881,42.297358],[-83.716865,42.29736],[-83.71685,42.297364],[-83.716837,42.297369],[-83.716824,42.297376],[-83.716814,42.297385],[-83.716805,42.297395],[-83.716799,42.297405],[-83.716795,42.297416],[-83.716793,42.297428],[-83.716794,42.297668],[-83.716796,42.29768],[-83.7168,42.297692],[-83.716807,42.297703],[-83.716817,42.297713],[-83.716829,42.297722],[-83.716842,42.297728],[-83.716857,42.297734],[-83.716873,42.297737],[-83.716889,42.297738],[-83.716906,42.297737],[-83.716922,42.297734],[-83.716937,42.297729],[-83.71695,42.297722],[-83.716962,42.297713],[-83.716972,42.297704],[-83.716979,42.297693],[-83.716984,42.297681],[-83.716982,42.297429],[-83.716981,42.297417],[-83.716977,42.297406],[-83.716971,42.297396],[-83.716963,42.297386],[-83.716952,42.297377],[-83.71694,42.29737],[-83.716926,42.297364],[-83.716912,42.29736],[-83.716896,42.297358],[-83.716881,42.297358]]]},"properties":{"Label":null,"ObjectName":null,"loc_ObjectNum":"7007798","Building_Type":null}},{"type":"Feature","geometry":{"type":"Polygon","coordinates":[[[-83.740565,42.263224],[-83.740565,42.26323],[-83.740562,42.26323],[-83.740564,42.263292],[-83.740564,42.2633],[-83.740565,42.263363],[-83.740565,42.263372],[-83.740567,42.263432],[-83.740567,42.263441],[-83.740568,42.263503],[-83.740568,42.263511],[-83.74057,42.263574],[-83.74057,42.263582],[-83.740571,42.263644],[-83.740571,42.263652],[-83.740573,42.263715],[-83.740573,42.263723],[-83.740574,42.263785],[-83.740574,42.263785],[-83.740578,42.263785],[-83.740584,42.263785],[-83.74064,42.263784],[-83.740649,42.263784],[-83.740649,42.263783],[-83.740834,42.263779],[-83.741148,42.26377],[-83.741305,42.263766],[-83.741814,42.263753],[-83.741789,42.263264],[-83.741786,42.263206],[-83.741751,42.263197],[-83.741603,42.2632],[-83.741383,42.263207],[-83.741357,42.263207],[-83.741357,42.263205],[-83.741357,42.26319],[-83.741357,42.263189],[-83.740997,42.263194],[-83.740997,42.263196],[-83.740997,42.263218],[-83.740565,42.263224],[-83.740565,42.263224]],[[-83.74065,42.263266],[-83.741758,42.263244],[-83.741775,42.263728],[-83.740668,42.26376],[-83.74065,42.263266]]]},"properties":{"Label":null,"ObjectName":null,"loc_ObjectNum":"7002446","Building_Type":null}},{"type":"Feature","geometry":{"type":"Polygon","coordinates":[[[-83.699415,42.29341],[-83.699402,42.293413],[-83.699391,42.293417],[-83.69938,42.293423],[-83.699371,42.293429],[-83.699363,42.293437],[-83.699358,42.293446],[-83.699354,42.293456],[-83.699357,42.293656],[-83.699362,42.293665],[-83.699369,42.293674],[-83.699378,42.293681],[-83.699388,42.293687],[-83.6994,42.293692],[-83.699412,42.293695],[-83.699425,42.293697],[-83.699438,42.293697],[-83.699451,42.293695],[-83.699463,42.293692],[-83.699475,42.293688],[-83.699485,42.293682],[-83.699494,42.293675],[-83.699502,42.293667],[-83.699507,42.293658],[-83.699505,42.293452],[-83.699501,42.293443],[-83.699495,42.293434],[-83.699487,42.293427],[-83.699477,42.29342],[-83.699466,42.293415],[-83.699454,42.293412],[-83.699441,42.293409],[-83.699428,42.293409],[-83.699415,42.29341]]]},"properties":{"Label":null,"ObjectName":null,"loc_ObjectNum":"7007209","Building_Type":null}},{"type":"Feature","geometry":{"type":"Polygon","coordinates":[[[-83.7282,42.280835],[-83.728214,42.281031],[-83.728375,42.281018],[-83.728356,42.280825],[-83.7282,42.280835]]]},"properties":{"Label":null,"ObjectName":null,"loc_ObjectNum":"7006845","Building_Type":null}},{"type":"Feature","geometry":{"type":"Polygon","coordinates":[[[-83.732577,42.279322],[-83.732587,42.279652],[-83.732915,42.279646],[-83.732904,42.279317],[-83.732577,42.279322]]]},"properties":{"Label":null,"ObjectName":null,"loc_ObjectNum":"7002037","Building_Type":null}},{"type":"Feature","geometry":{"type":"Polygon","coordinates":[[[-83.740766,42.251094],[-83.740694,42.251095],[-83.740693,42.251063],[-83.740691,42.251053],[-83.740686,42.251044],[-83.740679,42.251036],[-83.740671,42.251028],[-83.740661,42.251022],[-83.74065,42.251017],[-83.740638,42.251013],[-83.740625,42.251011],[-83.740385,42.251014],[-83.739967,42.251021],[-83.739817,42.251023],[-83.739846,42.252096],[-83.740012,42.25209],[-83.740227,42.252085],[-83.740355,42.252082],[-83.740585,42.252078],[-83.740618,42.252077],[-83.74062,42.25213],[-83.74062,42.25213],[-83.740794,42.252128],[-83.740794,42.252126],[-83.740792,42.252055],[-83.740792,42.252015],[-83.740791,42.251997],[-83.740789,42.251888],[-83.740795,42.251888],[-83.740785,42.251888],[-83.740718,42.251889],[-83.740717,42.251889],[-83.740716,42.251856],[-83.740698,42.251856],[-83.740697,42.251817],[-83.740715,42.251817],[-83.740709,42.251574],[-83.740711,42.251574],[-83.740752,42.251555],[-83.740782,42.251555],[-83.740782,42.251555],[-83.740799,42.251555],[-83.740798,42.25153],[-83.740781,42.25153],[-83.740781,42.25153],[-83.740752,42.25153],[-83.740709,42.251513],[-83.740708,42.251512],[-83.740702,42.25128],[-83.740702,42.251275],[-83.740702,42.25127],[-83.740684,42.25127],[-83.740683,42.25127],[-83.740682,42.251231],[-83.740701,42.251231],[-83.7407,42.251198],[-83.740773,42.251197],[-83.74077,42.251094],[-83.740766,42.251094]],[[-83.740626,42.25204],[-83.739909,42.25205],[-83.739877,42.251063],[-83.740593,42.251052],[-83.740626,42.25204]]]},"properties":{"Label":null,"ObjectName":null,"loc_ObjectNum":"7004774","Building_Type":null}},{"type":"Feature","geometry":{"type":"Polygon","coordinates":[[[-83.710946,42.299776],[-83.711128,42.299778],[-83.711127,42.299647],[-83.71095,42.299645],[-83.710946,42.299776]]]},"properties":{"Label":null,"ObjectName":null,"loc_ObjectNum":"7008279","Building_Type":null}},{"type":"Feature","geometry":{"type":"Polygon","coordinates":[[[-83.740913,42.264033],[-83.740929,42.264472],[-83.742255,42.264447],[-83.742241,42.264008],[-83.740913,42.264033]]]},"properties":{"Label":null,"ObjectName":null,"loc_ObjectNum":"7002023","Building_Type":null}},{"type":"Feature","geometry":{"type":"Polygon","coordinates":[[[-83.740703,42.253584],[-83.740707,42.253927],[-83.741354,42.253922],[-83.741349,42.253579],[-83.740703,42.253584]]]},"properties":{"Label":null,"ObjectName":null,"loc_ObjectNum":"7002017","Building_Type":null}},{"type":"Feature","geometry":{"type":"Polygon","coordinates":[[[-83.724678,42.28558],[-83.724551,42.285587],[-83.724523,42.285593],[-83.724495,42.285604],[-83.72449,42.285607],[-83.724482,42.285611],[-83.724476,42.285615],[-83.724464,42.285625],[-83.724456,42.285632],[-83.724449,42.285641],[-83.724439,42.28566],[-83.724431,42.28568],[-83.724426,42.285701],[-83.724424,42.285722],[-83.724425,42.285744],[-83.724438,42.285777],[-83.724456,42.285808],[-83.724478,42.285836],[-83.724505,42.285859],[-83.724536,42.285877],[-83.724569,42.28589],[-83.724604,42.285897],[-83.724651,42.285901],[-83.724652,42.285901],[-83.724688,42.2859],[-83.724723,42.285894],[-83.724758,42.285884],[-83.724791,42.28587],[-83.724804,42.285862],[-83.724819,42.285853],[-83.724819,42.285853],[-83.724832,42.285841],[-83.724843,42.285827],[-83.724852,42.285811],[-83.724858,42.285795],[-83.724867,42.285743],[-83.72487,42.285729],[-83.724852,42.285597],[-83.724851,42.285597],[-83.724851,42.285594],[-83.724826,42.285575],[-83.724789,42.285574],[-83.724678,42.28558]]]},"properties":{"Label":null,"ObjectName":null,"loc_ObjectNum":"7002040","Building_Type":null}},{"type":"Feature","geometry":{"type":"Polygon","coordinates":[[[-83.741812,42.267444],[-83.741869,42.267443],[-83.741964,42.267441],[-83.742019,42.267333],[-83.742007,42.266984],[-83.741998,42.266984],[-83.741998,42.266984],[-83.741977,42.266984],[-83.74197,42.266984],[-83.741954,42.266985],[-83.741806,42.266992],[-83.741804,42.266948],[-83.741643,42.26695],[-83.741642,42.266951],[-83.741641,42.266951],[-83.741567,42.26695],[-83.741558,42.26695],[-83.741564,42.267189],[-83.741565,42.2672],[-83.741565,42.2672],[-83.741807,42.267197],[-83.741807,42.267202],[-83.741806,42.267202],[-83.741805,42.267202],[-83.741805,42.26721],[-83.741809,42.267441],[-83.74181,42.267441],[-83.741811,42.267441],[-83.741812,42.267441],[-83.741812,42.267444]]]},"properties":{"Label":null,"ObjectName":null,"loc_ObjectNum":"7007250","Building_Type":null}},{"type":"Feature","geometry":{"type":"Polygon","coordinates":[[[-83.741818,42.264657],[-83.741843,42.265562],[-83.742434,42.265553],[-83.742409,42.264648],[-83.741818,42.264657]]]},"properties":{"Label":null,"ObjectName":null,"loc_ObjectNum":"7002026","Building_Type":null}},{"type":"Feature","geometry":{"type":"Polygon","coordinates":[[[-83.725534,42.274857],[-83.725487,42.274805],[-83.725334,42.274884],[-83.7254,42.274951],[-83.725535,42.274884],[-83.725534,42.274857]]]},"properties":{"Label":null,"ObjectName":null,"loc_ObjectNum":"7009024","Building_Type":null}},{"type":"Feature","geometry":{"type":"Polygon","coordinates":[[[-83.739877,42.251063],[-83.739909,42.25205],[-83.740626,42.25204],[-83.740593,42.251052],[-83.739877,42.251063]]]},"properties":{"Label":null,"ObjectName":null,"loc_ObjectNum":"7002020","Building_Type":null}},{"type":"Feature","geometry":{"type":"Polygon","coordinates":[[[-83.732915,42.279646],[-83.732915,42.279649],[-83.732926,42.279975],[-83.732926,42.279978],[-83.732977,42.279977],[-83.73298,42.279977],[-83.733223,42.279972],[-83.733222,42.279957],[-83.733217,42.279812],[-83.73321,42.279653],[-83.733204,42.279473],[-83.733196,42.27931],[-83.73295,42.279316],[-83.732906,42.279317],[-83.732904,42.279317],[-83.732915,42.279646]]]},"properties":{"Label":null,"ObjectName":null,"loc_ObjectNum":"7002035","Building_Type":null}},{"type":"Feature","geometry":{"type":"Polygon","coordinates":[[[-83.743488,42.266828],[-83.743489,42.266957],[-83.743687,42.266954],[-83.743689,42.266825],[-83.743576,42.266826],[-83.743488,42.266828]]]},"properties":{"Label":null,"ObjectName":null,"loc_ObjectNum":"7005579","Building_Type":null}},{"type":"Feature","geometry":{"type":"Polygon","coordinates":[[[-83.739956,42.250807],[-83.740012,42.250839],[-83.74007,42.250867],[-83.74013,42.25089],[-83.740198,42.250907],[-83.740268,42.250917],[-83.740338,42.250922],[-83.740408,42.25092],[-83.740478,42.250911],[-83.740547,42.250897],[-83.740614,42.250876],[-83.740679,42.250849],[-83.740801,42.250847],[-83.740803,42.250904],[-83.740985,42.250899],[-83.740985,42.250904],[-83.74098,42.250735],[-83.740979,42.250706],[-83.740979,42.250705],[-83.740963,42.250148],[-83.740949,42.249578],[-83.740947,42.249488],[-83.740945,42.249401],[-83.740943,42.249401],[-83.740936,42.249401],[-83.740731,42.249404],[-83.740678,42.249371],[-83.740677,42.24937],[-83.740676,42.24937],[-83.740622,42.249343],[-83.74062,42.249342],[-83.740617,42.249341],[-83.740561,42.249321],[-83.740558,42.249319],[-83.740554,42.249318],[-83.740497,42.249303],[-83.740496,42.249303],[-83.740492,42.249302],[-83.740488,42.249301],[-83.74043,42.249292],[-83.740425,42.249291],[-83.740419,42.24929],[-83.740362,42.249286],[-83.740356,42.249286],[-83.74035,42.249286],[-83.740292,42.249286],[-83.740281,42.249287],[-83.740222,42.249293],[-83.740222,42.249293],[-83.740213,42.249295],[-83.740158,42.249305],[-83.74015,42.249307],[-83.740103,42.24932],[-83.740095,42.249323],[-83.740048,42.249341],[-83.740035,42.249346],[-83.740028,42.249349],[-83.740023,42.249351],[-83.739989,42.249368],[-83.739956,42.249388],[-83.739954,42.249389],[-83.739918,42.249414],[-83.739723,42.249418],[-83.73973,42.249658],[-83.739731,42.249685],[-83.739732,42.249732],[-83.739738,42.249969],[-83.739745,42.250216],[-83.739747,42.250302],[-83.739754,42.250546],[-83.739757,42.25065],[-83.739759,42.250768],[-83.739759,42.250782],[-83.739761,42.250809],[-83.739956,42.250807]],[[-83.740007,42.249659],[-83.740638,42.249649],[-83.74066,42.250412],[-83.740553,42.250442],[-83.740556,42.25055],[-83.740032,42.250561],[-83.740007,42.249659]]]},"properties":{"Label":null,"ObjectName":null,"loc_ObjectNum":"7002021","Building_Type":null}},{"type":"Feature","geometry":{"type":"Polygon","coordinates":[[[-83.732597,42.279983],[-83.732601,42.279984],[-83.732916,42.279978],[-83.732926,42.279978],[-83.732926,42.279975],[-83.732915,42.279649],[-83.732915,42.279646],[-83.732587,42.279652],[-83.732589,42.279701],[-83.732597,42.279983]]]},"properties":{"Label":null,"ObjectName":null,"loc_ObjectNum":"7002038","Building_Type":null}},{"type":"Feature","geometry":{"type":"Polygon","coordinates":[[[-83.744895,42.25243],[-83.744902,42.252526],[-83.744912,42.252719],[-83.744912,42.252719],[-83.744934,42.253198],[-83.745877,42.253174],[-83.74585,42.252641],[-83.745849,42.252637],[-83.745848,42.252617],[-83.745845,42.252607],[-83.745836,42.252527],[-83.745835,42.252419],[-83.745835,42.252413],[-83.745833,42.252408],[-83.745831,42.252403],[-83.745826,42.252403],[-83.745826,42.252403],[-83.744895,42.25243]]]},"properties":{"Label":null,"ObjectName":null,"loc_ObjectNum":"7002015","Building_Type":null}},{"type":"Feature","geometry":{"type":"Polygon","coordinates":[[[-83.697468,42.294552],[-83.697649,42.294553],[-83.697649,42.294319],[-83.697471,42.294317],[-83.697468,42.294552]]]},"properties":{"Label":null,"ObjectName":null,"loc_ObjectNum":"7007852","Building_Type":null}},{"type":"Feature","geometry":{"type":"Polygon","coordinates":[[[-83.723925,42.293217],[-83.72432,42.293218],[-83.72432,42.293059],[-83.724321,42.293041],[-83.724321,42.29288],[-83.724295,42.29288],[-83.724295,42.292886],[-83.723958,42.292885],[-83.723958,42.292879],[-83.723927,42.292879],[-83.723925,42.293217]]]},"properties":{"Label":null,"ObjectName":null,"loc_ObjectNum":"7006032","Building_Type":null}},{"type":"Feature","geometry":{"type":"Polygon","coordinates":[[[-83.740674,42.253138],[-83.740679,42.253481],[-83.740679,42.253487],[-83.741325,42.253483],[-83.741325,42.253477],[-83.741325,42.253476],[-83.741325,42.253475],[-83.74132,42.253134],[-83.740674,42.253138]]]},"properties":{"Label":null,"ObjectName":null,"loc_ObjectNum":"7002018","Building_Type":null}},{"type":"Feature","geometry":{"type":"Polygon","coordinates":[[[-83.74065,42.263266],[-83.740668,42.26376],[-83.741776,42.263738],[-83.741758,42.263244],[-83.74065,42.263266]]]},"properties":{"Label":null,"ObjectName":null,"loc_ObjectNum":"7002024","Building_Type":null}},{"type":"Feature","geometry":{"type":"Polygon","coordinates":[[[-84.673664,45.5596],[-84.673988,45.559615],[-84.674,45.559488],[-84.673676,45.559473],[-84.673664,45.5596]]]},"properties":{"Label":null,"ObjectName":"Volleyball Court","loc_ObjectNum":"7010549","Building_Type":null}},{"type":"Feature","geometry":{"type":"Polygon","coordinates":[[[-83.749712,42.25425],[-83.749677,42.254253],[-83.749643,42.254261],[-83.74961,42.254272],[-83.749607,42.254273],[-83.749604,42.254274],[-83.749602,42.254275],[-83.749599,42.254277],[-83.749597,42.254279],[-83.749596,42.254282],[-83.749595,42.254284],[-83.749594,42.254287],[-83.749594,42.25429],[-83.749594,42.254293],[-83.749595,42.254296],[-83.749596,42.254299],[-83.74974,42.254443],[-83.749752,42.254447],[-83.749764,42.254449],[-83.749777,42.25445],[-83.749789,42.254448],[-83.749801,42.254445],[-83.749832,42.254426],[-83.749845,42.254417],[-83.749856,42.254406],[-83.749859,42.254395],[-83.749861,42.254384],[-83.749862,42.254373],[-83.749861,42.254362],[-83.749854,42.254327],[-83.749843,42.254292],[-83.749834,42.254281],[-83.749824,42.25427],[-83.749812,42.254262],[-83.7498,42.254255],[-83.749786,42.25425],[-83.749772,42.254248],[-83.749712,42.25425]]]},"properties":{"Label":null,"ObjectName":null,"loc_ObjectNum":"7004833","Building_Type":null}},{"type":"Feature","geometry":{"type":"Polygon","coordinates":[[[-83.742932,42.266896],[-83.742987,42.266911],[-83.743044,42.266922],[-83.743206,42.266924],[-83.743414,42.266918],[-83.743425,42.266829],[-83.743423,42.266816],[-83.743444,42.266661],[-83.743442,42.266603],[-83.743434,42.266603],[-83.743434,42.266603],[-83.743432,42.26641],[-83.743431,42.266358],[-83.743431,42.266354],[-83.743377,42.266313],[-83.743371,42.266313],[-83.743226,42.266314],[-83.742916,42.266315],[-83.742916,42.266305],[-83.742898,42.266308],[-83.742602,42.266349],[-83.742609,42.26641],[-83.742588,42.266412],[-83.742588,42.266412],[-83.742614,42.26652],[-83.742657,42.266656],[-83.7427,42.266729],[-83.742738,42.266793],[-83.742748,42.26679],[-83.742787,42.266822],[-83.742831,42.266851],[-83.74288,42.266875],[-83.742932,42.266896]],[[-83.7434,42.266683],[-83.743387,42.26689],[-83.743383,42.26689],[-83.743354,42.266891],[-83.743354,42.266891],[-83.743254,42.266893],[-83.743155,42.266894],[-83.743095,42.266894],[-83.743036,42.266888],[-83.742978,42.266875],[-83.742921,42.266856],[-83.742867,42.266832],[-83.742815,42.266801],[-83.742787,42.266778],[-83.742763,42.266751],[-83.742743,42.26672],[-83.742727,42.266687],[-83.742705,42.266632],[-83.742686,42.266575],[-83.742671,42.266517],[-83.742655,42.266448],[-83.742644,42.266379],[-83.742962,42.266343],[-83.743041,42.266343],[-83.743042,42.26637],[-83.74304,42.266372],[-83.74303,42.266404],[-83.743025,42.266436],[-83.743025,42.266469],[-83.743031,42.266501],[-83.743042,42.266532],[-83.743058,42.26656],[-83.743079,42.266586],[-83.743103,42.266607],[-83.743131,42.266625],[-83.743161,42.266637],[-83.743193,42.266644],[-83.743226,42.266646],[-83.743258,42.266643],[-83.74329,42.266634],[-83.74332,42.26662],[-83.743346,42.266601],[-83.743357,42.266596],[-83.743398,42.266596],[-83.7434,42.266683]]]},"properties":{"Label":null,"ObjectName":null,"loc_ObjectNum":"7011181","Building_Type":null}},{"type":"Feature","geometry":{"type":"Polygon","coordinates":[[[-83.743414,42.266918],[-83.743206,42.266924],[-83.743204,42.267],[-83.743213,42.266998],[-83.743214,42.267002],[-83.743223,42.267001],[-83.743414,42.266995],[-83.743414,42.266918]]]},"properties":{"Label":null,"ObjectName":null,"loc_ObjectNum":"7011186","Building_Type":null}},{"type":"Feature","geometry":{"type":"Polygon","coordinates":[[[-83.743488,42.266828],[-83.743425,42.266829],[-83.743414,42.266918],[-83.743414,42.266995],[-83.743434,42.266995],[-83.743464,42.266994],[-83.74378,42.266946],[-83.743706,42.266816],[-83.743576,42.266817],[-83.743576,42.266826],[-83.743689,42.266825],[-83.743687,42.266954],[-83.743489,42.266957],[-83.743488,42.266828]]]},"properties":{"Label":null,"ObjectName":null,"loc_ObjectNum":"7011182","Building_Type":null}},{"type":"Feature","geometry":{"type":"Polygon","coordinates":[[[-83.741876,42.267653],[-83.741895,42.267652],[-83.742067,42.267307],[-83.742056,42.267013],[-83.742414,42.266995],[-83.742497,42.266956],[-83.742604,42.266954],[-83.742898,42.267006],[-83.743133,42.267188],[-83.743252,42.267418],[-83.743197,42.267807],[-83.742879,42.267814],[-83.742334,42.267967],[-83.742334,42.267983],[-83.742398,42.267974],[-83.742794,42.267866],[-83.743229,42.26786],[-83.743239,42.26783],[-83.743241,42.267826],[-83.743244,42.267816],[-83.743294,42.26754],[-83.743291,42.26754],[-83.743309,42.267433],[-83.7432,42.267192],[-83.743132,42.267121],[-83.743004,42.267024],[-83.742927,42.266965],[-83.742663,42.266923],[-83.742632,42.266918],[-83.742607,42.266914],[-83.742605,42.266916],[-83.742473,42.26692],[-83.742403,42.266951],[-83.742366,42.266968],[-83.742346,42.266969],[-83.742007,42.266984],[-83.742019,42.267333],[-83.741964,42.267441],[-83.741882,42.267611],[-83.74188,42.267627],[-83.741877,42.267639],[-83.741878,42.267639],[-83.741876,42.267653]]]},"properties":{"Label":null,"ObjectName":null,"loc_ObjectNum":"7011183","Building_Type":null}},{"type":"Feature","geometry":{"type":"Polygon","coordinates":[[[-83.743534,42.26855],[-83.743529,42.268469],[-83.741619,42.26852],[-83.741617,42.26852],[-83.741608,42.26852],[-83.741611,42.268576],[-83.741568,42.268596],[-83.741529,42.268623],[-83.741494,42.268654],[-83.741464,42.268691],[-83.741439,42.268731],[-83.74142,42.268775],[-83.741408,42.26882],[-83.741403,42.268868],[-83.741404,42.268915],[-83.741413,42.268961],[-83.741428,42.269006],[-83.741449,42.269049],[-83.741476,42.269087],[-83.741509,42.269122],[-83.741546,42.269151],[-83.741587,42.269175],[-83.741631,42.269192],[-83.741677,42.269204],[-83.74173,42.26922],[-83.741786,42.269231],[-83.741842,42.269237],[-83.741879,42.269238],[-83.741879,42.269236],[-83.742012,42.269233],[-83.742012,42.269235],[-83.743085,42.269207],[-83.743099,42.269207],[-83.743105,42.269207],[-83.743162,42.269204],[-83.743217,42.269197],[-83.743217,42.269197],[-83.743255,42.269188],[-83.743273,42.269184],[-83.743325,42.269168],[-83.743376,42.269146],[-83.743423,42.269119],[-83.743467,42.269086],[-83.743506,42.269048],[-83.743541,42.269006],[-83.743563,42.268968],[-83.743579,42.268928],[-83.743588,42.268885],[-83.743591,42.268842],[-83.74359,42.26881],[-83.743584,42.268778],[-83.74358,42.268761],[-83.74358,42.268761],[-83.743575,42.268746],[-83.743561,42.268714],[-83.743543,42.268684],[-83.743513,42.268645],[-83.743478,42.268611],[-83.74344,42.26858],[-83.743398,42.268554],[-83.743534,42.26855]],[[-83.743127,42.268562],[-83.743168,42.268564],[-83.743208,42.268571],[-83.743247,42.268583],[-83.743284,42.268601],[-83.743317,42.268626],[-83.743346,42.268656],[-83.743371,42.268689],[-83.743391,42.268726],[-83.743406,42.268765],[-83.743415,42.268805],[-83.743418,42.268847],[-83.743416,42.268888],[-83.743406,42.268932],[-83.743389,42.268974],[-83.743366,42.269012],[-83.743337,42.269047],[-83.743304,42.269077],[-83.743266,42.269102],[-83.743229,42.269113],[-83.743191,42.26912],[-83.743153,42.269124],[-83.743129,42.269127],[-83.741907,42.269159],[-83.74186,42.269161],[-83.741813,42.269157],[-83.741767,42.269146],[-83.741722,42.269131],[-83.74168,42.269109],[-83.741641,42.269083],[-83.741605,42.269052],[-83.741574,42.269017],[-83.741547,42.268978],[-83.741526,42.268936],[-83.741519,42.268898],[-83.741518,42.268861],[-83.741524,42.268823],[-83.741535,42.268787],[-83.741552,42.268753],[-83.741574,42.268722],[-83.741601,42.268696],[-83.741631,42.268673],[-83.741678,42.268646],[-83.741727,42.268624],[-83.741778,42.268608],[-83.74183,42.268597],[-83.741884,42.268593],[-83.742983,42.268564],[-83.743127,42.268562]]]},"properties":{"Label":null,"ObjectName":null,"loc_ObjectNum":"7002029","Building_Type":null}},{"type":"Feature","geometry":{"type":"Polygon","coordinates":[[[-83.724035,42.291522],[-83.724102,42.291462],[-83.723919,42.29135],[-83.723852,42.29141],[-83.724035,42.291522]]]},"properties":{"Label":null,"ObjectName":null,"loc_ObjectNum":"7011470","Building_Type":null}},{"type":"Feature","geometry":{"type":"Polygon","coordinates":[[[-83.741307,42.250021],[-83.741468,42.250125],[-83.741469,42.250186],[-83.74177,42.250181],[-83.74205,42.250177],[-83.742049,42.25009],[-83.742194,42.24999],[-83.742263,42.249981],[-83.742298,42.24998],[-83.742303,42.250095],[-83.742356,42.250096],[-83.74236,42.249758],[-83.742334,42.249698],[-83.742303,42.249641],[-83.742266,42.249588],[-83.742223,42.249539],[-83.742176,42.249494],[-83.742125,42.249454],[-83.74207,42.24942],[-83.742011,42.249392],[-83.74195,42.24937],[-83.741888,42.249354],[-83.741823,42.249344],[-83.741759,42.249341],[-83.741758,42.249341],[-83.741718,42.249339],[-83.741548,42.249338],[-83.741492,42.249339],[-83.741168,42.249344],[-83.741168,42.249344],[-83.741167,42.249344],[-83.741167,42.249348],[-83.74116,42.249348],[-83.741156,42.249348],[-83.741156,42.24934],[-83.741153,42.24934],[-83.741154,42.249351],[-83.741156,42.249488],[-83.741157,42.249559],[-83.741169,42.250009],[-83.741178,42.250009],[-83.741178,42.250009],[-83.741248,42.250009],[-83.741307,42.250021]]]},"properties":{"Label":null,"ObjectName":null,"loc_ObjectNum":"7002022","Building_Type":null}},{"type":"Feature","geometry":{"type":"Polygon","coordinates":[[[-83.740007,42.249659],[-83.740032,42.250561],[-83.740556,42.25055],[-83.740553,42.250442],[-83.74066,42.250412],[-83.740638,42.249649],[-83.740007,42.249659]]]},"properties":{"Label":null,"ObjectName":null,"loc_ObjectNum":"7012356","Building_Type":null}},{"type":"Feature","geometry":{"type":"Polygon","coordinates":[[[-83.748855,42.252179],[-83.748412,42.252193],[-83.748412,42.252193],[-83.748412,42.252195],[-83.748451,42.252924],[-83.748465,42.253192],[-83.749407,42.253165],[-83.749407,42.252935],[-83.749405,42.252912],[-83.749371,42.252199],[-83.749368,42.252192],[-83.749364,42.252187],[-83.74936,42.252181],[-83.749354,42.252177],[-83.749348,42.252173],[-83.749342,42.25217],[-83.749335,42.252168],[-83.749328,42.252166],[-83.74932,42.252165],[-83.748855,42.252179]]]},"properties":{"Label":null,"ObjectName":null,"loc_ObjectNum":"7002013","Building_Type":null}},{"type":"Feature","geometry":{"type":"Polygon","coordinates":[[[-83.705159,42.282915],[-83.705209,42.282942],[-83.705484,42.282687],[-83.705409,42.282646],[-83.705159,42.282915]]]},"properties":{"Label":null,"ObjectName":null,"loc_ObjectNum":"7013198","Building_Type":null}},{"type":"Feature","geometry":{"type":"Polygon","coordinates":[[[-83.724354,42.296036],[-83.724319,42.295009],[-83.724315,42.295002],[-83.724311,42.294995],[-83.724306,42.294989],[-83.724299,42.294984],[-83.724292,42.29498],[-83.724284,42.294977],[-83.724276,42.294976],[-83.724268,42.294976],[-83.722438,42.295005],[-83.72243,42.295007],[-83.722422,42.29501],[-83.722414,42.295015],[-83.722408,42.29502],[-83.722402,42.295027],[-83.722397,42.295034],[-83.722394,42.295042],[-83.722427,42.29607],[-83.722431,42.296078],[-83.722436,42.296086],[-83.722442,42.296092],[-83.722449,42.296098],[-83.722457,42.296102],[-83.722466,42.296105],[-83.722475,42.296106],[-83.722483,42.296106],[-83.724304,42.296077],[-83.724312,42.296077],[-83.72432,42.296076],[-83.724327,42.296073],[-83.724334,42.296069],[-83.72434,42.296064],[-83.724345,42.296058],[-83.72435,42.296052],[-83.724353,42.296044],[-83.724354,42.296036]]]},"properties":{"Label":null,"ObjectName":null,"loc_ObjectNum":"7014124","Building_Type":null}},{"type":"Feature","geometry":{"type":"Polygon","coordinates":[[[-83.722606,42.285343],[-83.722616,42.285567],[-83.723357,42.285551],[-83.723347,42.285327],[-83.722606,42.285343]]]},"properties":{"Label":null,"ObjectName":null,"loc_ObjectNum":"7014338","Building_Type":null}},{"type":"Feature","geometry":{"type":"Polygon","coordinates":[[[-83.746717,42.27285],[-83.746697,42.273231],[-83.746693,42.273302],[-83.746669,42.273753],[-83.746666,42.273812],[-83.747165,42.273832],[-83.747306,42.273838],[-83.747309,42.273838],[-83.747368,42.272744],[-83.747253,42.272741],[-83.746724,42.272723],[-83.746717,42.27285]]]},"properties":{"Label":null,"ObjectName":null,"loc_ObjectNum":"7014422","Building_Type":null}},{"type":"Feature","geometry":{"type":"Polygon","coordinates":[[[-83.747309,42.273838],[-83.747807,42.27385],[-83.74782,42.273611],[-83.747822,42.273578],[-83.747828,42.273469],[-83.747523,42.272999],[-83.747384,42.272783],[-83.747384,42.272745],[-83.747384,42.272745],[-83.747368,42.272744],[-83.747309,42.273838]]]},"properties":{"Label":null,"ObjectName":null,"loc_ObjectNum":"7014423","Building_Type":null}},{"type":"Feature","geometry":{"type":"Polygon","coordinates":[[[-83.720036,42.285996],[-83.720149,42.285993],[-83.720109,42.284882],[-83.718736,42.28491],[-83.718777,42.286021],[-83.719979,42.285997],[-83.720036,42.285996]]]},"properties":{"Label":null,"ObjectName":null,"loc_ObjectNum":null,"Building_Type":null}},{"type":"Feature","geometry":{"type":"Polygon","coordinates":[[[-83.724181,42.285854],[-83.724228,42.285906],[-83.72428,42.285953],[-83.724335,42.285996],[-83.724395,42.286033],[-83.724457,42.286065],[-83.724522,42.286091],[-83.724589,42.286111],[-83.724658,42.286124],[-83.724728,42.286131],[-83.724798,42.286132],[-83.724798,42.28613],[-83.724791,42.28587],[-83.724758,42.285884],[-83.724723,42.285894],[-83.724688,42.2859],[-83.724652,42.285901],[-83.724651,42.285901],[-83.724604,42.285897],[-83.724569,42.28589],[-83.724536,42.285877],[-83.724505,42.285859],[-83.724478,42.285836],[-83.724456,42.285808],[-83.724438,42.285777],[-83.724425,42.285744],[-83.724424,42.285722],[-83.724426,42.285701],[-83.724431,42.28568],[-83.724439,42.28566],[-83.724449,42.285641],[-83.724456,42.285632],[-83.724464,42.285625],[-83.724097,42.28563],[-83.72409,42.28563],[-83.724098,42.285678],[-83.724112,42.285725],[-83.72413,42.28577],[-83.724153,42.285813],[-83.724181,42.285853],[-83.724181,42.285854]]]},"properties":{"Label":null,"ObjectName":null,"loc_ObjectNum":null,"Building_Type":null}},{"type":"Feature","geometry":{"type":"Polygon","coordinates":[[[-83.723061,42.286272],[-83.723107,42.286276],[-83.723151,42.286287],[-83.72318,42.286297],[-83.723207,42.286311],[-83.723232,42.286329],[-83.723254,42.28635],[-83.723272,42.286375],[-83.723274,42.286377],[-83.723283,42.286397],[-83.723284,42.2864],[-83.723288,42.286412],[-83.72329,42.286441],[-83.723289,42.28647],[-83.723284,42.286498],[-83.723284,42.286498],[-83.723284,42.286499],[-83.723276,42.286527],[-83.72364,42.286516],[-83.723644,42.286516],[-83.723628,42.286458],[-83.723606,42.286401],[-83.723577,42.286348],[-83.723544,42.286297],[-83.723505,42.286251],[-83.723461,42.286208],[-83.723414,42.286171],[-83.723362,42.286138],[-83.723362,42.286138],[-83.723296,42.286105],[-83.723228,42.286078],[-83.723159,42.286056],[-83.723087,42.28604],[-83.723015,42.286029],[-83.722942,42.286025],[-83.722924,42.286025],[-83.722924,42.286027],[-83.722938,42.286294],[-83.722971,42.286283],[-83.723006,42.286276],[-83.723041,42.286273],[-83.723061,42.286272],[-83.723061,42.286272]]]},"properties":{"Label":null,"ObjectName":null,"loc_ObjectNum":null,"Building_Type":null}},{"type":"Feature","geometry":{"type":"Polygon","coordinates":[[[-83.683113,42.277027],[-83.68416,42.277002],[-83.68421,42.277014],[-83.684262,42.277019],[-83.684314,42.277018],[-83.684365,42.27701],[-83.684415,42.276996],[-83.684463,42.276975],[-83.684507,42.276949],[-83.684548,42.276917],[-83.684585,42.27688],[-83.684617,42.276839],[-83.684643,42.276794],[-83.684663,42.276746],[-83.684677,42.276696],[-83.684684,42.276644],[-83.684685,42.276592],[-83.684679,42.276541],[-83.684667,42.27649],[-83.684648,42.276442],[-83.684624,42.276396],[-83.684594,42.276354],[-83.684558,42.276316],[-83.684518,42.276282],[-83.684474,42.276255],[-83.684471,42.276152],[-83.682734,42.276189],[-83.682734,42.276307],[-83.682696,42.276342],[-83.682662,42.276381],[-83.682633,42.276425],[-83.68261,42.276471],[-83.682593,42.27652],[-83.682582,42.276571],[-83.682578,42.276623],[-83.68258,42.276675],[-83.682589,42.276726],[-83.682604,42.276776],[-83.682625,42.276824],[-83.682652,42.276868],[-83.682685,42.276909],[-83.682722,42.276945],[-83.682763,42.276977],[-83.682809,42.277002],[-83.682857,42.277022],[-83.682907,42.277036],[-83.682958,42.277044],[-83.68301,42.277044],[-83.683062,42.277039],[-83.683113,42.277027]],[[-83.684128,42.276269],[-83.684186,42.276269],[-83.684244,42.276277],[-83.6843,42.276291],[-83.684354,42.276312],[-83.684405,42.276339],[-83.684453,42.276372],[-83.684463,42.276384],[-83.684472,42.276398],[-83.684478,42.276413],[-83.684482,42.276428],[-83.684484,42.276444],[-83.684491,42.276747],[-83.684482,42.276767],[-83.684469,42.276786],[-83.684454,42.276802],[-83.684436,42.276816],[-83.684386,42.276846],[-83.684332,42.27687],[-83.684277,42.276888],[-83.684219,42.2769],[-83.684161,42.276905],[-83.684156,42.276905],[-83.683131,42.276928],[-83.683078,42.276927],[-83.683025,42.276921],[-83.682973,42.276909],[-83.682922,42.276893],[-83.6829,42.276337],[-83.682949,42.276319],[-83.683,42.276305],[-83.683052,42.276296],[-83.683104,42.276293],[-83.684128,42.276269]]]},"properties":{"Label":null,"ObjectName":null,"loc_ObjectNum":null,"Building_Type":null}},{"type":"Feature","geometry":{"type":"Polygon","coordinates":[[[-83.683131,42.276928],[-83.684156,42.276905],[-83.684161,42.276905],[-83.684219,42.2769],[-83.684277,42.276888],[-83.684332,42.27687],[-83.684386,42.276846],[-83.684436,42.276816],[-83.684454,42.276802],[-83.684469,42.276786],[-83.684482,42.276767],[-83.684491,42.276747],[-83.684484,42.276444],[-83.684482,42.276428],[-83.684478,42.276413],[-83.684472,42.276398],[-83.684463,42.276384],[-83.684453,42.276372],[-83.684405,42.276339],[-83.684354,42.276312],[-83.6843,42.276291],[-83.684244,42.276277],[-83.684186,42.276269],[-83.684128,42.276269],[-83.683104,42.276293],[-83.683052,42.276296],[-83.683,42.276305],[-83.682949,42.276319],[-83.6829,42.276337],[-83.682922,42.276893],[-83.682973,42.276909],[-83.683025,42.276921],[-83.683078,42.276927],[-83.683131,42.276928]]]},"properties":{"Label":null,"ObjectName":null,"loc_ObjectNum":null,"Building_Type":null}},{"type":"Feature","geometry":{"type":"Polygon","coordinates":[[[-83.679859,42.276368],[-83.679863,42.276366],[-83.679897,42.276344],[-83.679929,42.276317],[-83.679957,42.276287],[-83.67998,42.276253],[-83.679999,42.276216],[-83.680012,42.276177],[-83.680021,42.276137],[-83.68003,42.275343],[-83.680009,42.27529],[-83.67998,42.27524],[-83.679946,42.275194],[-83.679906,42.275152],[-83.679862,42.275116],[-83.679813,42.275085],[-83.679761,42.275061],[-83.679707,42.275043],[-83.67965,42.275032],[-83.679593,42.275029],[-83.679536,42.275032],[-83.679479,42.275042],[-83.679424,42.275059],[-83.679372,42.275083],[-83.679323,42.275113],[-83.679278,42.275148],[-83.679238,42.27519],[-83.679203,42.275235],[-83.679175,42.275285],[-83.679152,42.275338],[-83.679144,42.276137],[-83.679155,42.276184],[-83.679172,42.276228],[-83.679196,42.276269],[-83.679226,42.276306],[-83.679261,42.276338],[-83.6793,42.276365],[-83.679859,42.276368]]]},"properties":{"Label":null,"ObjectName":null,"loc_ObjectNum":null,"Building_Type":null}},{"type":"Feature","geometry":{"type":"Polygon","coordinates":[[[-83.679717,42.276633],[-83.679642,42.276605],[-83.679566,42.276585],[-83.679487,42.276571],[-83.679408,42.276563],[-83.679328,42.276563],[-83.679249,42.27657],[-83.67917,42.276584],[-83.679093,42.276605],[-83.679019,42.276632],[-83.678947,42.276666],[-83.678878,42.276706],[-83.678813,42.276752],[-83.678753,42.276826],[-83.678699,42.276904],[-83.678649,42.276985],[-83.679082,42.277114],[-83.679098,42.277085],[-83.679095,42.277045],[-83.679098,42.277006],[-83.679109,42.276968],[-83.679126,42.276932],[-83.679148,42.2769],[-83.679176,42.276872],[-83.679209,42.276849],[-83.679245,42.276832],[-83.679283,42.276822],[-83.679322,42.276819],[-83.679361,42.276822],[-83.6794,42.276832],[-83.679436,42.276848],[-83.679468,42.27687],[-83.679497,42.276898],[-83.67952,42.27693],[-83.679563,42.276942],[-83.679717,42.276633]]]},"properties":{"Label":null,"ObjectName":null,"loc_ObjectNum":null,"Building_Type":null}},{"type":"Feature","geometry":{"type":"Polygon","coordinates":[[[-83.67952,42.27693],[-83.679497,42.276898],[-83.679468,42.27687],[-83.679436,42.276848],[-83.6794,42.276832],[-83.679361,42.276822],[-83.679322,42.276819],[-83.679283,42.276822],[-83.679245,42.276832],[-83.679209,42.276849],[-83.679176,42.276872],[-83.679148,42.2769],[-83.679126,42.276932],[-83.679109,42.276968],[-83.679098,42.277006],[-83.679095,42.277045],[-83.679098,42.277085],[-83.679082,42.277114],[-83.67926,42.277166],[-83.679376,42.277201],[-83.679444,42.277181],[-83.679486,42.277098],[-83.679487,42.277096],[-83.679485,42.277095],[-83.679522,42.277021],[-83.679524,42.277021],[-83.679563,42.276942],[-83.67952,42.27693]]]},"properties":{"Label":null,"ObjectName":null,"loc_ObjectNum":null,"Building_Type":null}},{"type":"Feature","geometry":{"type":"Polygon","coordinates":[[[-83.678149,42.276978],[-83.678058,42.276992],[-83.677968,42.277013],[-83.67788,42.27704],[-83.677795,42.277074],[-83.677712,42.277115],[-83.677585,42.277219],[-83.677463,42.277329],[-83.677346,42.277443],[-83.677806,42.277928],[-83.677871,42.277974],[-83.677875,42.277971],[-83.677908,42.277993],[-83.677906,42.277996],[-83.67792,42.278008],[-83.677941,42.277993],[-83.677955,42.277978],[-83.678064,42.278052],[-83.678032,42.278078],[-83.678095,42.278094],[-83.678159,42.278103],[-83.678224,42.278107],[-83.678288,42.278105],[-83.678353,42.278097],[-83.678416,42.278082],[-83.678477,42.278063],[-83.678443,42.278039],[-83.67854,42.277956],[-83.678559,42.277972],[-83.678582,42.277988],[-83.679079,42.277387],[-83.679018,42.277325],[-83.678954,42.277268],[-83.678885,42.277216],[-83.678813,42.277168],[-83.678738,42.277127],[-83.678669,42.277085],[-83.678597,42.27705],[-83.678522,42.277021],[-83.678445,42.277],[-83.678366,42.276985],[-83.678286,42.276977],[-83.678218,42.276975],[-83.678149,42.276978]],[[-83.677869,42.277788],[-83.677896,42.277744],[-83.677929,42.277703],[-83.677966,42.277667],[-83.678008,42.277635],[-83.678053,42.277609],[-83.678101,42.277589],[-83.678151,42.277575],[-83.678203,42.277568],[-83.678255,42.277566],[-83.678306,42.277572],[-83.678357,42.277583],[-83.678406,42.277601],[-83.678452,42.277625],[-83.678495,42.277655],[-83.678534,42.277689],[-83.678569,42.277729],[-83.678598,42.277772],[-83.678461,42.277878],[-83.678441,42.277866],[-83.678294,42.277985],[-83.678296,42.277993],[-83.678296,42.278002],[-83.678295,42.278011],[-83.678292,42.278019],[-83.678288,42.278027],[-83.678282,42.278034],[-83.678276,42.278039],[-83.678268,42.278044],[-83.67826,42.278047],[-83.678252,42.278049],[-83.678243,42.278049],[-83.678234,42.278048],[-83.678226,42.278045],[-83.678218,42.278041],[-83.678211,42.278035],[-83.678206,42.278029],[-83.678201,42.278021],[-83.678198,42.278013],[-83.678196,42.278005],[-83.678196,42.277996],[-83.678197,42.277987],[-83.678034,42.27788],[-83.678019,42.277892],[-83.677869,42.277788]],[[-83.678426,42.278069],[-83.678424,42.278069],[-83.678422,42.278069],[-83.67842,42.278068],[-83.678418,42.278067],[-83.678416,42.278066],[-83.678415,42.278064],[-83.678414,42.278063],[-83.678413,42.278061],[-83.678412,42.278059],[-83.678412,42.278056],[-83.678412,42.278054],[-83.678413,42.278052],[-83.678414,42.27805],[-83.678415,42.278049],[-83.678417,42.278047],[-83.678419,42.278046],[-83.678421,42.278045],[-83.678423,42.278045],[-83.678425,42.278045],[-83.678427,42.278045],[-83.678429,42.278045],[-83.678431,42.278046],[-83.678433,42.278048],[-83.678434,42.278049],[-83.678435,42.278051],[-83.678436,42.278053],[-83.678437,42.278055],[-83.678437,42.278057],[-83.678436,42.278059],[-83.678436,42.278061],[-83.678435,42.278063],[-83.678434,42.278065],[-83.678432,42.278066],[-83.67843,42.278067],[-83.678428,42.278068],[-83.678426,42.278069]],[[-83.678082,42.278081],[-83.67808,42.27808],[-83.678078,42.27808],[-83.678077,42.278079],[-83.678075,42.278077],[-83.678074,42.278076],[-83.678073,42.278074],[-83.678072,42.278072],[-83.678072,42.27807],[-83.678072,42.278068],[-83.678072,42.278066],[-83.678073,42.278064],[-83.678074,42.278062],[-83.678075,42.27806],[-83.678077,42.278059],[-83.678079,42.278058],[-83.678081,42.278057],[-83.678083,42.278057],[-83.678085,42.278057],[-83.678087,42.278057],[-83.678089,42.278058],[-83.678091,42.278059],[-83.678092,42.278061],[-83.678094,42.278062],[-83.678095,42.278064],[-83.678095,42.278066],[-83.678096,42.278068],[-83.678096,42.27807],[-83.678095,42.278072],[-83.678094,42.278074],[-83.678093,42.278076],[-83.678092,42.278078],[-83.67809,42.278079],[-83.678089,42.27808],[-83.678087,42.278081],[-83.678085,42.278081],[-83.678082,42.278081]]]},"properties":{"Label":null,"ObjectName":null,"loc_ObjectNum":null,"Building_Type":null}},{"type":"Feature","geometry":{"type":"Polygon","coordinates":[[[-83.678294,42.277985],[-83.678441,42.277866],[-83.678461,42.277878],[-83.678598,42.277772],[-83.678569,42.277729],[-83.678534,42.277689],[-83.678495,42.277655],[-83.678452,42.277625],[-83.678406,42.277601],[-83.678357,42.277583],[-83.678306,42.277572],[-83.678255,42.277566],[-83.678203,42.277568],[-83.678151,42.277575],[-83.678101,42.277589],[-83.678053,42.277609],[-83.678008,42.277635],[-83.677966,42.277667],[-83.677929,42.277703],[-83.677896,42.277744],[-83.677869,42.277788],[-83.678019,42.277892],[-83.678034,42.27788],[-83.678197,42.277987],[-83.678196,42.277996],[-83.678196,42.278005],[-83.678198,42.278013],[-83.678201,42.278021],[-83.678206,42.278029],[-83.678211,42.278035],[-83.678218,42.278041],[-83.678226,42.278045],[-83.678234,42.278048],[-83.678243,42.278049],[-83.678252,42.278049],[-83.67826,42.278047],[-83.678268,42.278044],[-83.678276,42.278039],[-83.678282,42.278034],[-83.678288,42.278027],[-83.678292,42.278019],[-83.678295,42.278011],[-83.678296,42.278002],[-83.678296,42.277993],[-83.678294,42.277985]],[[-83.678261,42.277693],[-83.678423,42.277806],[-83.678425,42.27786],[-83.678281,42.277975],[-83.678269,42.27797],[-83.678256,42.277967],[-83.678243,42.277967],[-83.67823,42.277969],[-83.678217,42.277972],[-83.678206,42.277978],[-83.678052,42.277871],[-83.678049,42.277816],[-83.678199,42.277694],[-83.678261,42.277693]]]},"properties":{"Label":null,"ObjectName":null,"loc_ObjectNum":null,"Building_Type":null}},{"type":"Feature","geometry":{"type":"Polygon","coordinates":[[[-83.678281,42.277975],[-83.678425,42.27786],[-83.678423,42.277806],[-83.678261,42.277693],[-83.678199,42.277694],[-83.678049,42.277816],[-83.678052,42.277871],[-83.678206,42.277978],[-83.678217,42.277972],[-83.67823,42.277969],[-83.678243,42.277967],[-83.678256,42.277967],[-83.678269,42.27797],[-83.678281,42.277975]],[[-83.678236,42.277811],[-83.678242,42.27781],[-83.678247,42.27781],[-83.678253,42.277811],[-83.678258,42.277813],[-83.678263,42.277815],[-83.678267,42.277818],[-83.678271,42.277823],[-83.678274,42.277827],[-83.678276,42.277832],[-83.678278,42.277837],[-83.678278,42.277843],[-83.678278,42.277848],[-83.678276,42.277854],[-83.678274,42.277859],[-83.678271,42.277863],[-83.678267,42.277867],[-83.678263,42.277871],[-83.678258,42.277873],[-83.678253,42.277875],[-83.678247,42.277876],[-83.678242,42.277876],[-83.678237,42.277876],[-83.678232,42.277877],[-83.678226,42.277877],[-83.67822,42.277877],[-83.678215,42.277875],[-83.67821,42.277873],[-83.678205,42.277869],[-83.678201,42.277865],[-83.678198,42.27786],[-83.678196,42.277855],[-83.678194,42.27785],[-83.678194,42.277844],[-83.678194,42.277839],[-83.678195,42.277833],[-83.678198,42.277828],[-83.678201,42.277823],[-83.678205,42.277819],[-83.678209,42.277815],[-83.678214,42.277813],[-83.67822,42.277811],[-83.678225,42.27781],[-83.678231,42.27781],[-83.678236,42.277811]]]},"properties":{"Label":null,"ObjectName":null,"loc_ObjectNum":null,"Building_Type":null}},{"type":"Feature","geometry":{"type":"Polygon","coordinates":[[[-83.678237,42.277876],[-83.678242,42.277876],[-83.678247,42.277876],[-83.678253,42.277875],[-83.678258,42.277873],[-83.678263,42.277871],[-83.678267,42.277867],[-83.678271,42.277863],[-83.678274,42.277859],[-83.678276,42.277854],[-83.678278,42.277848],[-83.678278,42.277843],[-83.678278,42.277837],[-83.678276,42.277832],[-83.678274,42.277827],[-83.678271,42.277823],[-83.678267,42.277818],[-83.678263,42.277815],[-83.678258,42.277813],[-83.678253,42.277811],[-83.678247,42.27781],[-83.678242,42.27781],[-83.678236,42.277811],[-83.678231,42.27781],[-83.678225,42.27781],[-83.67822,42.277811],[-83.678214,42.277813],[-83.678209,42.277815],[-83.678205,42.277819],[-83.678201,42.277823],[-83.678198,42.277828],[-83.678195,42.277833],[-83.678194,42.277839],[-83.678194,42.277844],[-83.678194,42.27785],[-83.678196,42.277855],[-83.678198,42.27786],[-83.678201,42.277865],[-83.678205,42.277869],[-83.67821,42.277873],[-83.678215,42.277875],[-83.67822,42.277877],[-83.678226,42.277877],[-83.678232,42.277877],[-83.678237,42.277876]]]},"properties":{"Label":null,"ObjectName":null,"loc_ObjectNum":null,"Building_Type":null}},{"type":"Feature","geometry":{"type":"Polygon","coordinates":[[[-83.684847,42.276557],[-83.68509,42.276649],[-83.685122,42.276513],[-83.684853,42.27653],[-83.684847,42.276557]]]},"properties":{"Label":null,"ObjectName":null,"loc_ObjectNum":null,"Building_Type":null}},{"type":"Feature","geometry":{"type":"Polygon","coordinates":[[[-83.685076,42.276699],[-83.684812,42.276702],[-83.684804,42.276728],[-83.685042,42.27684],[-83.685076,42.276699]]]},"properties":{"Label":null,"ObjectName":null,"loc_ObjectNum":null,"Building_Type":null}},{"type":"Feature","geometry":{"type":"Polygon","coordinates":[[[-83.685286,42.276402],[-83.685285,42.276406],[-83.685309,42.276409],[-83.685313,42.276392],[-83.68529,42.276388],[-83.685289,42.276392],[-83.684748,42.276317],[-83.684745,42.276327],[-83.685286,42.276402]]]},"properties":{"Label":null,"ObjectName":null,"loc_ObjectNum":null,"Building_Type":null}},{"type":"Feature","geometry":{"type":"Polygon","coordinates":[[[-83.685335,42.276348],[-83.685333,42.276355],[-83.685426,42.276368],[-83.685433,42.276339],[-83.685339,42.276327],[-83.685338,42.276334],[-83.684699,42.276246],[-83.684701,42.276239],[-83.684607,42.276226],[-83.6846,42.276253],[-83.684694,42.276266],[-83.684696,42.276259],[-83.685335,42.276348]]]},"properties":{"Label":null,"ObjectName":null,"loc_ObjectNum":null,"Building_Type":null}},{"type":"Feature","geometry":{"type":"MultiPolygon","coordinates":[[[[-83.684696,42.2762],[-83.684693,42.276213],[-83.685332,42.276302],[-83.68533,42.276309],[-83.685425,42.276322],[-83.685431,42.276296],[-83.685337,42.276283],[-83.685335,42.276289],[-83.684696,42.2762]]],[[[-83.684698,42.276192],[-83.684604,42.276177],[-83.684595,42.276207],[-83.68469,42.276222],[-83.684696,42.2762],[-83.684698,42.276192]]]]},"properties":{"Label":null,"ObjectName":null,"loc_ObjectNum":null,"Building_Type":null}},{"type":"Feature","geometry":{"type":"Polygon","coordinates":[[[-83.684735,42.276085],[-83.684749,42.276051],[-83.684259,42.27594],[-83.684245,42.275974],[-83.684735,42.276085]]]},"properties":{"Label":null,"ObjectName":null,"loc_ObjectNum":null,"Building_Type":null}},{"type":"Feature","geometry":{"type":"Polygon","coordinates":[[[-83.681757,42.275628],[-83.681772,42.274985],[-83.681219,42.274976],[-83.681204,42.275626],[-83.681757,42.275628]]]},"properties":{"Label":null,"ObjectName":null,"loc_ObjectNum":null,"Building_Type":null}},{"type":"Feature","geometry":{"type":"Polygon","coordinates":[[[-83.681148,42.275479],[-83.681151,42.275352],[-83.68116,42.274976],[-83.680681,42.274968],[-83.680672,42.275475],[-83.681148,42.275479]]]},"properties":{"Label":null,"ObjectName":null,"loc_ObjectNum":null,"Building_Type":null}},{"type":"Feature","geometry":{"type":"Polygon","coordinates":[[[-83.679695,42.277072],[-83.679736,42.276985],[-83.679761,42.27693],[-83.679707,42.276916],[-83.679727,42.276872],[-83.67966,42.276853],[-83.679662,42.276848],[-83.679616,42.276835],[-83.679524,42.277021],[-83.679555,42.27703],[-83.679518,42.277104],[-83.67955,42.277113],[-83.679583,42.277042],[-83.679695,42.277072]]]},"properties":{"Label":null,"ObjectName":null,"loc_ObjectNum":null,"Building_Type":null}},{"type":"Feature","geometry":{"type":"Polygon","coordinates":[[[-83.677446,42.277949],[-83.677504,42.277986],[-83.677508,42.277983],[-83.677564,42.277933],[-83.677574,42.277939],[-83.677574,42.277939],[-83.677657,42.277864],[-83.677541,42.277793],[-83.677629,42.277741],[-83.677597,42.277708],[-83.677495,42.277765],[-83.677446,42.277735],[-83.677363,42.27781],[-83.677378,42.277819],[-83.677325,42.277872],[-83.677324,42.277873],[-83.677401,42.27792],[-83.677446,42.277949]]]},"properties":{"Label":null,"ObjectName":null,"loc_ObjectNum":null,"Building_Type":null}},{"type":"Feature","geometry":{"type":"Polygon","coordinates":[[[-83.678831,42.277711],[-83.678805,42.277743],[-83.678848,42.27776],[-83.678875,42.277731],[-83.678831,42.277711]]]},"properties":{"Label":null,"ObjectName":null,"loc_ObjectNum":null,"Building_Type":null}},{"type":"Feature","geometry":{"type":"Polygon","coordinates":[[[-83.677322,42.277567],[-83.677332,42.277563],[-83.677419,42.27752],[-83.677395,42.277495],[-83.67739,42.27749],[-83.677294,42.277539],[-83.677322,42.277567]]]},"properties":{"Label":null,"ObjectName":null,"loc_ObjectNum":null,"Building_Type":null}},{"type":"Feature","geometry":{"type":"Polygon","coordinates":[[[-83.677323,42.277569],[-83.677343,42.277591],[-83.677402,42.277566],[-83.677378,42.277542],[-83.677323,42.277569]]]},"properties":{"Label":null,"ObjectName":null,"loc_ObjectNum":null,"Building_Type":null}}]}
