{"type":"FeatureCollection","features":[{"type":"Feature","geometry":{"type":"Polygon","coordinates":[[[-83.735915,42.283312],[-83.735903,42.283312],[-83.735809,42.283313],[-83.735804,42.283313],[-83.735757,42.283313],[-83.735561,42.283314],[-83.735521,42.283314],[-83.735427,42.283314],[-83.735407,42.283314],[-83.735378,42.283314],[-83.735265,42.283315],[-83.73523,42.283315],[-83.735045,42.283316],[-83.735017,42.283316],[-83.735011,42.283316],[-83.734839,42.283317],[-83.734799,42.283317],[-83.734799,42.283349],[-83.734845,42.283348],[-83.734945,42.283348],[-83.734949,42.283348],[-83.735046,42.283347],[-83.735234,42.283346],[-83.735269,42.283346],[-83.735378,42.283346],[-83.735407,42.283346],[-83.735427,42.283345],[-83.735428,42.283345],[-83.735505,42.283345],[-83.735524,42.283345],[-83.735528,42.283345],[-83.735567,42.283345],[-83.73576,42.283344],[-83.735806,42.283344],[-83.735811,42.283344],[-83.735814,42.283344],[-83.735818,42.283344],[-83.735838,42.283344],[-83.735944,42.283343],[-83.735944,42.283343],[-83.735944,42.283338],[-83.736003,42.283337],[-83.736002,42.283312],[-83.735915,42.283312]]]},"properties":{"ObjectName":"Ped Bridge - Glen Parking & Taubman Med. Library"}},{"type":"Feature","geometry":{"type":"Polygon","coordinates":[[[-83.73379,42.278704],[-83.732747,42.278863],[-83.732761,42.278912],[-83.733804,42.278751],[-83.73379,42.278704]]]},"properties":{"ObjectName":"Washtenaw Ave Ped Overpass 1"}},{"type":"Feature","geometry":{"type":"Polygon","coordinates":[[[-83.736973,42.283282],[-83.736974,42.283315],[-83.737356,42.283313],[-83.737308,42.28328],[-83.736973,42.283282]]]},"properties":{"ObjectName":"Ped Bridge - Glen Parking & 300 NIB"}},{"type":"Feature","geometry":{"type":"Polygon","coordinates":[[[-83.73344,42.280963],[-83.73336,42.281007],[-83.733337,42.281344],[-83.733383,42.281346],[-83.733405,42.281023],[-83.733754,42.280869],[-83.733723,42.28081],[-83.73344,42.280963]]]},"properties":{"ObjectName":"Washtenaw Ave Ped Overpass 2"}},{"type":"Feature","geometry":{"type":"Polygon","coordinates":[[[-83.735362,42.280221],[-83.735574,42.280331],[-83.735571,42.280334],[-83.735583,42.280341],[-83.735583,42.280333],[-83.735582,42.280325],[-83.735582,42.280324],[-83.735582,42.280323],[-83.735581,42.280276],[-83.73558,42.280251],[-83.73558,42.280231],[-83.735572,42.280231],[-83.735571,42.28021],[-83.735579,42.280209],[-83.735577,42.28015],[-83.735527,42.280151],[-83.735441,42.280152],[-83.735406,42.280153],[-83.735387,42.280154],[-83.735387,42.280193],[-83.735201,42.280196],[-83.735201,42.280211],[-83.735202,42.280223],[-83.73522,42.280223],[-83.735362,42.280221]],[[-83.735559,42.280247],[-83.735547,42.280247],[-83.735441,42.280192],[-83.735434,42.280189],[-83.735406,42.280174],[-83.735406,42.280174],[-83.735406,42.280171],[-83.735406,42.280158],[-83.735441,42.280157],[-83.735527,42.280155],[-83.735558,42.280154],[-83.735558,42.28019],[-83.735559,42.280247]]]},"properties":{"ObjectName":"Palmer Drive Overpass 2 "}},{"type":"Feature","geometry":{"type":"Polygon","coordinates":[[[-83.665347,42.284781],[-83.665354,42.284797],[-83.665493,42.284762],[-83.665485,42.284743],[-83.665484,42.284741],[-83.665345,42.284776],[-83.665347,42.284781],[-83.665347,42.284781]]]},"properties":{"ObjectName":"Radrick Farms Golf Cart Bridge 1"}},{"type":"Feature","geometry":{"type":"Polygon","coordinates":[[[-83.664915,42.287074],[-83.664828,42.287099],[-83.664828,42.287099],[-83.664809,42.287104],[-83.664819,42.287125],[-83.66482,42.287126],[-83.664841,42.28712],[-83.664922,42.287097],[-83.664963,42.287086],[-83.664963,42.287086],[-83.664963,42.287085],[-83.664953,42.287063],[-83.664953,42.287063],[-83.664915,42.287074]]]},"properties":{"ObjectName":"Radrick Farms Golf Cart Bridge 2"}},{"type":"Feature","geometry":{"type":"Polygon","coordinates":[[[-83.664293,42.287461],[-83.664284,42.287487],[-83.664303,42.287491],[-83.664304,42.287492],[-83.664341,42.287501],[-83.664388,42.287513],[-83.664425,42.287522],[-83.664426,42.28752],[-83.664434,42.2875],[-83.664435,42.287498],[-83.664396,42.287488],[-83.664346,42.287474],[-83.664293,42.28746],[-83.664293,42.287461]]]},"properties":{"ObjectName":"Radrick Farms Golf Cart Bridge 3"}},{"type":"Feature","geometry":{"type":"Polygon","coordinates":[[[-83.666391,42.282814],[-83.666391,42.282815],[-83.666471,42.282842],[-83.666472,42.282842],[-83.666473,42.28284],[-83.666489,42.282815],[-83.666407,42.282788],[-83.666391,42.282814]]]},"properties":{"ObjectName":"Radrick Farms Golf Cart Bridge 4"}},{"type":"Feature","geometry":{"type":"Polygon","coordinates":[[[-83.718078,42.289942],[-83.718078,42.289924],[-83.718071,42.289924],[-83.718071,42.289841],[-83.717973,42.289769],[-83.717963,42.289777],[-83.718054,42.289842],[-83.718054,42.289848],[-83.718054,42.289942],[-83.718078,42.289942]]]},"properties":{"ObjectName":"Art and Architecture Pedestrian Walkway"}},{"type":"Feature","geometry":{"type":"Polygon","coordinates":[[[-83.654335,42.279299],[-83.654314,42.2793],[-83.654323,42.279379],[-83.654344,42.279378],[-83.654381,42.279376],[-83.654372,42.279296],[-83.654335,42.279299]]]},"properties":{"ObjectName":"Radrick Farms Covered Bridge "}},{"type":"Feature","geometry":{"type":"Polygon","coordinates":[[[-83.74178,42.263136],[-83.741838,42.26315],[-83.742134,42.263224],[-83.742144,42.263226],[-83.742178,42.263235],[-83.742157,42.263199],[-83.741815,42.263111],[-83.741758,42.263097],[-83.74178,42.263136]]]},"properties":{"ObjectName":null}},{"type":"Feature","geometry":{"type":"Polygon","coordinates":[[[-83.741654,42.262912],[-83.741667,42.262915],[-83.741705,42.262925],[-83.741752,42.262937],[-83.742054,42.263016],[-83.742034,42.262983],[-83.741987,42.262971],[-83.741687,42.262894],[-83.741636,42.262881],[-83.741654,42.262912]]]},"properties":{"ObjectName":null}},{"type":"Feature","geometry":{"type":"Polygon","coordinates":[[[-83.733842,42.280326],[-83.733841,42.280312],[-83.733945,42.28022],[-83.733712,42.280225],[-83.733687,42.280225],[-83.733691,42.280328],[-83.733691,42.280329],[-83.733691,42.280331],[-83.733842,42.280326]]]},"properties":{"ObjectName":"Palmer Drive Overpass 1"}},{"type":"Feature","geometry":{"type":"Polygon","coordinates":[[[-83.735559,42.280247],[-83.735558,42.28019],[-83.735558,42.280154],[-83.735406,42.280158],[-83.735406,42.280174],[-83.735441,42.280192],[-83.735547,42.280247],[-83.735559,42.280247]]]},"properties":{"ObjectName":null}},{"type":"Feature","geometry":{"type":"Polygon","coordinates":[[[-83.736105,42.277356],[-83.73613,42.277363],[-83.736131,42.277363],[-83.736132,42.277363],[-83.736148,42.277367],[-83.73615,42.277368],[-83.736151,42.277367],[-83.736146,42.277308],[-83.736144,42.277308],[-83.736086,42.277309],[-83.736085,42.277309],[-83.736085,42.277352],[-83.736086,42.277352],[-83.73609,42.277353],[-83.736102,42.277356],[-83.736102,42.277356],[-83.736105,42.277356]]]},"properties":{"ObjectName":null}},{"type":"Feature","geometry":{"type":"Polygon","coordinates":[[[-83.71476,42.293717],[-83.71476,42.293576],[-83.714718,42.293576],[-83.714719,42.293717],[-83.71476,42.293717]]]},"properties":{"ObjectName":"G.G. Brown Bridge "}},{"type":"Feature","geometry":{"type":"Polygon","coordinates":[[[-83.701942,42.29617],[-83.701943,42.296212],[-83.701943,42.296212],[-83.701943,42.296222],[-83.701943,42.296237],[-83.701967,42.296237],[-83.701966,42.296169],[-83.701942,42.29617]]]},"properties":{"ObjectName":null}},{"type":"Feature","geometry":{"type":"Polygon","coordinates":[[[-83.702695,42.295708],[-83.702695,42.295915],[-83.70283,42.295916],[-83.702832,42.295709],[-83.702798,42.295708],[-83.702695,42.295708]]]},"properties":{"ObjectName":null}},{"type":"Feature","geometry":{"type":"Polygon","coordinates":[[[-83.702905,42.295929],[-83.702905,42.295927],[-83.702905,42.295924],[-83.702904,42.295922],[-83.702902,42.29592],[-83.702901,42.295918],[-83.702899,42.295917],[-83.702896,42.295915],[-83.702894,42.295915],[-83.702891,42.295914],[-83.702889,42.295914],[-83.70283,42.295916],[-83.702695,42.295915],[-83.702636,42.295914],[-83.702633,42.295914],[-83.702631,42.295914],[-83.702628,42.295915],[-83.702625,42.295916],[-83.702623,42.295918],[-83.702621,42.295919],[-83.702619,42.295922],[-83.702618,42.295924],[-83.702617,42.295927],[-83.702617,42.29593],[-83.702619,42.296093],[-83.702618,42.296121],[-83.702623,42.296125],[-83.702628,42.296128],[-83.702634,42.29613],[-83.702883,42.296128],[-83.702886,42.296128],[-83.70289,42.296128],[-83.702893,42.296127],[-83.702896,42.296126],[-83.702899,42.296124],[-83.702902,42.296121],[-83.702904,42.296119],[-83.702905,42.296087],[-83.702905,42.295929]]]},"properties":{"ObjectName":null}},{"type":"Feature","geometry":{"type":"Polygon","coordinates":[[[-83.736498,42.280475],[-83.736511,42.280475],[-83.736665,42.280429],[-83.736664,42.280375],[-83.73661,42.280391],[-83.736522,42.280394],[-83.736496,42.280394],[-83.736496,42.2804],[-83.73651,42.2804],[-83.73651,42.28045],[-83.736497,42.280449],[-83.736498,42.280475]]]},"properties":{"ObjectName":null}},{"type":"Feature","geometry":{"type":"Polygon","coordinates":[[[-83.744399,42.252382],[-83.744401,42.25242],[-83.744555,42.252414],[-83.744554,42.252381],[-83.744553,42.252376],[-83.744399,42.252382]]]},"properties":{"ObjectName":null}},{"type":"Feature","geometry":{"type":"Polygon","coordinates":[[[-83.744399,42.252382],[-83.744401,42.25242],[-83.744555,42.252414],[-83.744554,42.252381],[-83.744553,42.252376],[-83.744399,42.252382]]]},"properties":{"ObjectName":null}},{"type":"Feature","geometry":{"type":"Polygon","coordinates":[[[-83.709337,42.297353],[-83.709315,42.29733],[-83.709227,42.297371],[-83.709247,42.297394],[-83.709337,42.297353]]]},"properties":{"ObjectName":null}},{"type":"Feature","geometry":{"type":"Polygon","coordinates":[[[-83.660445,42.306812],[-83.660444,42.306784],[-83.660316,42.306787],[-83.660317,42.306815],[-83.660445,42.306812]]]},"properties":{"ObjectName":""}},{"type":"Feature","geometry":{"type":"Polygon","coordinates":[[[-83.662596,42.30121],[-83.662749,42.301195],[-83.662746,42.301178],[-83.662593,42.301193],[-83.662596,42.30121]]]},"properties":{"ObjectName":null}},{"type":"Feature","geometry":{"type":"Polygon","coordinates":[[[-83.659962,42.301081],[-83.659957,42.301069],[-83.659844,42.301096],[-83.65985,42.301108],[-83.659962,42.301081]]]},"properties":{"ObjectName":""}},{"type":"Feature","geometry":{"type":"Polygon","coordinates":[[[-83.654649,42.279026],[-83.654721,42.279081],[-83.654732,42.279073],[-83.65466,42.279018],[-83.654649,42.279026]]]},"properties":{"ObjectName":null}},{"type":"Feature","geometry":{"type":"Polygon","coordinates":[[[-83.665603,42.285489],[-83.665469,42.285535],[-83.665482,42.285556],[-83.665616,42.285511],[-83.665603,42.285489]]]},"properties":{"ObjectName":"Radrick Farms Golf Cart Bridge 4"}},{"type":"Feature","geometry":{"type":"Polygon","coordinates":[[[-83.665946,42.283191],[-83.665905,42.283097],[-83.665887,42.283101],[-83.665928,42.283195],[-83.665946,42.283191]]]},"properties":{"ObjectName":"Utility Bridge"}},{"type":"Feature","geometry":{"type":"MultiPolygon","coordinates":[[[[-83.733965,42.280203],[-83.733841,42.280312],[-83.733843,42.280358],[-83.733848,42.280358],[-83.733846,42.280311],[-83.733966,42.280207],[-83.735101,42.280184],[-83.735102,42.280199],[-83.735102,42.280202],[-83.735196,42.2802],[-83.735197,42.280224],[-83.735197,42.280227],[-83.735359,42.280224],[-83.735571,42.280334],[-83.735574,42.280331],[-83.735362,42.280221],[-83.735202,42.280223],[-83.735201,42.280196],[-83.735196,42.280196],[-83.735106,42.280199],[-83.735105,42.280181],[-83.735101,42.280181],[-83.733965,42.280203]]],[[[-83.733682,42.280225],[-83.733707,42.280818],[-83.733713,42.280815],[-83.733687,42.280225],[-83.733682,42.280225]]]]},"properties":{"ObjectName":null}},{"type":"Feature","geometry":{"type":"Polygon","coordinates":[[[-83.684228,42.27383],[-83.684242,42.273814],[-83.683951,42.273678],[-83.683937,42.273694],[-83.684228,42.27383]]]},"properties":{"ObjectName":"Pedestrian Bridge"}},{"type":"Feature","geometry":{"type":"Polygon","coordinates":[[[-83.745009,42.269954],[-83.745008,42.269906],[-83.745006,42.26985],[-83.745017,42.269849],[-83.745017,42.269853],[-83.745075,42.269853],[-83.745075,42.269849],[-83.745141,42.269848],[-83.745141,42.269835],[-83.745091,42.269836],[-83.745075,42.269836],[-83.745075,42.269832],[-83.745017,42.269832],[-83.745017,42.269836],[-83.745005,42.269836],[-83.745004,42.269768],[-83.745005,42.26974],[-83.744957,42.26974],[-83.744958,42.269787],[-83.744958,42.269806],[-83.744959,42.269837],[-83.744948,42.269837],[-83.744948,42.269833],[-83.744921,42.269833],[-83.744889,42.269833],[-83.744889,42.269833],[-83.744889,42.269837],[-83.744823,42.269838],[-83.744823,42.269851],[-83.74489,42.269851],[-83.74489,42.269854],[-83.744948,42.269854],[-83.744948,42.26985],[-83.744948,42.26985],[-83.744959,42.26985],[-83.744962,42.269994],[-83.744962,42.269995],[-83.744966,42.269995],[-83.745007,42.269994],[-83.745009,42.269994],[-83.745009,42.269993],[-83.745009,42.269954]]]},"properties":{"ObjectName":null}}]}
