{"type":"FeatureCollection","features":[{"type":"Feature","geometry":{"type":"Polygon","coordinates":[[[-83.748296,42.266301],[-83.748302,42.266336],[-83.748308,42.266347],[-83.748315,42.266359],[-83.74832,42.266369],[-83.74835,42.266398],[-83.748388,42.26642],[-83.748402,42.266424],[-83.748419,42.266429],[-83.748432,42.266434],[-83.74848,42.266438],[-83.748549,42.266438],[-83.748568,42.266438],[-83.748706,42.266439],[-83.748725,42.266439],[-83.748863,42.266439],[-83.748882,42.266439],[-83.748951,42.266439],[-83.748999,42.266434],[-83.749005,42.266433],[-83.749013,42.26643],[-83.74903,42.266425],[-83.749044,42.266421],[-83.749082,42.266399],[-83.749111,42.266371],[-83.749117,42.266361],[-83.749124,42.266348],[-83.74913,42.266338],[-83.749136,42.266302],[-83.749137,42.266095],[-83.749122,42.266095],[-83.749122,42.26608],[-83.749122,42.266043],[-83.74913,42.266042],[-83.749134,42.266042],[-83.749134,42.266042],[-83.749137,42.266042],[-83.749137,42.26592],[-83.749122,42.26592],[-83.749122,42.265905],[-83.749123,42.265868],[-83.74913,42.265868],[-83.749136,42.265868],[-83.749136,42.265867],[-83.749138,42.265867],[-83.749138,42.265745],[-83.749123,42.265745],[-83.749123,42.26573],[-83.749123,42.265693],[-83.749131,42.265693],[-83.749138,42.265693],[-83.749138,42.265692],[-83.749138,42.265692],[-83.749138,42.265668],[-83.749138,42.265654],[-83.749138,42.265551],[-83.749139,42.265537],[-83.749139,42.265486],[-83.749132,42.26545],[-83.749127,42.26544],[-83.74912,42.265427],[-83.749114,42.265417],[-83.749085,42.265389],[-83.749047,42.265367],[-83.749033,42.265363],[-83.749016,42.265357],[-83.749002,42.265353],[-83.748954,42.265348],[-83.748886,42.265348],[-83.748866,42.265348],[-83.748729,42.265348],[-83.748709,42.265348],[-83.748571,42.265348],[-83.748553,42.265348],[-83.748483,42.265348],[-83.74844,42.265352],[-83.748435,42.265352],[-83.748422,42.265356],[-83.748405,42.265362],[-83.748391,42.265366],[-83.748353,42.265388],[-83.748323,42.265416],[-83.748317,42.265426],[-83.74831,42.265439],[-83.748305,42.265449],[-83.748298,42.265484],[-83.748298,42.265536],[-83.748298,42.26555],[-83.748298,42.265653],[-83.748298,42.265666],[-83.748297,42.265769],[-83.748297,42.265783],[-83.748297,42.265871],[-83.748297,42.265915],[-83.748296,42.266301]]]},"properties":{"Label":null,"ObjectName":null,"loc_ObjectNum":"7002028"}},{"type":"Feature","geometry":{"type":"Polygon","coordinates":[[[-83.738207,42.276971],[-83.738225,42.276956],[-83.738236,42.276956],[-83.738236,42.276948],[-83.738254,42.276934],[-83.738235,42.276921],[-83.738235,42.276912],[-83.738224,42.276912],[-83.738205,42.276899],[-83.738188,42.276913],[-83.738176,42.276913],[-83.738176,42.276922],[-83.738158,42.276936],[-83.738176,42.276949],[-83.738177,42.276957],[-83.738188,42.276957],[-83.738207,42.276971]],[[-83.738199,42.276939],[-83.738199,42.276931],[-83.738199,42.27693],[-83.738201,42.27693],[-83.738201,42.276937],[-83.738206,42.276932],[-83.738211,42.276937],[-83.738211,42.27693],[-83.738213,42.27693],[-83.738214,42.27693],[-83.738213,42.276931],[-83.738213,42.276939],[-83.738214,42.276939],[-83.738211,42.276939],[-83.738206,42.276934],[-83.738202,42.276939],[-83.738198,42.276939],[-83.738199,42.276939]]]},"properties":{"Label":null,"ObjectName":null,"loc_ObjectNum":"7008247"}},{"type":"Feature","geometry":{"type":"Polygon","coordinates":[[[-83.738199,42.276939],[-83.738198,42.276939],[-83.738202,42.276939],[-83.738206,42.276934],[-83.738211,42.276939],[-83.738214,42.276939],[-83.738213,42.276939],[-83.738213,42.276931],[-83.738214,42.27693],[-83.738213,42.27693],[-83.738211,42.27693],[-83.738211,42.276937],[-83.738206,42.276932],[-83.738201,42.276937],[-83.738201,42.27693],[-83.738199,42.27693],[-83.738199,42.276931],[-83.738199,42.276939]]]},"properties":{"Label":null,"ObjectName":null,"loc_ObjectNum":"7008256"}},{"type":"Feature","geometry":{"type":"Polygon","coordinates":[[[-83.714229,42.291431],[-83.714355,42.291431],[-83.714355,42.291404],[-83.714391,42.291404],[-83.71439,42.290804],[-83.714354,42.290804],[-83.714354,42.290777],[-83.714229,42.290777],[-83.714228,42.290805],[-83.714192,42.290804],[-83.714192,42.291404],[-83.714229,42.291404],[-83.714229,42.291431]]]},"properties":{"Label":null,"ObjectName":"Lurie Reflecting Pool","loc_ObjectNum":"3009976"}},{"type":"Feature","geometry":{"type":"Polygon","coordinates":[[[-83.738214,42.279259],[-83.738216,42.279341],[-83.738289,42.279341],[-83.738288,42.279258],[-83.738214,42.279259]]]},"properties":{"Label":null,"ObjectName":"Cooley Thos S Memorial Fountain","loc_ObjectNum":"3000160"}},{"type":"Feature","geometry":{"type":"Polygon","coordinates":[[[-83.711811,42.293159],[-83.711811,42.293147],[-83.711796,42.293127],[-83.711779,42.29311],[-83.711759,42.293096],[-83.711737,42.293086],[-83.711714,42.293079],[-83.71169,42.293075],[-83.711665,42.293076],[-83.711642,42.29308],[-83.711571,42.293095],[-83.711553,42.293104],[-83.711536,42.293116],[-83.711521,42.293131],[-83.711508,42.293147],[-83.711498,42.293165],[-83.711491,42.293185],[-83.711487,42.293264],[-83.711488,42.293277],[-83.711491,42.293288],[-83.711497,42.2933],[-83.711504,42.29331],[-83.711512,42.293319],[-83.711522,42.293326],[-83.711533,42.293332],[-83.711545,42.293336],[-83.711557,42.293337],[-83.711695,42.293348],[-83.711714,42.293351],[-83.711732,42.293351],[-83.711751,42.293348],[-83.711769,42.293342],[-83.711786,42.293333],[-83.711801,42.293322],[-83.711814,42.293309],[-83.711811,42.293159]]]},"properties":{"Label":null,"ObjectName":null,"loc_ObjectNum":"7013053"}}]}
