{"type":"FeatureCollection","features":[{"type":"Feature","geometry":{"type":"LineString","coordinates":[[-83.784552,42.315597],[-83.784533,42.315674],[-83.783681,42.315724],[-83.78372,42.315642],[-83.784552,42.315597]]},"properties":{"created_user":"GISPORTALADMIN"}},{"type":"Feature","geometry":{"type":"LineString","coordinates":[[-83.75501,42.308017],[-83.754667,42.307777],[-83.754595,42.307829],[-83.754939,42.308067],[-83.75501,42.308017]]},"properties":{"created_user":"GISPORTALADMIN"}},{"type":"Feature","geometry":{"type":"LineString","coordinates":[[-83.74761,42.302904],[-83.747944,42.303135],[-83.747885,42.303189],[-83.747542,42.302955],[-83.74761,42.302904]]},"properties":{"created_user":"GISPORTALADMIN"}},{"type":"Feature","geometry":{"type":"LineString","coordinates":[[-83.74696,42.290355],[-83.747128,42.290272]]},"properties":{"created_user":"GISPORTALADMIN"}},{"type":"Feature","geometry":{"type":"LineString","coordinates":[[-83.747136,42.290221],[-83.746957,42.290317]]},"properties":{"created_user":"GISPORTALADMIN"}},{"type":"Feature","geometry":{"type":"LineString","coordinates":[[-83.747128,42.290272],[-83.747186,42.290242],[-83.747183,42.290195],[-83.747136,42.290221]]},"properties":{"created_user":"GISPORTALADMIN"}},{"type":"Feature","geometry":{"type":"LineString","coordinates":[[-83.750907,42.286371],[-83.750872,42.286433],[-83.750829,42.286419],[-83.750855,42.286372]]},"properties":{"created_user":"GISPORTALADMIN"}},{"type":"Feature","geometry":{"type":"LineString","coordinates":[[-83.750855,42.286372],[-83.750906,42.286281]]},"properties":{"created_user":"GISPORTALADMIN"}},{"type":"Feature","geometry":{"type":"LineString","coordinates":[[-83.750958,42.28628],[-83.750907,42.286371]]},"properties":{"created_user":"GISPORTALADMIN"}},{"type":"Feature","geometry":{"type":"LineString","coordinates":[[-83.750906,42.286281],[-83.750944,42.286216],[-83.750987,42.286229],[-83.750958,42.28628]]},"properties":{"created_user":"GISPORTALADMIN"}},{"type":"Feature","geometry":{"type":"LineString","coordinates":[[-83.751955,42.28363],[-83.751936,42.28369],[-83.751982,42.283698],[-83.751998,42.283647]]},"properties":{"created_user":"GISPORTALADMIN"}},{"type":"Feature","geometry":{"type":"LineString","coordinates":[[-83.751998,42.283647],[-83.752025,42.283566]]},"properties":{"created_user":"GISPORTALADMIN"}},{"type":"Feature","geometry":{"type":"LineString","coordinates":[[-83.751982,42.283549],[-83.751955,42.28363]]},"properties":{"created_user":"GISPORTALADMIN"}},{"type":"Feature","geometry":{"type":"LineString","coordinates":[[-83.752025,42.283566],[-83.752047,42.283496],[-83.752001,42.283488],[-83.751982,42.283549]]},"properties":{"created_user":"GISPORTALADMIN"}},{"type":"Feature","geometry":{"type":"LineString","coordinates":[[-83.752162,42.281406],[-83.752114,42.281411],[-83.752158,42.281659],[-83.752207,42.281655],[-83.752162,42.281406]]},"properties":{"created_user":"GISPORTALADMIN"}},{"type":"Feature","geometry":{"type":"LineString","coordinates":[[-83.751879,42.280482],[-83.751831,42.280491],[-83.751905,42.280699],[-83.751953,42.28069],[-83.751879,42.280482]]},"properties":{"created_user":"GISPORTALADMIN"}},{"type":"Feature","geometry":{"type":"LineString","coordinates":[[-83.66863,42.270443],[-83.668126,42.270505],[-83.668208,42.270574],[-83.668695,42.270514],[-83.66863,42.270443]]},"properties":{"created_user":"GISPORTALADMIN"}},{"type":"Feature","geometry":{"type":"LineString","coordinates":[[-83.746199,42.294145],[-83.746141,42.294329],[-83.745953,42.294917],[-83.745902,42.295095],[-83.745838,42.29532],[-83.74574,42.295626]]},"properties":{"created_user":"GISPORTALADMIN"}},{"type":"Feature","geometry":{"type":"LineString","coordinates":[[-83.746211,42.294067],[-83.746207,42.294093],[-83.746199,42.294145]]},"properties":{"created_user":"GISPORTALADMIN"}},{"type":"Feature","geometry":{"type":"LineString","coordinates":[[-83.745059,42.29955],[-83.745046,42.29949],[-83.745034,42.29943],[-83.745024,42.299371],[-83.745014,42.299311],[-83.745005,42.299251],[-83.744997,42.299191],[-83.744988,42.299124],[-83.74498,42.299057],[-83.744974,42.298989],[-83.744968,42.298922],[-83.744964,42.298854],[-83.74496,42.298787],[-83.744958,42.298719],[-83.744958,42.298651],[-83.744958,42.298584],[-83.74496,42.298516],[-83.744963,42.298449],[-83.744967,42.298381],[-83.744972,42.298314],[-83.744979,42.298246],[-83.74499,42.298149],[-83.745003,42.298051],[-83.745018,42.297954],[-83.745034,42.297857],[-83.745053,42.29776],[-83.745074,42.297664],[-83.745096,42.297568],[-83.745121,42.297471],[-83.745147,42.297376],[-83.745175,42.29728],[-83.745315,42.296794],[-83.745442,42.296333],[-83.745584,42.29585],[-83.745701,42.295435],[-83.745786,42.295168],[-83.745895,42.29477],[-83.746012,42.294361],[-83.746098,42.294067]]},"properties":{"created_user":"GISPORTALADMIN"}},{"type":"Feature","geometry":{"type":"LineString","coordinates":[[-83.746098,42.294067],[-83.74615,42.293889],[-83.746315,42.293331],[-83.746443,42.292894],[-83.746533,42.292593],[-83.74656,42.292504],[-83.746585,42.292414],[-83.746608,42.292324],[-83.74663,42.292234],[-83.74665,42.292143],[-83.746668,42.292052],[-83.746684,42.291961],[-83.746699,42.29187],[-83.746706,42.291815],[-83.746712,42.291759],[-83.746717,42.291703],[-83.746722,42.291647],[-83.746725,42.291591],[-83.746726,42.291534],[-83.746727,42.291478],[-83.746727,42.291422],[-83.746726,42.291366],[-83.746723,42.29131],[-83.74672,42.291254],[-83.746715,42.291198],[-83.746711,42.291149],[-83.746705,42.291101],[-83.746698,42.291052],[-83.746691,42.291003],[-83.746683,42.290955],[-83.746673,42.290906],[-83.746663,42.290858],[-83.746652,42.29081],[-83.746639,42.290761],[-83.746626,42.290714],[-83.746612,42.290666],[-83.746597,42.290618],[-83.74658,42.290571],[-83.746563,42.290523]]},"properties":{"created_user":"GISPORTALADMIN"}},{"type":"Feature","geometry":{"type":"LineString","coordinates":[[-83.746202,42.294135],[-83.746339,42.29367],[-83.746446,42.293287],[-83.746527,42.293023],[-83.746649,42.292621],[-83.746739,42.292317],[-83.746821,42.292022]]},"properties":{"created_user":"GISPORTALADMIN"}},{"type":"Feature","geometry":{"type":"LineString","coordinates":[[-83.744772,42.290961],[-83.744694,42.290969],[-83.744617,42.290976],[-83.74454,42.290982],[-83.744462,42.290987],[-83.744385,42.290992],[-83.744307,42.290996],[-83.744229,42.290998],[-83.744151,42.291001],[-83.744073,42.291002],[-83.743995,42.291002],[-83.743918,42.291002],[-83.74384,42.291001],[-83.743762,42.290999],[-83.743684,42.290996],[-83.743278,42.290973]]},"properties":{"created_user":"GISPORTALADMIN"}},{"type":"Feature","geometry":{"type":"LineString","coordinates":[[-83.743278,42.290973],[-83.743039,42.290959],[-83.742607,42.290929],[-83.74245,42.290918],[-83.742293,42.290908],[-83.742135,42.290899],[-83.741978,42.290892],[-83.74182,42.290885],[-83.741663,42.29088],[-83.741566,42.290878],[-83.741468,42.290877],[-83.741371,42.290877],[-83.741274,42.290877],[-83.741177,42.290879],[-83.74108,42.290882],[-83.740983,42.290885],[-83.740886,42.29089],[-83.740789,42.290896],[-83.740692,42.290902],[-83.740641,42.290906],[-83.740591,42.290911],[-83.740541,42.290915],[-83.740491,42.290921],[-83.740441,42.290927],[-83.74039,42.290933],[-83.740341,42.29094],[-83.740291,42.290947],[-83.740241,42.290954],[-83.740192,42.290963],[-83.740094,42.290981],[-83.739996,42.291],[-83.739947,42.29101],[-83.739898,42.291021],[-83.73985,42.291032],[-83.739801,42.291043],[-83.739753,42.291055],[-83.739705,42.291067],[-83.739658,42.29108],[-83.73961,42.291094],[-83.739563,42.291108],[-83.739516,42.291122],[-83.739494,42.291128],[-83.739472,42.291134],[-83.73945,42.291141],[-83.739428,42.291148],[-83.739407,42.291154],[-83.739385,42.291161],[-83.739363,42.291169],[-83.739342,42.291176],[-83.739321,42.291183],[-83.739299,42.291191],[-83.739263,42.291204],[-83.739227,42.291217],[-83.739191,42.29123],[-83.739156,42.291243],[-83.73912,42.291257],[-83.739085,42.291271],[-83.73903,42.291293],[-83.738976,42.291316],[-83.738923,42.291339],[-83.738869,42.291363],[-83.738816,42.291388],[-83.738764,42.291413],[-83.738712,42.291438],[-83.738661,42.291464],[-83.73861,42.291491],[-83.738559,42.291518],[-83.738509,42.291545],[-83.738459,42.291573],[-83.73841,42.291602],[-83.738362,42.29163],[-83.738314,42.29166],[-83.738266,42.29169],[-83.738219,42.29172],[-83.738173,42.291751],[-83.738048,42.29183],[-83.737924,42.291909],[-83.737799,42.291987],[-83.737673,42.292065],[-83.737237,42.29234],[-83.736758,42.292639],[-83.736338,42.292903],[-83.735865,42.2932],[-83.735429,42.29348],[-83.73506,42.29371],[-83.734708,42.293935],[-83.734599,42.294003]]},"properties":{"created_user":"GISPORTALADMIN"}},{"type":"Feature","geometry":{"type":"LineString","coordinates":[[-83.746555,42.290499],[-83.746537,42.290452],[-83.746517,42.290404],[-83.746497,42.290357],[-83.746476,42.29031],[-83.746454,42.290264],[-83.746431,42.290217],[-83.746407,42.290171],[-83.746382,42.290125],[-83.746357,42.29008],[-83.74633,42.290034],[-83.746302,42.289989],[-83.746274,42.289945],[-83.746245,42.2899],[-83.746215,42.289856],[-83.746184,42.289814],[-83.746154,42.289772],[-83.746122,42.28973],[-83.746089,42.289689],[-83.746056,42.289647],[-83.746022,42.289607],[-83.745987,42.289566],[-83.745952,42.289526],[-83.745916,42.289486],[-83.745879,42.289447],[-83.745841,42.289408],[-83.745802,42.28937],[-83.745763,42.289331],[-83.745724,42.289294],[-83.745683,42.289256],[-83.745642,42.289219],[-83.745601,42.289183],[-83.745559,42.289147],[-83.745517,42.289112],[-83.745474,42.289077],[-83.74543,42.289042],[-83.745386,42.289008],[-83.745341,42.288975],[-83.745295,42.288942],[-83.745249,42.288909],[-83.745202,42.288877],[-83.745155,42.288845],[-83.745107,42.288814],[-83.745059,42.288783],[-83.745009,42.288753],[-83.74496,42.288723],[-83.74491,42.288694],[-83.744859,42.288665],[-83.744808,42.288637],[-83.744756,42.288609],[-83.744704,42.288582],[-83.744682,42.288571]]},"properties":{"created_user":"GISPORTALADMIN"}},{"type":"Feature","geometry":{"type":"LineString","coordinates":[[-83.746073,42.301578],[-83.745997,42.301486],[-83.745913,42.301376],[-83.745817,42.301241],[-83.745734,42.301119],[-83.745659,42.301007],[-83.745596,42.300897],[-83.745519,42.300765],[-83.745441,42.300616],[-83.7454,42.300536],[-83.745347,42.300429],[-83.745295,42.300306],[-83.745243,42.300175],[-83.745215,42.300098],[-83.745188,42.30002],[-83.745163,42.299943],[-83.745139,42.299864],[-83.745116,42.299786],[-83.745096,42.299707],[-83.745077,42.299628],[-83.745059,42.29955]]},"properties":{"created_user":"GISPORTALADMIN"}},{"type":"Feature","geometry":{"type":"LineString","coordinates":[[-83.747593,42.302917],[-83.747154,42.302596],[-83.747036,42.302506],[-83.74688,42.302382],[-83.746758,42.302279],[-83.746656,42.302188],[-83.746531,42.302074],[-83.746396,42.301937],[-83.746306,42.301845],[-83.746269,42.301806]]},"properties":{"created_user":"GISPORTALADMIN"}},{"type":"Feature","geometry":{"type":"LineString","coordinates":[[-83.748593,42.303611],[-83.748106,42.30327],[-83.747927,42.303151]]},"properties":{"created_user":"GISPORTALADMIN"}},{"type":"Feature","geometry":{"type":"LineString","coordinates":[[-83.750709,42.305069],[-83.750483,42.304911],[-83.749666,42.304351],[-83.748943,42.303851],[-83.748606,42.303617]]},"properties":{"created_user":"GISPORTALADMIN"}},{"type":"Feature","geometry":{"type":"LineString","coordinates":[[-83.754204,42.307477],[-83.753608,42.307068],[-83.752699,42.306443],[-83.751988,42.305951],[-83.751259,42.305451],[-83.750709,42.305069]]},"properties":{"created_user":"GISPORTALADMIN"}},{"type":"Feature","geometry":{"type":"LineString","coordinates":[[-83.754649,42.30779],[-83.754554,42.307723],[-83.754459,42.307657],[-83.754364,42.30759],[-83.75427,42.307522],[-83.754204,42.307477]]},"properties":{"created_user":"GISPORTALADMIN"}},{"type":"Feature","geometry":{"type":"LineString","coordinates":[[-83.758721,42.3106],[-83.758491,42.310441],[-83.757975,42.310085],[-83.757466,42.309734],[-83.756802,42.309277],[-83.756176,42.308844],[-83.755601,42.308446],[-83.755026,42.308049],[-83.754995,42.308027]]},"properties":{"created_user":"GISPORTALADMIN"}},{"type":"Feature","geometry":{"type":"LineString","coordinates":[[-83.765222,42.315024],[-83.764909,42.314843],[-83.764512,42.314591],[-83.764091,42.314303],[-83.763689,42.314028],[-83.763485,42.31389],[-83.76292,42.313501],[-83.762568,42.313257],[-83.761991,42.312858],[-83.761235,42.312337],[-83.760588,42.31189],[-83.760139,42.311581],[-83.759737,42.311303],[-83.75935,42.311035],[-83.759036,42.310819],[-83.758721,42.3106]]},"properties":{"created_user":"GISPORTALADMIN"}},{"type":"Feature","geometry":{"type":"LineString","coordinates":[[-83.767922,42.316138],[-83.767889,42.316129],[-83.767596,42.316041],[-83.767294,42.315944],[-83.766871,42.315793],[-83.76661,42.315695],[-83.766319,42.315572],[-83.765912,42.315384],[-83.765662,42.315261],[-83.76532,42.315081],[-83.765222,42.315024]]},"properties":{"created_user":"GISPORTALADMIN"}},{"type":"Feature","geometry":{"type":"LineString","coordinates":[[-83.7763,42.316559],[-83.775965,42.316586],[-83.775512,42.316619],[-83.775179,42.316639],[-83.774858,42.316657],[-83.774539,42.316669],[-83.774217,42.316681],[-83.773904,42.31669],[-83.773619,42.316694],[-83.773349,42.316698],[-83.772901,42.316699],[-83.772454,42.316696],[-83.771978,42.316688],[-83.771438,42.31667],[-83.771051,42.316653],[-83.770731,42.316632],[-83.770478,42.316612],[-83.770221,42.316586],[-83.769918,42.316549],[-83.769605,42.316503],[-83.769295,42.316452],[-83.768892,42.316373],[-83.768511,42.316291],[-83.768223,42.31622],[-83.767922,42.316138]]},"properties":{"created_user":"GISPORTALADMIN"}},{"type":"Feature","geometry":{"type":"LineString","coordinates":[[-83.779085,42.316196],[-83.778763,42.31625],[-83.778253,42.316329],[-83.777803,42.316392],[-83.777433,42.31644],[-83.777297,42.316456],[-83.77676,42.316516],[-83.77638,42.316552],[-83.7763,42.316559]]},"properties":{"created_user":"GISPORTALADMIN"}},{"type":"Feature","geometry":{"type":"LineString","coordinates":[[-83.734599,42.294003],[-83.733891,42.294447],[-83.7333,42.294819],[-83.732476,42.295341],[-83.732143,42.295552]]},"properties":{"created_user":"GISPORTALADMIN"}},{"type":"Feature","geometry":{"type":"LineString","coordinates":[[-83.732143,42.295552],[-83.731631,42.295877],[-83.731055,42.296238],[-83.730824,42.296385],[-83.730706,42.296461],[-83.730645,42.296499],[-83.730474,42.296605],[-83.729968,42.296924],[-83.729467,42.297237],[-83.729106,42.297465],[-83.728711,42.297723],[-83.728326,42.297973],[-83.727921,42.298272],[-83.727538,42.298559],[-83.727234,42.298797],[-83.726953,42.299029],[-83.726533,42.299388],[-83.72647,42.299446]]},"properties":{"created_user":"GISPORTALADMIN"}},{"type":"Feature","geometry":{"type":"LineString","coordinates":[[-83.721753,42.304908],[-83.721834,42.30478],[-83.721964,42.30458],[-83.722164,42.304306],[-83.722331,42.304086],[-83.722524,42.303846],[-83.722751,42.303564],[-83.722964,42.303305],[-83.72315,42.303081],[-83.723363,42.302828],[-83.723615,42.302529],[-83.723819,42.302285],[-83.724088,42.30197],[-83.724472,42.301532],[-83.724632,42.301345],[-83.724864,42.301076],[-83.724949,42.300983],[-83.725172,42.300734],[-83.725421,42.300465],[-83.725832,42.300046],[-83.72616,42.299733],[-83.72647,42.299446]]},"properties":{"created_user":"GISPORTALADMIN"}},{"type":"Feature","geometry":{"type":"LineString","coordinates":[[-83.720502,42.310389],[-83.720484,42.310219],[-83.720465,42.310054],[-83.720448,42.309837],[-83.72044,42.309673],[-83.720442,42.309453],[-83.720437,42.309192],[-83.720445,42.308994],[-83.720459,42.308772],[-83.720473,42.308575],[-83.720495,42.30837],[-83.720514,42.308216],[-83.720545,42.308029],[-83.720584,42.307815],[-83.720624,42.307619],[-83.720674,42.307404],[-83.720724,42.307212],[-83.72078,42.307008],[-83.720826,42.306862],[-83.720887,42.306678],[-83.720941,42.306533]]},"properties":{"created_user":"GISPORTALADMIN"}},{"type":"Feature","geometry":{"type":"LineString","coordinates":[[-83.720941,42.306533],[-83.720951,42.306504],[-83.721006,42.306372],[-83.721089,42.306167],[-83.721218,42.305883],[-83.72133,42.305655],[-83.72139,42.305541],[-83.721503,42.305329],[-83.721666,42.305048],[-83.721753,42.304908]]},"properties":{"created_user":"GISPORTALADMIN"}},{"type":"Feature","geometry":{"type":"LineString","coordinates":[[-83.720885,42.311948],[-83.720848,42.31184],[-83.720778,42.311627],[-83.720719,42.311427],[-83.720666,42.311233],[-83.720628,42.311087],[-83.720592,42.310929],[-83.720567,42.310796],[-83.720528,42.310572],[-83.720509,42.310447],[-83.720502,42.310389]]},"properties":{"created_user":"GISPORTALADMIN"}},{"type":"Feature","geometry":{"type":"LineString","coordinates":[[-83.723552,42.315895],[-83.723478,42.315828],[-83.7233,42.315655],[-83.723094,42.315447],[-83.722855,42.315194],[-83.722728,42.315053],[-83.722635,42.314946],[-83.722412,42.314678],[-83.722252,42.314475],[-83.722117,42.314299],[-83.721984,42.314108],[-83.721892,42.31397],[-83.721751,42.313753],[-83.721637,42.313562],[-83.721521,42.313368],[-83.721431,42.313201],[-83.721335,42.313008],[-83.721224,42.312781],[-83.721098,42.312509],[-83.721024,42.31233],[-83.720932,42.312088],[-83.720885,42.311948]]},"properties":{"created_user":"GISPORTALADMIN"}},{"type":"Feature","geometry":{"type":"LineString","coordinates":[[-83.730434,42.321422],[-83.729996,42.321065],[-83.72986,42.320967],[-83.729278,42.320504],[-83.728801,42.320124],[-83.728312,42.319742],[-83.727885,42.319396],[-83.727369,42.318982],[-83.726958,42.318658],[-83.726466,42.318261],[-83.726079,42.317962],[-83.725826,42.317754],[-83.725557,42.317539],[-83.725115,42.317185],[-83.724781,42.316922],[-83.724551,42.316736],[-83.724485,42.316679],[-83.724398,42.316615],[-83.724149,42.316414],[-83.723902,42.316205],[-83.723667,42.315999],[-83.723552,42.315895]]},"properties":{"created_user":"GISPORTALADMIN"}},{"type":"Feature","geometry":{"type":"LineString","coordinates":[[-83.731869,42.322576],[-83.731777,42.322499],[-83.731685,42.322423],[-83.731592,42.322347],[-83.731498,42.322271],[-83.731239,42.322062],[-83.731131,42.321978],[-83.730991,42.321868],[-83.73045,42.321435],[-83.730434,42.321422]]},"properties":{"created_user":"GISPORTALADMIN"}},{"type":"Feature","geometry":{"type":"LineString","coordinates":[[-83.731869,42.322576],[-83.731966,42.322659],[-83.732081,42.322757],[-83.732198,42.322863],[-83.732313,42.322969],[-83.732426,42.323076],[-83.732537,42.323185],[-83.732646,42.323295],[-83.732754,42.323405],[-83.732873,42.323532],[-83.732989,42.32366],[-83.733103,42.323789],[-83.733216,42.323919],[-83.733325,42.324051],[-83.733433,42.324183],[-83.73353,42.324309],[-83.733625,42.324437],[-83.733718,42.324565],[-83.733809,42.324694],[-83.733898,42.324824],[-83.733985,42.324954],[-83.734058,42.325069],[-83.734129,42.325184],[-83.734199,42.3253],[-83.734267,42.325416],[-83.734333,42.325533],[-83.734396,42.325651],[-83.734464,42.325783],[-83.734506,42.325869]]},"properties":{"created_user":"GISPORTALADMIN"}},{"type":"Feature","geometry":{"type":"LineString","coordinates":[[-83.744682,42.288571],[-83.744592,42.288525],[-83.7445,42.28848],[-83.744408,42.288436],[-83.744315,42.288393],[-83.744222,42.288351],[-83.744127,42.288309],[-83.744032,42.288268],[-83.743936,42.288229],[-83.74384,42.28819],[-83.743743,42.288152],[-83.743645,42.288115],[-83.743547,42.288079],[-83.743307,42.287986]]},"properties":{"created_user":"GISPORTALADMIN"}},{"type":"Feature","geometry":{"type":"LineString","coordinates":[[-83.743307,42.287986],[-83.74265,42.287729],[-83.742339,42.28761]]},"properties":{"created_user":"GISPORTALADMIN"}},{"type":"Feature","geometry":{"type":"LineString","coordinates":[[-83.699105,42.274139],[-83.699071,42.274131],[-83.698763,42.274058],[-83.698692,42.27404]]},"properties":{"created_user":"GISPORTALADMIN"}},{"type":"Feature","geometry":{"type":"LineString","coordinates":[[-83.698446,42.273986],[-83.698404,42.273977],[-83.69811,42.273909],[-83.697639,42.273799],[-83.69728,42.27371],[-83.696967,42.273644],[-83.696505,42.27354],[-83.696019,42.273425],[-83.695633,42.27333],[-83.695401,42.273274],[-83.695157,42.273206],[-83.694947,42.273149],[-83.694741,42.273088],[-83.694475,42.272998],[-83.694194,42.27289],[-83.693925,42.272783],[-83.693637,42.272649],[-83.693223,42.272461],[-83.692835,42.272276],[-83.692395,42.272066],[-83.691918,42.271839],[-83.691842,42.271803]]},"properties":{"created_user":"GISPORTALADMIN"}},{"type":"Feature","geometry":{"type":"LineString","coordinates":[[-83.688064,42.270013],[-83.68795,42.269958],[-83.68754,42.269764],[-83.687214,42.269619],[-83.686961,42.269503],[-83.686682,42.26939],[-83.686505,42.269318],[-83.686198,42.269205],[-83.685953,42.269122],[-83.685512,42.268983],[-83.685155,42.268887],[-83.684808,42.268812],[-83.684469,42.268743],[-83.684339,42.268719],[-83.684208,42.268696],[-83.684077,42.268674],[-83.683945,42.268654],[-83.683813,42.268635],[-83.683681,42.268617],[-83.683549,42.2686],[-83.683416,42.268585],[-83.683283,42.268571],[-83.68315,42.268559],[-83.682978,42.268545],[-83.682806,42.268534],[-83.682634,42.268524],[-83.682461,42.268516],[-83.682289,42.26851],[-83.682116,42.268506],[-83.681977,42.268505],[-83.681839,42.268505],[-83.6817,42.268507],[-83.681561,42.26851],[-83.681422,42.268515],[-83.681284,42.268521],[-83.681145,42.268528],[-83.681007,42.268537],[-83.680879,42.268547],[-83.68075,42.268558],[-83.680622,42.26857],[-83.680494,42.268584],[-83.680366,42.268598],[-83.680239,42.268613],[-83.680112,42.26863],[-83.679985,42.268648],[-83.679753,42.268684],[-83.679523,42.268723],[-83.679293,42.268764],[-83.679063,42.268808],[-83.678948,42.268828],[-83.678906,42.268836],[-83.678323,42.268955],[-83.677466,42.269124],[-83.676989,42.269223]]},"properties":{"created_user":"GISPORTALADMIN"}},{"type":"Feature","geometry":{"type":"LineString","coordinates":[[-83.691842,42.271803],[-83.691431,42.271609],[-83.690934,42.27137],[-83.690512,42.27117],[-83.689952,42.270902],[-83.689416,42.27065],[-83.688881,42.270397],[-83.688444,42.270193],[-83.688064,42.270013]]},"properties":{"created_user":"GISPORTALADMIN"}},{"type":"Feature","geometry":{"type":"LineString","coordinates":[[-83.676989,42.269223],[-83.676571,42.269304],[-83.676253,42.269369]]},"properties":{"created_user":"GISPORTALADMIN"}},{"type":"Feature","geometry":{"type":"LineString","coordinates":[[-83.676128,42.269394],[-83.675961,42.269427],[-83.675904,42.269438]]},"properties":{"created_user":"GISPORTALADMIN"}},{"type":"Feature","geometry":{"type":"LineString","coordinates":[[-83.675778,42.269461],[-83.675632,42.26949],[-83.675225,42.269567],[-83.674654,42.269666],[-83.674211,42.269739],[-83.6738,42.269805],[-83.673463,42.269855],[-83.673025,42.269919],[-83.672653,42.26997],[-83.672208,42.270028],[-83.671783,42.27008],[-83.671358,42.270131],[-83.671165,42.270155],[-83.671071,42.270164],[-83.671021,42.27017],[-83.67098,42.270176],[-83.670576,42.270229],[-83.67005,42.270293],[-83.66927,42.270387],[-83.66865,42.270465]]},"properties":{"created_user":"GISPORTALADMIN"}},{"type":"Feature","geometry":{"type":"LineString","coordinates":[[-83.668151,42.270526],[-83.667344,42.270625],[-83.666559,42.27072],[-83.666551,42.270721]]},"properties":{"created_user":"GISPORTALADMIN"}},{"type":"Feature","geometry":{"type":"LineString","coordinates":[[-83.730806,42.2373],[-83.730844,42.237512],[-83.731068,42.238761],[-83.731128,42.2391]]},"properties":{"created_user":"GISPORTALADMIN"}},{"type":"Feature","geometry":{"type":"LineString","coordinates":[[-83.731128,42.2391],[-83.731317,42.240167],[-83.731595,42.241706],[-83.73177,42.242687],[-83.731937,42.243622],[-83.731951,42.243724],[-83.732019,42.244077],[-83.732025,42.244114]]},"properties":{"created_user":"GISPORTALADMIN"}},{"type":"Feature","geometry":{"type":"LineString","coordinates":[[-83.728174,42.222618],[-83.72826,42.223099],[-83.728477,42.224312],[-83.728719,42.225659],[-83.729114,42.227872],[-83.729157,42.228112]]},"properties":{"created_user":"GISPORTALADMIN"}},{"type":"Feature","geometry":{"type":"LineString","coordinates":[[-83.727711,42.220013],[-83.727781,42.220399],[-83.728031,42.221821],[-83.728174,42.222618]]},"properties":{"created_user":"GISPORTALADMIN"}},{"type":"Feature","geometry":{"type":"LineString","coordinates":[[-83.748382,42.274289],[-83.748362,42.274255],[-83.748343,42.274221],[-83.748325,42.274187],[-83.748307,42.274153]]},"properties":{"created_user":"GISPORTALADMIN"}},{"type":"Feature","geometry":{"type":"LineString","coordinates":[[-83.750564,42.277615],[-83.750653,42.277803],[-83.750835,42.278191],[-83.751016,42.278573],[-83.751252,42.27908],[-83.751449,42.279504],[-83.751606,42.27985],[-83.751675,42.280014],[-83.751749,42.280194],[-83.751853,42.280475]]},"properties":{"created_user":"GISPORTALADMIN"}},{"type":"Feature","geometry":{"type":"LineString","coordinates":[[-83.75193,42.280695],[-83.752002,42.280904],[-83.752062,42.281105],[-83.752121,42.281306],[-83.75214,42.281407]]},"properties":{"created_user":"GISPORTALADMIN"}},{"type":"Feature","geometry":{"type":"LineString","coordinates":[[-83.752183,42.281649],[-83.752192,42.281712],[-83.752201,42.281776],[-83.752208,42.281839],[-83.752214,42.281903],[-83.752219,42.281967],[-83.752223,42.28203],[-83.752226,42.282094],[-83.752227,42.282158],[-83.752228,42.282222],[-83.752227,42.282286],[-83.752226,42.282355],[-83.752223,42.282425],[-83.752218,42.282494],[-83.752213,42.282563],[-83.752206,42.282633],[-83.752197,42.282702],[-83.752188,42.282771],[-83.752177,42.28284],[-83.752165,42.282909],[-83.752152,42.282978],[-83.752137,42.283046],[-83.752121,42.283115]]},"properties":{"created_user":"GISPORTALADMIN"}},{"type":"Feature","geometry":{"type":"LineString","coordinates":[[-83.752124,42.283123],[-83.752024,42.28349]]},"properties":{"created_user":"GISPORTALADMIN"}},{"type":"Feature","geometry":{"type":"LineString","coordinates":[[-83.75197,42.283695],[-83.751711,42.284484],[-83.75167,42.284616],[-83.751627,42.284747],[-83.751581,42.284878],[-83.751533,42.285008],[-83.751483,42.285137],[-83.75143,42.285267],[-83.751291,42.285587],[-83.751264,42.285648],[-83.751237,42.285708],[-83.751208,42.285768],[-83.751178,42.285827],[-83.751147,42.285886],[-83.751114,42.285945],[-83.750967,42.286223]]},"properties":{"created_user":"GISPORTALADMIN"}},{"type":"Feature","geometry":{"type":"LineString","coordinates":[[-83.75085,42.285568],[-83.750787,42.285932],[-83.750783,42.285962],[-83.750778,42.285991],[-83.750774,42.286021],[-83.750768,42.28605],[-83.750762,42.286079],[-83.750756,42.286109],[-83.750704,42.286332],[-83.7507,42.286348],[-83.750695,42.286364],[-83.75069,42.286379],[-83.750685,42.286395],[-83.750679,42.286411],[-83.750673,42.286426],[-83.750667,42.286442],[-83.750661,42.286457],[-83.750654,42.286473],[-83.750648,42.286488],[-83.750641,42.286503],[-83.750633,42.286518],[-83.750454,42.286813],[-83.750215,42.287168],[-83.749943,42.28754],[-83.749748,42.287809],[-83.749662,42.287923],[-83.749615,42.287986],[-83.749568,42.28805],[-83.749521,42.288113],[-83.749474,42.288177],[-83.749461,42.288197],[-83.749448,42.288217],[-83.749434,42.288236],[-83.74942,42.288256],[-83.749415,42.28828],[-83.749398,42.288298],[-83.749381,42.288316],[-83.749364,42.288334]]},"properties":{"created_user":"GISPORTALADMIN"}},{"type":"Feature","geometry":{"type":"LineString","coordinates":[[-83.750851,42.286426],[-83.750619,42.286785],[-83.750334,42.287194],[-83.750257,42.287298],[-83.750178,42.287402],[-83.750097,42.287504],[-83.750014,42.287606],[-83.749929,42.287707],[-83.749843,42.287807],[-83.749711,42.287957],[-83.749577,42.288106],[-83.74944,42.288254],[-83.749415,42.28828],[-83.749398,42.288298],[-83.749381,42.288316],[-83.749364,42.288334],[-83.749301,42.2884],[-83.749103,42.288595]]},"properties":{"created_user":"GISPORTALADMIN"}},{"type":"Feature","geometry":{"type":"LineString","coordinates":[[-83.749103,42.288595],[-83.748797,42.288895],[-83.748475,42.28921]]},"properties":{"created_user":"GISPORTALADMIN"}},{"type":"Feature","geometry":{"type":"LineString","coordinates":[[-83.748475,42.28921],[-83.748427,42.289274],[-83.748345,42.289338],[-83.748274,42.289407],[-83.748202,42.289475],[-83.748128,42.289542],[-83.748053,42.289609],[-83.747977,42.289674],[-83.747929,42.289714],[-83.74788,42.289754],[-83.747831,42.289792],[-83.74778,42.289831],[-83.74773,42.289868],[-83.747678,42.289905],[-83.747625,42.289942],[-83.747572,42.289978],[-83.747518,42.290013],[-83.747463,42.290048],[-83.747408,42.290083],[-83.747352,42.290116],[-83.747332,42.290129],[-83.747311,42.290142],[-83.747291,42.290155],[-83.74727,42.290168],[-83.747249,42.29018],[-83.747228,42.290192],[-83.747206,42.290204],[-83.747184,42.290216]]},"properties":{"created_user":"GISPORTALADMIN"}},{"type":"Feature","geometry":{"type":"LineString","coordinates":[[-83.746214,42.294064],[-83.746222,42.294008],[-83.746242,42.293895],[-83.746273,42.293721],[-83.746307,42.293559],[-83.746402,42.293221],[-83.746489,42.292923],[-83.746573,42.292626],[-83.74667,42.2923],[-83.746787,42.291907],[-83.74683,42.291773],[-83.746872,42.291638],[-83.746915,42.291504],[-83.746958,42.291369],[-83.746992,42.291284],[-83.747026,42.291198],[-83.747061,42.291113],[-83.747097,42.291027],[-83.747133,42.290942],[-83.74717,42.290857],[-83.747218,42.290763],[-83.747268,42.290669],[-83.747319,42.290576],[-83.747371,42.290483],[-83.747425,42.290391],[-83.747481,42.2903],[-83.747498,42.290271],[-83.747516,42.290243],[-83.747535,42.290215],[-83.747554,42.290188],[-83.747574,42.29016],[-83.747594,42.290133],[-83.747615,42.290106],[-83.747636,42.290079],[-83.747658,42.290052],[-83.74768,42.290026],[-83.747703,42.29],[-83.747726,42.289974],[-83.74775,42.289948],[-83.747774,42.289923],[-83.747799,42.289897],[-83.747824,42.289872],[-83.747849,42.289848],[-83.747876,42.289823],[-83.747902,42.289799],[-83.747929,42.289775],[-83.747957,42.289752],[-83.747984,42.289728],[-83.748051,42.289668],[-83.748118,42.289607],[-83.748185,42.289547],[-83.748251,42.289486],[-83.74827,42.289465],[-83.74829,42.289444],[-83.748308,42.289423],[-83.748327,42.289401],[-83.748345,42.28938],[-83.748363,42.289358],[-83.74843,42.28927],[-83.748477,42.289207]]},"properties":{"created_user":"GISPORTALADMIN"}},{"type":"Feature","geometry":{"type":"LineString","coordinates":[[-83.746957,42.290317],[-83.746762,42.290411],[-83.74654,42.290505],[-83.746204,42.290633],[-83.745976,42.290707],[-83.745625,42.290803],[-83.745385,42.290856],[-83.745081,42.29091],[-83.744772,42.290948],[-83.744771,42.290978],[-83.745111,42.29093],[-83.745363,42.290884],[-83.745613,42.29083],[-83.745852,42.290767],[-83.746165,42.29067],[-83.746395,42.290589],[-83.746743,42.290451],[-83.74696,42.290355]]},"properties":{"created_user":"GISPORTALADMIN"}},{"type":"Feature","geometry":{"type":"LineString","coordinates":[[-83.787403,42.315519],[-83.787293,42.315516],[-83.78717,42.315513],[-83.787048,42.315512],[-83.786926,42.315512],[-83.786803,42.315513],[-83.786681,42.315514],[-83.786558,42.315517],[-83.785877,42.315547],[-83.785325,42.315577],[-83.784562,42.315622],[-83.784548,42.315623]]},"properties":{"created_user":"GISPORTALADMIN"}},{"type":"Feature","geometry":{"type":"LineString","coordinates":[[-83.783702,42.315674],[-83.783039,42.315707],[-83.782379,42.315755],[-83.782075,42.315778],[-83.781845,42.315798],[-83.781617,42.31582],[-83.781388,42.315845],[-83.78116,42.315872],[-83.780345,42.315984],[-83.779513,42.316124],[-83.779085,42.316196]]},"properties":{"created_user":"GISPORTALADMIN"}},{"type":"Feature","geometry":{"type":"LineString","coordinates":[[-83.743051,42.264793],[-83.742994,42.26474],[-83.742925,42.264703],[-83.742813,42.264638]]},"properties":{"created_user":"GISPORTALADMIN"}},{"type":"Feature","geometry":{"type":"LineString","coordinates":[[-83.733944,42.2858],[-83.732919,42.285809],[-83.731958,42.285818]]},"properties":{"created_user":"GISPORTALADMIN"}},{"type":"Feature","geometry":{"type":"LineString","coordinates":[[-83.742339,42.28761],[-83.741226,42.287207],[-83.740622,42.286975],[-83.740063,42.286767],[-83.739569,42.286583],[-83.739027,42.286386],[-83.738902,42.286343],[-83.738776,42.286301],[-83.738651,42.28626],[-83.738524,42.28622],[-83.738396,42.286181],[-83.738268,42.286143],[-83.738139,42.286107],[-83.73801,42.286072],[-83.737919,42.28605],[-83.737828,42.286028],[-83.737737,42.286008],[-83.737645,42.285988],[-83.737553,42.285969],[-83.73746,42.285952],[-83.737367,42.285935],[-83.737274,42.285919],[-83.73718,42.285904],[-83.737087,42.28589],[-83.736993,42.285877],[-83.736899,42.285865],[-83.736796,42.285853],[-83.736694,42.285842],[-83.736591,42.285832],[-83.736488,42.285823],[-83.736386,42.285815],[-83.736282,42.285808],[-83.736179,42.285803],[-83.736076,42.285798],[-83.735973,42.285794],[-83.735869,42.285791],[-83.735154,42.28579],[-83.733944,42.2858]]},"properties":{"created_user":"GISPORTALADMIN"}},{"type":"Feature","geometry":{"type":"LineString","coordinates":[[-83.747203,42.272119],[-83.747468,42.272526],[-83.747819,42.273076],[-83.74806,42.273447],[-83.748324,42.273864],[-83.748611,42.274301],[-83.748804,42.2746],[-83.748958,42.274835],[-83.749086,42.275035],[-83.749215,42.275236],[-83.749463,42.275631],[-83.749671,42.275955],[-83.749891,42.276306],[-83.750083,42.276642],[-83.750113,42.2767],[-83.750145,42.276758],[-83.750176,42.276815],[-83.750208,42.276873],[-83.750355,42.277176],[-83.750501,42.277481],[-83.75057,42.277626]]},"properties":{"created_user":"GISPORTALADMIN"}},{"type":"Feature","geometry":{"type":"LineString","coordinates":[[-83.730198,42.2339],[-83.730205,42.233943],[-83.730213,42.233986],[-83.730221,42.234028],[-83.730209,42.234073],[-83.730218,42.234725],[-83.730231,42.235713],[-83.730232,42.235727],[-83.730231,42.235741],[-83.730231,42.235755],[-83.73023,42.235769],[-83.730229,42.235783],[-83.730228,42.235796],[-83.730227,42.23581],[-83.730225,42.235824],[-83.730223,42.235838],[-83.73022,42.235852],[-83.730218,42.235866],[-83.730215,42.235879],[-83.730212,42.235893],[-83.730208,42.235907],[-83.730205,42.235921],[-83.730201,42.235934],[-83.730197,42.235948],[-83.730192,42.235961],[-83.730187,42.235975],[-83.730182,42.235988],[-83.730177,42.236001],[-83.730172,42.236015],[-83.730166,42.236028],[-83.73016,42.236041],[-83.730153,42.236054],[-83.730147,42.236067],[-83.73014,42.23608],[-83.730133,42.236093],[-83.730126,42.236106],[-83.730118,42.236119],[-83.73011,42.236131],[-83.730102,42.236144],[-83.730094,42.236156],[-83.730085,42.236169],[-83.730076,42.236181],[-83.730067,42.236193],[-83.730058,42.236207],[-83.730048,42.23622],[-83.730038,42.236233],[-83.730027,42.236246],[-83.730016,42.236259],[-83.730005,42.236271],[-83.729994,42.236284],[-83.729983,42.236296],[-83.729971,42.236309],[-83.729959,42.236321],[-83.729947,42.236333],[-83.729934,42.236345],[-83.729922,42.236357],[-83.729909,42.236369],[-83.729896,42.23638],[-83.729882,42.236391],[-83.729869,42.236403],[-83.729855,42.236414],[-83.729841,42.236425],[-83.729827,42.236435],[-83.729812,42.236446],[-83.729798,42.236456],[-83.729783,42.236467],[-83.729768,42.236477],[-83.729752,42.236487],[-83.729737,42.236497],[-83.729721,42.236506]]},"properties":{"created_user":"GISPORTALADMIN"}},{"type":"Feature","geometry":{"type":"LineString","coordinates":[[-83.729157,42.228112],[-83.729356,42.229215],[-83.729569,42.23041],[-83.729719,42.231246],[-83.729897,42.232221],[-83.730126,42.233497],[-83.730146,42.233606]]},"properties":{"created_user":"GISPORTALADMIN"}},{"type":"Feature","geometry":{"type":"LineString","coordinates":[[-83.730146,42.233606],[-83.730198,42.2339],[-83.730205,42.233943],[-83.730213,42.233986],[-83.730221,42.234028],[-83.730263,42.234266],[-83.730427,42.235173],[-83.730602,42.236167],[-83.730762,42.237042]]},"properties":{"created_user":"GISPORTALADMIN"}},{"type":"Feature","geometry":{"type":"LineString","coordinates":[[-83.732059,42.24432],[-83.732092,42.244509],[-83.732108,42.244594]]},"properties":{"created_user":"GISPORTALADMIN"}},{"type":"Feature","geometry":{"type":"LineString","coordinates":[[-83.732108,42.244594],[-83.732213,42.245148],[-83.732264,42.245387],[-83.732303,42.24555],[-83.732344,42.245714],[-83.732387,42.245877],[-83.732433,42.24604],[-83.732481,42.246202],[-83.732531,42.246364],[-83.732639,42.246666]]},"properties":{"created_user":"GISPORTALADMIN"}},{"type":"Feature","geometry":{"type":"LineString","coordinates":[[-83.732639,42.246666],[-83.732797,42.24711],[-83.733199,42.248034],[-83.733661,42.248911],[-83.734159,42.249766],[-83.734349,42.250095]]},"properties":{"created_user":"GISPORTALADMIN"}},{"type":"Feature","geometry":{"type":"LineString","coordinates":[[-83.734349,42.250095],[-83.734669,42.250648],[-83.735422,42.251942],[-83.73611,42.253125],[-83.736138,42.25317],[-83.736163,42.253209],[-83.736694,42.254122],[-83.73706,42.254753],[-83.737463,42.255447],[-83.737553,42.255601]]},"properties":{"created_user":"GISPORTALADMIN"}},{"type":"Feature","geometry":{"type":"LineString","coordinates":[[-83.740762,42.261107],[-83.74069,42.260986],[-83.740608,42.260846],[-83.740513,42.26068],[-83.74046,42.260593],[-83.740382,42.260461],[-83.740296,42.260311],[-83.740201,42.260141],[-83.740113,42.259991],[-83.74,42.259805],[-83.739898,42.259631],[-83.739508,42.25896],[-83.739158,42.258359],[-83.738812,42.257765],[-83.73855,42.257316],[-83.73824,42.256781],[-83.737797,42.256023],[-83.737659,42.255786],[-83.737553,42.255601]]},"properties":{"created_user":"GISPORTALADMIN"}},{"type":"Feature","geometry":{"type":"LineString","coordinates":[[-83.740762,42.261107],[-83.740852,42.261262]]},"properties":{"created_user":"GISPORTALADMIN"}},{"type":"Feature","geometry":{"type":"LineString","coordinates":[[-83.741837,42.262967],[-83.741555,42.262473],[-83.741133,42.261746],[-83.740939,42.261424],[-83.740887,42.261326],[-83.740852,42.261262]]},"properties":{"created_user":"GISPORTALADMIN"}},{"type":"Feature","geometry":{"type":"LineString","coordinates":[[-83.731958,42.285818],[-83.730628,42.285833],[-83.729477,42.285843],[-83.728787,42.285843],[-83.728652,42.285841],[-83.728517,42.285838],[-83.728382,42.285834],[-83.728247,42.285829],[-83.728113,42.285822],[-83.727978,42.285815],[-83.727844,42.285806],[-83.727709,42.285795],[-83.727575,42.285784],[-83.727441,42.285771],[-83.727292,42.285755],[-83.727144,42.285737],[-83.726996,42.285717],[-83.726849,42.285697],[-83.726701,42.285675],[-83.726554,42.285652],[-83.726407,42.285627],[-83.726261,42.285601],[-83.725452,42.28543]]},"properties":{"created_user":"GISPORTALADMIN"}},{"type":"Feature","geometry":{"type":"LineString","coordinates":[[-83.721168,42.284476],[-83.72083,42.2844],[-83.719955,42.284207],[-83.719335,42.284066],[-83.71854,42.28389]]},"properties":{"created_user":"GISPORTALADMIN"}},{"type":"Feature","geometry":{"type":"LineString","coordinates":[[-83.71854,42.28389],[-83.71786,42.283737],[-83.717121,42.283568],[-83.716519,42.283419],[-83.716104,42.283306],[-83.715959,42.283262],[-83.715814,42.283217],[-83.715671,42.28317],[-83.715528,42.283122],[-83.715386,42.283072],[-83.715245,42.283022],[-83.715105,42.282969],[-83.714966,42.282915]]},"properties":{"created_user":"GISPORTALADMIN"}},{"type":"Feature","geometry":{"type":"LineString","coordinates":[[-83.725452,42.28543],[-83.724096,42.285133],[-83.723396,42.284975],[-83.722559,42.284789],[-83.721626,42.284578],[-83.721168,42.284476]]},"properties":{"created_user":"GISPORTALADMIN"}},{"type":"Feature","geometry":{"type":"LineString","coordinates":[[-83.714966,42.282915],[-83.714841,42.282865],[-83.714726,42.282816],[-83.714611,42.282766],[-83.714498,42.282715],[-83.714385,42.282663],[-83.714274,42.28261],[-83.714163,42.282555],[-83.714053,42.2825],[-83.713945,42.282443],[-83.713837,42.282385],[-83.713431,42.28216],[-83.713391,42.282133],[-83.713157,42.281986],[-83.712971,42.28187],[-83.712789,42.281746],[-83.712591,42.2816],[-83.712397,42.281452],[-83.712204,42.281301],[-83.712046,42.281162],[-83.711864,42.281002],[-83.71168,42.280827],[-83.711536,42.280689],[-83.71139,42.280556],[-83.711264,42.280431],[-83.711158,42.280329],[-83.710882,42.280067],[-83.710714,42.279904],[-83.710554,42.279759],[-83.710435,42.279647],[-83.710253,42.279487],[-83.710135,42.279389]]},"properties":{"created_user":"GISPORTALADMIN"}},{"type":"Feature","geometry":{"type":"LineString","coordinates":[[-83.710135,42.279389],[-83.710072,42.279337],[-83.709927,42.279222],[-83.709772,42.279107],[-83.709651,42.279017],[-83.709501,42.27891],[-83.709296,42.278772],[-83.70907,42.278633],[-83.708933,42.278544],[-83.708676,42.278389],[-83.708357,42.278207],[-83.708076,42.278046],[-83.707747,42.277858],[-83.707469,42.277696],[-83.707214,42.277552],[-83.706925,42.277388],[-83.706912,42.27738]]},"properties":{"created_user":"GISPORTALADMIN"}},{"type":"Feature","geometry":{"type":"LineString","coordinates":[[-83.706912,42.27738],[-83.706709,42.277262],[-83.706472,42.277126],[-83.706148,42.276943],[-83.705853,42.276774],[-83.70548,42.276561],[-83.705165,42.276384],[-83.704839,42.276198],[-83.704428,42.275967],[-83.704182,42.275828],[-83.703974,42.27571],[-83.703786,42.275608],[-83.703588,42.275508],[-83.703424,42.275426],[-83.703215,42.275326],[-83.703027,42.275245],[-83.702858,42.275173],[-83.702715,42.275111],[-83.702623,42.275075],[-83.702551,42.275051],[-83.702509,42.275034],[-83.702398,42.274992],[-83.702038,42.274871],[-83.701688,42.274764],[-83.701451,42.274695],[-83.701161,42.274616],[-83.700906,42.274557],[-83.700665,42.274497],[-83.700242,42.274401],[-83.699955,42.274337],[-83.699471,42.27422],[-83.699105,42.274138]]},"properties":{"created_user":"GISPORTALADMIN"}},{"type":"Feature","geometry":{"type":"LineString","coordinates":[[-83.743963,42.266613],[-83.743741,42.266238],[-83.743528,42.265865]]},"properties":{"created_user":"GISPORTALADMIN"}},{"type":"Feature","geometry":{"type":"LineString","coordinates":[[-83.743051,42.264793],[-83.743122,42.264886],[-83.743185,42.264996],[-83.74328,42.265158],[-83.743432,42.265412],[-83.743531,42.265585]]},"properties":{"created_user":"GISPORTALADMIN"}},{"type":"Feature","geometry":{"type":"LineString","coordinates":[[-83.743051,42.264793],[-83.742994,42.26474],[-83.742925,42.264703],[-83.742813,42.264638]]},"properties":{"created_user":"GISPORTALADMIN"}},{"type":"Feature","geometry":{"type":"LineString","coordinates":[[-83.743963,42.266613],[-83.743741,42.266238],[-83.743528,42.265865]]},"properties":{"created_user":"GISPORTALADMIN"}},{"type":"Feature","geometry":{"type":"LineString","coordinates":[[-83.747203,42.272119],[-83.747173,42.272074],[-83.746976,42.271766],[-83.746885,42.271622],[-83.74677,42.271426],[-83.746668,42.271247],[-83.74666,42.271235],[-83.746612,42.271155],[-83.746456,42.270897],[-83.746257,42.270553],[-83.745901,42.269937],[-83.745737,42.269656],[-83.74559,42.269404],[-83.745369,42.269023],[-83.745148,42.268639],[-83.745139,42.268626],[-83.745064,42.2685],[-83.744849,42.268137],[-83.74455,42.267618],[-83.744302,42.267195],[-83.74402,42.26671],[-83.743963,42.266613]]},"properties":{"created_user":"GISPORTALADMIN"}},{"type":"Feature","geometry":{"type":"LineString","coordinates":[[-83.743528,42.265865],[-83.743447,42.265723],[-83.743203,42.265307],[-83.742809,42.264631],[-83.742439,42.263994],[-83.742146,42.26349],[-83.741837,42.262967]]},"properties":{"created_user":"GISPORTALADMIN"}},{"type":"Feature","geometry":{"type":"LineString","coordinates":[[-83.745373,42.268907],[-83.745384,42.268959],[-83.745369,42.269025],[-83.745383,42.269047]]},"properties":{"created_user":"GISPORTALADMIN"}},{"type":"Feature","geometry":{"type":"LineString","coordinates":[[-83.744126,42.266614],[-83.744149,42.266655],[-83.744406,42.267089],[-83.744634,42.267488],[-83.744832,42.267827],[-83.744985,42.268093],[-83.745099,42.268293],[-83.745186,42.268449],[-83.745233,42.268517],[-83.745243,42.268538],[-83.745256,42.268566],[-83.745255,42.268583],[-83.745273,42.268639],[-83.745281,42.268666],[-83.74533,42.268818],[-83.745373,42.268907]]},"properties":{"created_user":"GISPORTALADMIN"}},{"type":"Feature","geometry":{"type":"LineString","coordinates":[[-83.743531,42.265585],[-83.743887,42.266203],[-83.744126,42.266614]]},"properties":{"created_user":"GISPORTALADMIN"}},{"type":"Feature","geometry":{"type":"LineString","coordinates":[[-83.745257,42.267921],[-83.745237,42.268297],[-83.745242,42.268403],[-83.745236,42.268473],[-83.745233,42.268517],[-83.745243,42.268538],[-83.745256,42.268566],[-83.745255,42.268583],[-83.745273,42.268639],[-83.745281,42.268666]]},"properties":{"created_user":"GISPORTALADMIN"}},{"type":"Feature","geometry":{"type":"LineString","coordinates":[[-83.745105,42.268023],[-83.745105,42.268031],[-83.745106,42.268039],[-83.745108,42.268046],[-83.74511,42.268054],[-83.745114,42.268062],[-83.745118,42.268069],[-83.745122,42.268076],[-83.745128,42.268083],[-83.745134,42.26809],[-83.74514,42.268096],[-83.745147,42.268102],[-83.745155,42.268107],[-83.745163,42.268112],[-83.745172,42.268117],[-83.745181,42.268121],[-83.74519,42.268125],[-83.7452,42.268128],[-83.74521,42.268131],[-83.745221,42.268133],[-83.745231,42.268134],[-83.745242,42.268136],[-83.745252,42.268136],[-83.745263,42.268136],[-83.745274,42.268135],[-83.745284,42.268134],[-83.745295,42.268132],[-83.745305,42.26813],[-83.745315,42.268127],[-83.745325,42.268124],[-83.745334,42.26812],[-83.745343,42.268116],[-83.745351,42.268111],[-83.74536,42.268106],[-83.745367,42.2681],[-83.745374,42.268094],[-83.74538,42.268088],[-83.745386,42.268081],[-83.745391,42.268074],[-83.745396,42.268067],[-83.7454,42.268059],[-83.745403,42.268052],[-83.745405,42.268044],[-83.745407,42.268036],[-83.745407,42.268028],[-83.745408,42.26802],[-83.745407,42.268012],[-83.745405,42.268005],[-83.745403,42.267997],[-83.7454,42.267989],[-83.745397,42.267982],[-83.745392,42.267974],[-83.745387,42.267967],[-83.745382,42.267961],[-83.745375,42.267954],[-83.745369,42.267948],[-83.745361,42.267942],[-83.745353,42.267937],[-83.745345,42.267932],[-83.745336,42.267928],[-83.745327,42.267924],[-83.745317,42.26792],[-83.745307,42.267918],[-83.745297,42.267915],[-83.745286,42.267913],[-83.745276,42.267912],[-83.745265,42.267911],[-83.745255,42.267911],[-83.745244,42.267911],[-83.745233,42.267912],[-83.745223,42.267914],[-83.745212,42.267916],[-83.745202,42.267918],[-83.745192,42.267921],[-83.745183,42.267925],[-83.745174,42.267929],[-83.745165,42.267934],[-83.745157,42.267939],[-83.745149,42.267944],[-83.745142,42.26795],[-83.745135,42.267956],[-83.745129,42.267963],[-83.745123,42.267969],[-83.745118,42.267977],[-83.745114,42.267984],[-83.745111,42.267991],[-83.745108,42.267999],[-83.745106,42.268007],[-83.745105,42.268015],[-83.745105,42.268023]]},"properties":{"created_user":"GISPORTALADMIN"}},{"type":"Feature","geometry":{"type":"LineString","coordinates":[[-83.745118,42.268023],[-83.745118,42.26803],[-83.745119,42.268038],[-83.745121,42.268045],[-83.745123,42.268053],[-83.745127,42.26806],[-83.745131,42.268067],[-83.745135,42.268074],[-83.745141,42.26808],[-83.745146,42.268086],[-83.745153,42.268092],[-83.74516,42.268098],[-83.745168,42.268103],[-83.745176,42.268107],[-83.745184,42.268112],[-83.745193,42.268115],[-83.745203,42.268118],[-83.745212,42.268121],[-83.745222,42.268123],[-83.745232,42.268125],[-83.745242,42.268126],[-83.745253,42.268126],[-83.745263,42.268126],[-83.745273,42.268126],[-83.745283,42.268124],[-83.745293,42.268123],[-83.745303,42.26812],[-83.745312,42.268118],[-83.745321,42.268114],[-83.74533,42.26811],[-83.745339,42.268106],[-83.745347,42.268101],[-83.745354,42.268096],[-83.745361,42.268091],[-83.745368,42.268085],[-83.745373,42.268078],[-83.745378,42.268072],[-83.745383,42.268065],[-83.745387,42.268058],[-83.74539,42.268051],[-83.745392,42.268043],[-83.745394,42.268036],[-83.745394,42.268028],[-83.745395,42.26802],[-83.745394,42.268013],[-83.745392,42.268005],[-83.74539,42.267998],[-83.745387,42.267991],[-83.745384,42.267984],[-83.745379,42.267977],[-83.745374,42.26797],[-83.745369,42.267964],[-83.745363,42.267958],[-83.745356,42.267952],[-83.745348,42.267947],[-83.74534,42.267942],[-83.745332,42.267937],[-83.745323,42.267934],[-83.745314,42.26793],[-83.745305,42.267927],[-83.745295,42.267925],[-83.745285,42.267923],[-83.745275,42.267922],[-83.745265,42.267921],[-83.745255,42.267921],[-83.745244,42.267921],[-83.745234,42.267922],[-83.745224,42.267923],[-83.745214,42.267925],[-83.745205,42.267928],[-83.745195,42.267931],[-83.745186,42.267935],[-83.745178,42.267939],[-83.745169,42.267943],[-83.745162,42.267948],[-83.745154,42.267954],[-83.745148,42.267959],[-83.745142,42.267966],[-83.745136,42.267972],[-83.745131,42.267979],[-83.745127,42.267986],[-83.745124,42.267993],[-83.745121,42.268],[-83.745119,42.268008],[-83.745118,42.268015],[-83.745118,42.268023]]},"properties":{"created_user":"GISPORTALADMIN"}},{"type":"Feature","geometry":{"type":"LineString","coordinates":[[-83.727711,42.220013],[-83.725968,42.210115]]},"properties":{"created_user":"GISPORTALADMIN"}},{"type":"Feature","geometry":{"type":"LineString","coordinates":[[-83.727941,42.210126],[-83.719171,42.21504]]},"properties":{"created_user":"GISPORTALADMIN"}},{"type":"Feature","geometry":{"type":"LineString","coordinates":[[-83.726007,42.210336],[-83.726012,42.210367],[-83.726021,42.210468],[-83.72602,42.210569],[-83.726009,42.21067],[-83.725988,42.210769],[-83.725958,42.210868],[-83.725918,42.210965],[-83.72587,42.211059],[-83.725812,42.21115],[-83.725745,42.211238],[-83.72567,42.211322],[-83.725587,42.211402],[-83.725496,42.211477],[-83.725398,42.211548],[-83.725367,42.211568]]},"properties":{"created_user":"GISPORTALADMIN"}},{"type":"Feature","geometry":{"type":"LineString","coordinates":[[-83.787403,42.315519],[-83.788249,42.315576],[-83.789224,42.315715],[-83.790129,42.315906],[-83.790866,42.316148],[-83.791811,42.316505],[-83.792324,42.316776],[-83.792907,42.31709],[-83.793309,42.317361],[-83.793794,42.317715],[-83.794112,42.317986],[-83.794444,42.318309],[-83.794886,42.318756],[-83.795327,42.319276],[-83.795684,42.319754],[-83.79615,42.320315],[-83.7965,42.320672],[-83.797247,42.321351],[-83.797776,42.32175],[-83.79879,42.322412],[-83.799788,42.323093],[-83.801013,42.323902],[-83.801793,42.324413],[-83.803095,42.325281],[-83.804382,42.326137],[-83.807182,42.327998]]},"properties":{"created_user":"GISPORTALADMIN"}},{"type":"Feature","geometry":{"type":"LineString","coordinates":[[-83.734506,42.325869],[-83.734738,42.32637],[-83.734821,42.326573],[-83.734957,42.326957],[-83.735051,42.327263],[-83.735144,42.32762]]},"properties":{"created_user":"GISPORTALADMIN"}},{"type":"Feature","geometry":{"type":"LineString","coordinates":[[-83.666551,42.270721],[-83.660682,42.271452],[-83.657884,42.271794],[-83.654748,42.272193],[-83.654467,42.272226],[-83.654185,42.272251],[-83.653902,42.27227],[-83.653619,42.272281],[-83.653334,42.272286],[-83.65305,42.272284],[-83.652766,42.272275],[-83.652483,42.272259],[-83.652201,42.272237],[-83.651919,42.272207],[-83.651639,42.272171],[-83.651361,42.272128],[-83.651085,42.272078],[-83.650811,42.272021],[-83.65054,42.271958],[-83.650272,42.271889],[-83.650007,42.271813],[-83.649745,42.27173],[-83.649487,42.271641],[-83.649267,42.271559],[-83.649051,42.27147],[-83.648839,42.271376],[-83.648632,42.271277],[-83.648425,42.27117],[-83.648224,42.271058],[-83.648027,42.270942],[-83.647836,42.270821],[-83.64765,42.270695],[-83.64747,42.270565],[-83.647295,42.27043],[-83.647127,42.270291],[-83.646965,42.270148],[-83.646775,42.26997],[-83.646591,42.269789],[-83.646413,42.269604],[-83.646241,42.269416],[-83.646075,42.269225],[-83.64427,42.267307],[-83.642519,42.26537],[-83.641629,42.264536],[-83.640697,42.263801],[-83.639684,42.263086],[-83.638229,42.262249],[-83.631362,42.258352]]},"properties":{"created_user":"GISPORTALADMIN"}}]}
