{"type":"FeatureCollection","features":[{"type":"Feature","geometry":{"type":"Polygon","coordinates":[[[-83.732898,42.287025],[-83.732779,42.287132],[-83.732748,42.28716],[-83.732748,42.28716],[-83.732748,42.28716],[-83.732839,42.287283],[-83.732921,42.287378],[-83.733033,42.287492],[-83.73318,42.287621],[-83.73334,42.287476],[-83.73334,42.287476],[-83.733214,42.287351],[-83.733118,42.287247],[-83.73303,42.287139],[-83.732927,42.286999],[-83.732898,42.287025]]]},"properties":{"created_user":"GISPORTALADMIN"}},{"type":"Feature","geometry":{"type":"Polygon","coordinates":[[[-83.734761,42.285647],[-83.734358,42.28565],[-83.734286,42.28565],[-83.733865,42.285838],[-83.733433,42.286012],[-83.733534,42.286012],[-83.733971,42.286012],[-83.73405,42.286012],[-83.734453,42.285835],[-83.734844,42.285647],[-83.734761,42.285647]]]},"properties":{"created_user":"GISPORTALADMIN"}},{"type":"Feature","geometry":{"type":"Polygon","coordinates":[[[-83.732181,42.286008],[-83.732394,42.286006],[-83.73238,42.285979],[-83.732335,42.285905],[-83.732284,42.285835],[-83.732228,42.28577],[-83.732166,42.285709],[-83.7321,42.285653],[-83.731724,42.285654],[-83.731798,42.285703],[-83.73187,42.285756],[-83.731937,42.285813],[-83.732001,42.285875],[-83.732061,42.285941],[-83.732117,42.28601],[-83.732181,42.286008]]]},"properties":{"created_user":"GISPORTALADMIN"}},{"type":"Feature","geometry":{"type":"Polygon","coordinates":[[[-83.726007,42.287158],[-83.726,42.287002],[-83.725998,42.286967],[-83.725835,42.286972],[-83.725421,42.286986],[-83.725267,42.286991],[-83.725272,42.287025],[-83.725275,42.287182],[-83.725278,42.287224],[-83.725458,42.287218],[-83.725822,42.287207],[-83.72601,42.287201],[-83.726007,42.287158]]]},"properties":{"created_user":"GISPORTALADMIN"}},{"type":"Feature","geometry":{"type":"Polygon","coordinates":[[[-83.702324,42.275564],[-83.702251,42.275532],[-83.702238,42.275552],[-83.702063,42.275869],[-83.702118,42.275888],[-83.702128,42.275873],[-83.70213,42.275874],[-83.702324,42.275564]]]},"properties":{"created_user":"GISPORTALADMIN"}},{"type":"Feature","geometry":{"type":"Polygon","coordinates":[[[-83.698673,42.276424],[-83.698694,42.276428],[-83.698906,42.276409],[-83.698722,42.274339],[-83.698717,42.274277],[-83.69868,42.273865],[-83.698671,42.273759],[-83.698655,42.273615],[-83.698642,42.273528],[-83.69843,42.273527],[-83.698409,42.273519],[-83.698424,42.273705],[-83.698434,42.273811],[-83.698474,42.274241],[-83.698673,42.276424]]]},"properties":{"created_user":"GISPORTALADMIN"}},{"type":"Feature","geometry":{"type":"Polygon","coordinates":[[[-83.676249,42.268995],[-83.676122,42.269021],[-83.676123,42.269046],[-83.676158,42.270341],[-83.676275,42.270318],[-83.676249,42.269022],[-83.676249,42.268995]]]},"properties":{"created_user":"GISPORTALADMIN"}},{"type":"Feature","geometry":{"type":"Polygon","coordinates":[[[-83.675898,42.269062],[-83.675777,42.269068],[-83.675773,42.269118],[-83.675814,42.270411],[-83.675928,42.270386],[-83.675899,42.269092],[-83.675898,42.269062]]]},"properties":{"created_user":"GISPORTALADMIN"}},{"type":"Feature","geometry":{"type":"Polygon","coordinates":[[[-83.671123,42.270557],[-83.671043,42.270553],[-83.67102,42.270551],[-83.671031,42.27071],[-83.671051,42.270709],[-83.671132,42.270704],[-83.671152,42.270703],[-83.671145,42.270558],[-83.671123,42.270557]]]},"properties":{"created_user":"GISPORTALADMIN"}},{"type":"Feature","geometry":{"type":"Polygon","coordinates":[[[-83.671149,42.271025],[-83.671169,42.271022],[-83.671161,42.27084],[-83.671143,42.270839],[-83.671058,42.270832],[-83.671035,42.27083],[-83.671052,42.271037],[-83.671073,42.271034],[-83.671149,42.271025]]]},"properties":{"created_user":"GISPORTALADMIN"}},{"type":"Feature","geometry":{"type":"Polygon","coordinates":[[[-83.744666,42.303652],[-83.744921,42.303753],[-83.745028,42.303613],[-83.745068,42.303556],[-83.746429,42.30158],[-83.746479,42.30151],[-83.746243,42.301366],[-83.746232,42.301353],[-83.744778,42.303466],[-83.74474,42.303521],[-83.744666,42.303652]]]},"properties":{"created_user":"GISPORTALADMIN"}},{"type":"Feature","geometry":{"type":"Polygon","coordinates":[[[-83.746514,42.303355],[-83.746531,42.303355],[-83.746543,42.303032],[-83.746519,42.303031],[-83.746446,42.303028],[-83.746423,42.303026],[-83.746416,42.303357],[-83.74644,42.303356],[-83.746514,42.303355]]]},"properties":{"created_user":"GISPORTALADMIN"}},{"type":"Feature","geometry":{"type":"Polygon","coordinates":[[[-83.748058,42.299757],[-83.747927,42.299565],[-83.74775,42.299701],[-83.74769,42.299746],[-83.747624,42.299797],[-83.747576,42.299838],[-83.747499,42.299905],[-83.747443,42.299957],[-83.747293,42.300099],[-83.747102,42.300298],[-83.747321,42.300411],[-83.747363,42.300365],[-83.747519,42.300209],[-83.747565,42.300168],[-83.747661,42.300086],[-83.747712,42.300042],[-83.747769,42.299989],[-83.747824,42.299942],[-83.748011,42.29979],[-83.748058,42.299757]]]},"properties":{"created_user":"GISPORTALADMIN"}},{"type":"Feature","geometry":{"type":"Polygon","coordinates":[[[-83.741683,42.263079],[-83.741759,42.263099],[-83.741816,42.263113],[-83.742118,42.263189],[-83.742244,42.263222],[-83.742245,42.263222],[-83.742245,42.263222],[-83.742143,42.263038],[-83.742126,42.263034],[-83.742054,42.263016],[-83.741832,42.262958],[-83.741706,42.262926],[-83.741654,42.262913],[-83.741578,42.262894],[-83.741683,42.263079]]]},"properties":{"created_user":"GISPORTALADMIN"}},{"type":"Feature","geometry":{"type":"Polygon","coordinates":[[[-83.740217,42.262703],[-83.740618,42.26281],[-83.740618,42.262651],[-83.740359,42.262585],[-83.740216,42.262546],[-83.740217,42.262703]]]},"properties":{"created_user":"GISPORTALADMIN"}},{"type":"Feature","geometry":{"type":"Polygon","coordinates":[[[-83.778085,42.25626],[-83.778014,42.256204],[-83.778001,42.256194],[-83.777757,42.2562],[-83.777285,42.256214],[-83.777095,42.256225],[-83.777125,42.256289],[-83.777136,42.256298],[-83.777379,42.256292],[-83.777849,42.256279],[-83.778103,42.256273],[-83.778085,42.25626]]]},"properties":{"created_user":"GISPORTALADMIN"}},{"type":"Feature","geometry":{"type":"Polygon","coordinates":[[[-83.668308,42.270269],[-83.668296,42.27026],[-83.667913,42.270316],[-83.667805,42.270319],[-83.667788,42.270321],[-83.667823,42.270368],[-83.667958,42.270351],[-83.668339,42.270302],[-83.668308,42.270269]]]},"properties":{"created_user":"GISPORTALADMIN"}},{"type":"Feature","geometry":{"type":"Polygon","coordinates":[[[-83.732312,42.244307],[-83.732294,42.244216],[-83.732289,42.244194],[-83.732274,42.24412],[-83.73227,42.244101],[-83.731788,42.244127],[-83.731791,42.244144],[-83.731805,42.244219],[-83.731809,42.244242],[-83.731822,42.244318],[-83.731825,42.244332],[-83.73188,42.244329],[-83.732312,42.244307]]]},"properties":{"created_user":"GISPORTALADMIN"}},{"type":"Feature","geometry":{"type":"Polygon","coordinates":[[[-83.801641,42.324616],[-83.801457,42.324483],[-83.801203,42.324317],[-83.801023,42.324199],[-83.800918,42.32429],[-83.801067,42.32439],[-83.801405,42.324615],[-83.801533,42.324702],[-83.801641,42.324616]]]},"properties":{"created_user":"GISPORTALADMIN"}},{"type":"Feature","geometry":{"type":"Polygon","coordinates":[[[-83.795342,42.318207],[-83.79551,42.318136],[-83.795457,42.317978],[-83.795285,42.318043],[-83.795337,42.318179],[-83.795342,42.318207]]]},"properties":{"created_user":"GISPORTALADMIN"}},{"type":"Feature","geometry":{"type":"Polygon","coordinates":[[[-83.77818,42.317312],[-83.778126,42.316907],[-83.778065,42.31691],[-83.778127,42.317316],[-83.77818,42.317312]]]},"properties":{"created_user":"GISPORTALADMIN"}},{"type":"Feature","geometry":{"type":"Polygon","coordinates":[[[-83.73969,42.320556],[-83.739598,42.32035],[-83.739523,42.320166],[-83.739506,42.320121],[-83.739393,42.31977],[-83.739288,42.31987],[-83.739365,42.320105],[-83.739423,42.320261],[-83.739458,42.320346],[-83.739598,42.32064],[-83.73969,42.320556]]]},"properties":{"created_user":"GISPORTALADMIN"}},{"type":"Feature","geometry":{"type":"Polygon","coordinates":[[[-83.739638,42.320357],[-83.739715,42.320273],[-83.739599,42.320209],[-83.739523,42.320166],[-83.739598,42.32035],[-83.739638,42.320357]]]},"properties":{"created_user":"GISPORTALADMIN"}},{"type":"Feature","geometry":{"type":"Polygon","coordinates":[[[-83.739365,42.320105],[-83.739333,42.32009],[-83.739255,42.320175],[-83.739384,42.32024],[-83.739423,42.320261],[-83.739365,42.320105]]]},"properties":{"created_user":"GISPORTALADMIN"}},{"type":"Feature","geometry":{"type":"Polygon","coordinates":[[[-83.73531,42.320041],[-83.735426,42.32001],[-83.735314,42.319663],[-83.735193,42.319692],[-83.73531,42.320041]]]},"properties":{"created_user":"GISPORTALADMIN"}},{"type":"Feature","geometry":{"type":"Polygon","coordinates":[[[-83.736007,42.321805],[-83.735857,42.321342],[-83.73573,42.321352],[-83.735881,42.321811],[-83.736007,42.321805]]]},"properties":{"created_user":"GISPORTALADMIN"}},{"type":"Feature","geometry":{"type":"Polygon","coordinates":[[[-83.73145,42.321957],[-83.731314,42.321847],[-83.730664,42.321893],[-83.730801,42.321998],[-83.73145,42.321957]]]},"properties":{"created_user":"GISPORTALADMIN"}},{"type":"Feature","geometry":{"type":"Polygon","coordinates":[[[-83.730264,42.321007],[-83.730144,42.32091],[-83.729589,42.321034],[-83.729702,42.321124],[-83.730264,42.321007]]]},"properties":{"created_user":"GISPORTALADMIN"}},{"type":"Feature","geometry":{"type":"Polygon","coordinates":[[[-83.707975,42.324351],[-83.707963,42.32378],[-83.70785,42.323781],[-83.707872,42.324353],[-83.707975,42.324351]]]},"properties":{"created_user":"GISPORTALADMIN"}},{"type":"Feature","geometry":{"type":"Polygon","coordinates":[[[-83.690779,42.322583],[-83.690667,42.322512],[-83.69031,42.322558],[-83.690168,42.322581],[-83.690057,42.322601],[-83.689659,42.32268],[-83.68975,42.322744],[-83.690088,42.322678],[-83.690243,42.322653],[-83.69033,42.322639],[-83.690779,42.322583]]]},"properties":{"created_user":"GISPORTALADMIN"}},{"type":"Feature","geometry":{"type":"Polygon","coordinates":[[[-83.690356,42.322502],[-83.690268,42.322448],[-83.690196,42.322544],[-83.690168,42.322581],[-83.69031,42.322558],[-83.690356,42.322502]]]},"properties":{"created_user":"GISPORTALADMIN"}},{"type":"Feature","geometry":{"type":"Polygon","coordinates":[[[-83.690243,42.322653],[-83.690088,42.322678],[-83.690055,42.322717],[-83.690134,42.322785],[-83.690209,42.322692],[-83.690243,42.322653]]]},"properties":{"created_user":"GISPORTALADMIN"}},{"type":"Feature","geometry":{"type":"Polygon","coordinates":[[[-83.683721,42.324767],[-83.683714,42.324609],[-83.683323,42.324668],[-83.683329,42.32481],[-83.683721,42.324767]]]},"properties":{"created_user":"GISPORTALADMIN"}},{"type":"Feature","geometry":{"type":"Polygon","coordinates":[[[-83.683714,42.324496],[-83.683707,42.32434],[-83.683317,42.324382],[-83.683325,42.324539],[-83.683714,42.324496]]]},"properties":{"created_user":"GISPORTALADMIN"}},{"type":"Feature","geometry":{"type":"Polygon","coordinates":[[[-83.661765,42.325247],[-83.661467,42.325251],[-83.661479,42.325793],[-83.661759,42.325788],[-83.661765,42.325247]]]},"properties":{"created_user":"GISPORTALADMIN"}},{"type":"Feature","geometry":{"type":"Polygon","coordinates":[[[-83.645527,42.326073],[-83.645491,42.325397],[-83.645376,42.3254],[-83.645415,42.326074],[-83.645527,42.326073]]]},"properties":{"created_user":"GISPORTALADMIN"}},{"type":"Feature","geometry":{"type":"Polygon","coordinates":[[[-83.632626,42.327003],[-83.632503,42.326932],[-83.632286,42.326802],[-83.632107,42.3267],[-83.631909,42.326596],[-83.631802,42.326633],[-83.632468,42.327002],[-83.632626,42.327003]]]},"properties":{"created_user":"GISPORTALADMIN"}},{"type":"Feature","geometry":{"type":"Polygon","coordinates":[[[-83.632231,42.327001],[-83.63165,42.326678],[-83.631483,42.326732],[-83.631959,42.326999],[-83.632231,42.327001]]]},"properties":{"created_user":"GISPORTALADMIN"}},{"type":"Feature","geometry":{"type":"Polygon","coordinates":[[[-83.655629,42.272273],[-83.65562,42.272226],[-83.655535,42.272237],[-83.655117,42.272282],[-83.655009,42.272293],[-83.65502,42.272337],[-83.655119,42.272322],[-83.655549,42.272272],[-83.655629,42.272273]]]},"properties":{"created_user":"GISPORTALADMIN"}},{"type":"Feature","geometry":{"type":"Polygon","coordinates":[[[-83.638768,42.259776],[-83.638774,42.259295],[-83.638525,42.259264],[-83.638524,42.259749],[-83.638768,42.259776]]]},"properties":{"created_user":"GISPORTALADMIN"}},{"type":"Feature","geometry":{"type":"Polygon","coordinates":[[[-83.67071,42.271464],[-83.670216,42.269762],[-83.669987,42.269795],[-83.670476,42.271501],[-83.67071,42.271464]]]},"properties":{"created_user":"GISPORTALADMIN"}},{"type":"Feature","geometry":{"type":"Polygon","coordinates":[[[-83.67657,42.274498],[-83.676571,42.274399],[-83.676403,42.274393],[-83.67625,42.274389],[-83.676036,42.274382],[-83.675881,42.274378],[-83.675714,42.274381],[-83.675718,42.274472],[-83.675885,42.274482],[-83.676039,42.274487],[-83.676252,42.274494],[-83.676404,42.274499],[-83.67657,42.274498]]]},"properties":{"created_user":"GISPORTALADMIN"}},{"type":"Feature","geometry":{"type":"Polygon","coordinates":[[[-83.667504,42.274385],[-83.667437,42.274284],[-83.66723,42.274323],[-83.667295,42.274421],[-83.667504,42.274385]]]},"properties":{"created_user":"GISPORTALADMIN"}},{"type":"Feature","geometry":{"type":"Polygon","coordinates":[[[-83.65244,42.223923],[-83.65191,42.223952],[-83.65159,42.2241],[-83.650866,42.224449],[-83.650281,42.22473],[-83.650431,42.224885],[-83.650839,42.224688],[-83.651374,42.224429],[-83.651448,42.224394],[-83.651892,42.224187],[-83.65244,42.223923]]]},"properties":{"created_user":"GISPORTALADMIN"}},{"type":"Feature","geometry":{"type":"Polygon","coordinates":[[[-83.680063,42.225154],[-83.680075,42.225054],[-83.680064,42.224571],[-83.680061,42.224469],[-83.67981,42.224469],[-83.679792,42.224469],[-83.67981,42.225153],[-83.679827,42.225153],[-83.680063,42.225154]]]},"properties":{"created_user":"GISPORTALADMIN"}},{"type":"Feature","geometry":{"type":"Polygon","coordinates":[[[-83.685821,42.226003],[-83.685819,42.225879],[-83.68581,42.225436],[-83.685807,42.225317],[-83.685531,42.225215],[-83.68555,42.225903],[-83.685821,42.226003]]]},"properties":{"created_user":"GISPORTALADMIN"}},{"type":"Feature","geometry":{"type":"Polygon","coordinates":[[[-83.68532,42.225826],[-83.685316,42.225682],[-83.685307,42.225263],[-83.685304,42.225142],[-83.685032,42.225054],[-83.685028,42.225174],[-83.685036,42.225601],[-83.685049,42.225742],[-83.68532,42.225826]]]},"properties":{"created_user":"GISPORTALADMIN"}},{"type":"Feature","geometry":{"type":"Polygon","coordinates":[[[-83.696313,42.230298],[-83.696293,42.230276],[-83.694132,42.230081],[-83.694569,42.23031],[-83.695521,42.230404],[-83.696363,42.230488],[-83.696854,42.230534],[-83.696313,42.230298]]]},"properties":{"created_user":"GISPORTALADMIN"}},{"type":"Feature","geometry":{"type":"Polygon","coordinates":[[[-83.686065,42.230678],[-83.686058,42.230503],[-83.685932,42.230504],[-83.685631,42.230509],[-83.685421,42.230513],[-83.685124,42.230518],[-83.684996,42.230521],[-83.685003,42.23068],[-83.685004,42.230697],[-83.685131,42.230695],[-83.685422,42.23069],[-83.685634,42.230686],[-83.685937,42.230681],[-83.686065,42.230678]]]},"properties":{"created_user":"GISPORTALADMIN"}},{"type":"Feature","geometry":{"type":"Polygon","coordinates":[[[-83.699887,42.231854],[-83.699598,42.231737],[-83.699637,42.232666],[-83.699911,42.232788],[-83.699907,42.232469],[-83.699898,42.232154],[-83.699887,42.231854]]]},"properties":{"created_user":"GISPORTALADMIN"}},{"type":"Feature","geometry":{"type":"Polygon","coordinates":[[[-83.683844,42.245654],[-83.68384,42.245543],[-83.683836,42.245394],[-83.683832,42.245282],[-83.683662,42.245289],[-83.683659,42.245399],[-83.683662,42.245548],[-83.683669,42.245663],[-83.683844,42.245654]]]},"properties":{"created_user":"GISPORTALADMIN"}},{"type":"Feature","geometry":{"type":"Polygon","coordinates":[[[-83.683483,42.245667],[-83.683479,42.245553],[-83.683475,42.245405],[-83.683471,42.245297],[-83.683306,42.2453],[-83.683301,42.24541],[-83.683305,42.245557],[-83.683314,42.245671],[-83.683483,42.245667]]]},"properties":{"created_user":"GISPORTALADMIN"}},{"type":"Feature","geometry":{"type":"Polygon","coordinates":[[[-83.720174,42.237663],[-83.720173,42.237556],[-83.720171,42.237297],[-83.72017,42.237188],[-83.720052,42.237189],[-83.720054,42.237299],[-83.720056,42.237558],[-83.720059,42.237664],[-83.720174,42.237663]]]},"properties":{"created_user":"GISPORTALADMIN"}},{"type":"Feature","geometry":{"type":"Polygon","coordinates":[[[-83.73104,42.237293],[-83.730999,42.237037],[-83.730524,42.237048],[-83.730565,42.237303],[-83.73104,42.237293]]]},"properties":{"created_user":"GISPORTALADMIN"}},{"type":"Feature","geometry":{"type":"Polygon","coordinates":[[[-83.739365,42.237275],[-83.739362,42.237127],[-83.739355,42.236807],[-83.739352,42.236657],[-83.738909,42.236664],[-83.738912,42.236817],[-83.738918,42.237138],[-83.73892,42.237289],[-83.739365,42.237275]]]},"properties":{"created_user":"GISPORTALADMIN"}},{"type":"Feature","geometry":{"type":"Polygon","coordinates":[[[-83.763796,42.245416],[-83.763562,42.245257],[-83.763027,42.245693],[-83.763257,42.245857],[-83.7634,42.24574],[-83.763674,42.245516],[-83.763796,42.245416]]]},"properties":{"created_user":"GISPORTALADMIN"}},{"type":"Feature","geometry":{"type":"Polygon","coordinates":[[[-83.784814,42.272623],[-83.78482,42.272538],[-83.784563,42.272551],[-83.784204,42.272578],[-83.784021,42.272596],[-83.784026,42.272677],[-83.784197,42.272659],[-83.784557,42.272632],[-83.784814,42.272623]]]},"properties":{"created_user":"GISPORTALADMIN"}},{"type":"Feature","geometry":{"type":"Polygon","coordinates":[[[-83.78455,42.281901],[-83.784475,42.281723],[-83.784419,42.281568],[-83.784365,42.281398],[-83.78398,42.281283],[-83.784027,42.281451],[-83.784074,42.281603],[-83.784134,42.281776],[-83.78455,42.281901]]]},"properties":{"created_user":"GISPORTALADMIN"}},{"type":"Feature","geometry":{"type":"Polygon","coordinates":[[[-83.799647,42.290128],[-83.799648,42.289997],[-83.799645,42.289879],[-83.79964,42.289699],[-83.799636,42.289577],[-83.799633,42.289434],[-83.799496,42.289488],[-83.799501,42.289625],[-83.799505,42.289746],[-83.79951,42.289918],[-83.799514,42.290036],[-83.799518,42.290177],[-83.799647,42.290128]]]},"properties":{"created_user":"GISPORTALADMIN"}},{"type":"Feature","geometry":{"type":"Polygon","coordinates":[[[-83.799573,42.287395],[-83.79957,42.287285],[-83.799563,42.287011],[-83.799561,42.286923],[-83.799438,42.286905],[-83.799441,42.286989],[-83.799449,42.287263],[-83.799452,42.287378],[-83.799573,42.287395]]]},"properties":{"created_user":"GISPORTALADMIN"}},{"type":"Feature","geometry":{"type":"Polygon","coordinates":[[[-83.787307,42.298294],[-83.787181,42.298224],[-83.78706,42.298157],[-83.786886,42.29806],[-83.786764,42.297992],[-83.786637,42.297921],[-83.786525,42.297995],[-83.786656,42.298067],[-83.786779,42.298135],[-83.786953,42.298232],[-83.787073,42.298298],[-83.787204,42.298365],[-83.787307,42.298294]]]},"properties":{"created_user":"GISPORTALADMIN"}},{"type":"Feature","geometry":{"type":"Polygon","coordinates":[[[-83.781306,42.301003],[-83.781306,42.300888],[-83.781129,42.300924],[-83.780981,42.300955],[-83.780814,42.30099],[-83.780814,42.301101],[-83.780984,42.301067],[-83.781137,42.301037],[-83.781306,42.301003]]]},"properties":{"created_user":"GISPORTALADMIN"}},{"type":"Feature","geometry":{"type":"Polygon","coordinates":[[[-83.781296,42.300724],[-83.781292,42.300616],[-83.781118,42.300649],[-83.780969,42.300681],[-83.7808,42.300717],[-83.780806,42.300823],[-83.780973,42.300789],[-83.781121,42.300759],[-83.781296,42.300724]]]},"properties":{"created_user":"GISPORTALADMIN"}},{"type":"Feature","geometry":{"type":"Polygon","coordinates":[[[-83.742928,42.287122],[-83.741424,42.287898],[-83.741709,42.287993],[-83.74317,42.287246],[-83.742928,42.287122]]]},"properties":{"created_user":"GISPORTALADMIN"}},{"type":"Feature","geometry":{"type":"Polygon","coordinates":[[[-83.739806,42.288746],[-83.739948,42.288903],[-83.740613,42.288573],[-83.740506,42.288389],[-83.739806,42.288746]]]},"properties":{"created_user":"GISPORTALADMIN"}},{"type":"Feature","geometry":{"type":"Polygon","coordinates":[[[-83.798508,42.213366],[-83.798509,42.213275],[-83.797523,42.213293],[-83.797495,42.21329],[-83.797467,42.213284],[-83.797441,42.213274],[-83.797418,42.213261],[-83.797398,42.213245],[-83.797382,42.213227],[-83.79737,42.213207],[-83.797363,42.213186],[-83.797361,42.213165],[-83.797363,42.213143],[-83.79735,42.212779],[-83.797196,42.212778],[-83.797203,42.213214],[-83.797197,42.213235],[-83.797187,42.213254],[-83.797172,42.213272],[-83.797154,42.213288],[-83.797132,42.213301],[-83.797108,42.213312],[-83.797082,42.21332],[-83.797054,42.213324],[-83.797026,42.213325],[-83.797034,42.213424],[-83.797058,42.213421],[-83.797081,42.21342],[-83.797105,42.213423],[-83.797128,42.213428],[-83.797149,42.213436],[-83.797168,42.213447],[-83.797184,42.21346],[-83.797198,42.213475],[-83.797207,42.213491],[-83.797227,42.213898],[-83.797381,42.213898],[-83.797376,42.213497],[-83.797384,42.213476],[-83.797396,42.213457],[-83.797412,42.213439],[-83.797433,42.213424],[-83.797456,42.213411],[-83.797482,42.213402],[-83.797509,42.213395],[-83.797538,42.213393],[-83.798508,42.213366]]]},"properties":{"created_user":"GISPORTALADMIN"}},{"type":"Feature","geometry":{"type":"Polygon","coordinates":[[[-83.797928,42.29094],[-83.797472,42.290852],[-83.797016,42.290767],[-83.796891,42.290852],[-83.797798,42.291026],[-83.797928,42.29094]]]},"properties":{"created_user":"GISPORTALADMIN"}},{"type":"Feature","geometry":{"type":"Polygon","coordinates":[[[-83.803478,42.288256],[-83.803178,42.288325],[-83.802904,42.288392],[-83.803077,42.288464],[-83.803345,42.288402],[-83.803505,42.288367],[-83.803666,42.288333],[-83.803478,42.288256]]]},"properties":{"created_user":"GISPORTALADMIN"}},{"type":"Feature","geometry":{"type":"Polygon","coordinates":[[[-83.794633,42.285238],[-83.794416,42.285242],[-83.794199,42.285247],[-83.794298,42.285335],[-83.794734,42.285326],[-83.794633,42.285238]]]},"properties":{"created_user":"GISPORTALADMIN"}},{"type":"Feature","geometry":{"type":"Polygon","coordinates":[[[-83.721262,42.251193],[-83.721255,42.251162],[-83.721124,42.251172],[-83.721123,42.251198],[-83.721262,42.251193]]]},"properties":{"created_user":"GISPORTALADMIN"}},{"type":"Feature","geometry":{"type":"Polygon","coordinates":[[[-83.720898,42.251346],[-83.720749,42.251349],[-83.720751,42.251378],[-83.720898,42.251377],[-83.720898,42.251346]]]},"properties":{"created_user":"GISPORTALADMIN"}},{"type":"Feature","geometry":{"type":"Polygon","coordinates":[[[-83.718266,42.284365],[-83.717983,42.284067],[-83.717962,42.284079],[-83.718241,42.284378],[-83.718266,42.284365]]]},"properties":{"created_user":"GISPORTALADMIN"}}]}
