{"type":"FeatureCollection","features":[{"type":"Feature","geometry":{"type":"Polygon","coordinates":[[[-83.755009,42.308017],[-83.75501,42.308017],[-83.754667,42.307777],[-83.754595,42.307829],[-83.754939,42.308067],[-83.755009,42.308017]]]},"properties":{"created_user":"GISPORTALADMIN"}},{"type":"Feature","geometry":{"type":"Polygon","coordinates":[[[-83.747885,42.303189],[-83.747944,42.303135],[-83.74761,42.302904],[-83.747542,42.302955],[-83.747885,42.303189]]]},"properties":{"created_user":"GISPORTALADMIN"}},{"type":"Feature","geometry":{"type":"Polygon","coordinates":[[[-83.747186,42.290242],[-83.747183,42.290195],[-83.747136,42.290221],[-83.746957,42.290317],[-83.746762,42.290411],[-83.74654,42.290505],[-83.746204,42.290633],[-83.745976,42.290707],[-83.745625,42.290803],[-83.745385,42.290856],[-83.745081,42.29091],[-83.744772,42.290948],[-83.744771,42.290978],[-83.745111,42.29093],[-83.745363,42.290884],[-83.745613,42.29083],[-83.745852,42.290767],[-83.746165,42.29067],[-83.746395,42.290589],[-83.746743,42.290451],[-83.74696,42.290355],[-83.747128,42.290272],[-83.747186,42.290242]]]},"properties":{"created_user":"GISPORTALADMIN"}},{"type":"Feature","geometry":{"type":"Polygon","coordinates":[[[-83.750872,42.286433],[-83.750907,42.286371],[-83.750958,42.28628],[-83.750987,42.286229],[-83.750944,42.286216],[-83.750829,42.286419],[-83.750872,42.286433]]]},"properties":{"created_user":"GISPORTALADMIN"}},{"type":"Feature","geometry":{"type":"Polygon","coordinates":[[[-83.725885,42.285586],[-83.725913,42.285514],[-83.725475,42.285417],[-83.725441,42.285489],[-83.725885,42.285586]]]},"properties":{"created_user":"GISPORTALADMIN"}},{"type":"Feature","geometry":{"type":"Polygon","coordinates":[[[-83.719018,42.283977],[-83.718558,42.283874],[-83.718494,42.283931],[-83.718943,42.284036],[-83.719018,42.283977]]]},"properties":{"created_user":"GISPORTALADMIN"}},{"type":"Feature","geometry":{"type":"Polygon","coordinates":[[[-83.752207,42.281655],[-83.752162,42.281406],[-83.752114,42.281411],[-83.752158,42.281659],[-83.752207,42.281655]]]},"properties":{"created_user":"GISPORTALADMIN"}},{"type":"Feature","geometry":{"type":"Polygon","coordinates":[[[-83.751953,42.28069],[-83.751879,42.280482],[-83.751831,42.280491],[-83.751905,42.280699],[-83.751953,42.28069]]]},"properties":{"created_user":"GISPORTALADMIN"}},{"type":"Feature","geometry":{"type":"Polygon","coordinates":[[[-83.751982,42.283698],[-83.752047,42.283496],[-83.752001,42.283488],[-83.751936,42.28369],[-83.751982,42.283698]]]},"properties":{"created_user":"GISPORTALADMIN"}},{"type":"Feature","geometry":{"type":"Polygon","coordinates":[[[-83.668695,42.270514],[-83.66863,42.270443],[-83.668126,42.270505],[-83.668208,42.270574],[-83.668695,42.270514]]]},"properties":{"created_user":"GISPORTALADMIN"}},{"type":"Feature","geometry":{"type":"Polygon","coordinates":[[[-83.801677,42.324406],[-83.801752,42.324337],[-83.801708,42.324315],[-83.801434,42.324134],[-83.801366,42.324086],[-83.801291,42.324166],[-83.801355,42.324201],[-83.801641,42.324382],[-83.801677,42.324406]]]},"properties":{"created_user":"GISPORTALADMIN"}},{"type":"Feature","geometry":{"type":"Polygon","coordinates":[[[-83.791932,42.316636],[-83.791998,42.316564],[-83.791617,42.316401],[-83.79156,42.316467],[-83.791932,42.316636]]]},"properties":{"created_user":"GISPORTALADMIN"}},{"type":"Feature","geometry":{"type":"Polygon","coordinates":[[[-83.784533,42.315674],[-83.784552,42.315597],[-83.78372,42.315642],[-83.783681,42.315724],[-83.784533,42.315674]]]},"properties":{"created_user":"GISPORTALADMIN"}},{"type":"Feature","geometry":{"type":"Polygon","coordinates":[[[-83.644113,42.267065],[-83.643788,42.266702],[-83.643754,42.266668],[-83.643666,42.266725],[-83.643737,42.266818],[-83.644058,42.267177],[-83.644113,42.267065]]]},"properties":{"created_user":"GISPORTALADMIN"}},{"type":"Feature","geometry":{"type":"Polygon","coordinates":[[[-83.655557,42.272132],[-83.655549,42.272055],[-83.65553,42.27206],[-83.655103,42.272112],[-83.65507,42.272117],[-83.655088,42.272186],[-83.655122,42.272181],[-83.655533,42.272132],[-83.655557,42.272132]]]},"properties":{"created_user":"GISPORTALADMIN"}},{"type":"Feature","geometry":{"type":"Polygon","coordinates":[[[-83.633099,42.259284],[-83.632643,42.259027],[-83.632568,42.25909],[-83.63303,42.259353],[-83.633099,42.259284]]]},"properties":{"created_user":"GISPORTALADMIN"}}]}
